{"type":"FeatureCollection","features":[{"type":"Feature","properties":{"district":"Upper Subansiri","district_hi":"ऊपरी सुबनसिरी"},"geometry":{"type":"Polygon","coordinates":[[[94.4017,28.3386],[94.4034,28.328],[94.3777,28.3089],[94.375,28.2949],[94.3941,28.2635],[94.417,28.2542],[94.3832,28.258],[94.369,28.2444],[94.3679,28.2117],[94.3564,28.1986],[94.3914,28.1422],[94.3919,28.0828],[94.4672,28.0488],[94.4842,28.0217],[94.4847,28.0217],[94.5131,28.0153],[94.5322,27.986],[94.5257,27.9602],[94.5328,27.9453],[94.5584,27.9025],[94.5928,27.8901],[94.5934,27.8901],[94.595,27.8706],[94.5895,27.8664],[94.589,27.8617],[94.5824,27.86],[94.4443,27.8286],[94.4383,27.8129],[94.3821,27.7972],[94.3351,27.7603],[94.3346,27.7603],[94.3182,27.773],[94.3182,27.7735],[94.2712,27.8095],[94.1932,27.8117],[94.1921,27.8367],[94.1599,27.8439],[94.149,27.866],[94.0742,27.8494],[94.0474,27.9118],[94.0682,27.9394],[94.0234,27.9563],[94.0108,27.9563],[93.9988,27.9657],[93.9677,27.978],[93.9617,27.9788],[93.9491,27.9805],[93.941,28.0005],[93.9126,28.0128],[93.9098,28.0293],[93.8738,28.0535],[93.8749,28.073],[93.8547,28.0815],[93.8809,28.1078],[93.8765,28.121],[93.8924,28.1286],[93.8465,28.2079],[93.84,28.2368],[93.7657,28.2631],[93.7018,28.3081],[93.68,28.3221],[93.6603,28.3047],[93.6276,28.3068],[93.6118,28.272],[93.6118,28.2716],[93.603,28.2695],[93.561,28.2605],[93.555,28.2593],[93.4796,28.2813],[93.4567,28.2724],[93.4551,28.2716],[93.4534,28.2737],[93.4289,28.283],[93.425,28.2826],[93.4234,28.2851],[93.4087,28.3068],[93.3863,28.3064],[93.3841,28.3106],[93.3786,28.3115],[93.3704,28.3263],[93.3606,28.3297],[93.3606,28.3437],[93.3366,28.3535],[93.294,28.3403],[93.2825,28.3649],[93.2536,28.3619],[93.223,28.3344],[93.2241,28.3424],[93.2334,28.4001],[93.1832,28.4324],[93.2372,28.4824],[93.2782,28.5045],[93.3077,28.566],[93.3022,28.5991],[93.33,28.608],[93.3393,28.6398],[93.4141,28.6526],[93.448,28.6759],[93.4687,28.6517],[93.4933,28.6835],[93.5359,28.6585],[93.6221,28.6572],[93.7335,28.6886],[93.7772,28.6678],[93.846,28.7069],[93.9213,28.6695],[93.9622,28.7124],[93.9895,28.6878],[94.0234,28.6513],[94.0059,28.6216],[94.0016,28.5779],[94.0714,28.5393],[94.0971,28.5363],[94.1086,28.5215],[94.1146,28.4756],[94.1484,28.4396],[94.1577,28.4349],[94.1686,28.4328],[94.2194,28.4362],[94.2314,28.4281],[94.2418,28.4468],[94.2925,28.429],[94.3084,28.4171],[94.3018,28.3959],[94.3084,28.3755],[94.3297,28.3577],[94.3679,28.353],[94.369,28.3522],[94.3859,28.3361],[94.4012,28.3403],[94.4017,28.3386]]]}},{"type":"Feature","properties":{"district":"Anjaw","district_hi":"अंजाव"},"geometry":{"type":"Polygon","coordinates":[[[96.8612,27.6309],[96.8486,27.6241],[96.7826,27.6424],[96.7657,27.6182],[96.7646,27.6169],[96.7176,27.6487],[96.7056,27.6509],[96.7001,27.6606],[96.6488,27.6738],[96.6395,27.6818],[96.6292,27.6848],[96.6243,27.6946],[96.6193,27.7035],[96.6161,27.7094],[96.6199,27.7141],[96.6401,27.7378],[96.6155,27.7701],[96.6128,27.7739],[96.6319,27.8104],[96.6139,27.8575],[96.586,27.8532],[96.5287,27.9008],[96.4162,27.9232],[96.3917,27.975],[96.288,28.062],[96.2825,28.0722],[96.2732,28.0913],[96.3273,28.1311],[96.3354,28.1723],[96.2956,28.2491],[96.3016,28.2839],[96.3371,28.3395],[96.3114,28.3653],[96.3054,28.3696],[96.3065,28.3713],[96.3038,28.3738],[96.3136,28.3836],[96.3693,28.3891],[96.378,28.359],[96.3906,28.3573],[96.3977,28.3395],[96.4108,28.3416],[96.4212,28.3458],[96.4304,28.3866],[96.4566,28.4141],[96.5085,28.4129],[96.5778,28.4578],[96.663,28.4604],[96.7493,28.4158],[96.7804,28.3645],[96.8497,28.3619],[96.8967,28.3798],[96.9234,28.3386],[96.9939,28.3093],[97.0201,28.3195],[97.0495,28.3513],[97.0899,28.3628],[97.1494,28.3272],[97.1713,28.2919],[97.2215,28.2924],[97.2384,28.2678],[97.2794,28.2686],[97.31,28.244],[97.3716,28.2177],[97.3973,28.1854],[97.3689,28.1922],[97.3274,28.1549],[97.3214,28.14],[97.3356,28.1112],[97.3067,28.0849],[97.3045,28.0688],[97.328,28.0569],[97.37,28.062],[97.3645,28.0442],[97.3733,28.0306],[97.4115,28.0153],[97.3875,28.0034],[97.3744,27.9776],[97.3716,27.9355],[97.3837,27.9177],[97.3749,27.9092],[97.3853,27.8876],[97.3607,27.8761],[97.3394,27.8851],[97.3171,27.8808],[97.3203,27.9033],[97.305,27.9211],[97.2526,27.9012],[97.1565,27.8142],[97.0987,27.7849],[97.0878,27.734],[97.0616,27.7484],[97.0474,27.7391],[97.0315,27.7493],[96.9857,27.6861],[96.9829,27.6666],[96.9349,27.6615],[96.9038,27.6139],[96.8612,27.6309]]]}},{"type":"Feature","properties":{"district":"Changlang","district_hi":"चांगलांग"},"geometry":{"type":"Polygon","coordinates":[[[96.7001,27.6606],[96.7056,27.6509],[96.7176,27.6487],[96.7646,27.6169],[96.7657,27.6182],[96.7826,27.6424],[96.8486,27.6241],[96.8612,27.6309],[96.8967,27.6161],[96.8901,27.5796],[96.9081,27.5796],[96.9065,27.5444],[96.9354,27.5083],[96.9103,27.4867],[96.9032,27.4527],[96.9322,27.4315],[96.9349,27.4154],[96.9622,27.4018],[96.9622,27.373],[96.99,27.3441],[96.9982,27.3187],[97.0282,27.3085],[97.055,27.2652],[97.0883,27.2389],[97.0905,27.2134],[97.1636,27.1422],[97.1615,27.1231],[97.138,27.0917],[97.1003,27.1091],[97.097,27.0968],[97.0632,27.0917],[97.0304,27.1315],[96.9928,27.14],[96.984,27.1545],[96.9016,27.1685],[96.8601,27.1897],[96.8546,27.2109],[96.8858,27.227],[96.8852,27.2593],[96.847,27.2716],[96.8481,27.2902],[96.7968,27.3458],[96.704,27.3721],[96.698,27.3577],[96.6057,27.3657],[96.5909,27.3479],[96.5964,27.3335],[96.5511,27.3182],[96.5238,27.2864],[96.5074,27.2991],[96.4577,27.3068],[96.3862,27.2847],[96.306,27.294],[96.2743,27.2834],[96.2716,27.2716],[96.2284,27.2788],[96.1853,27.2491],[96.1553,27.2482],[96.0898,27.2232],[96.0221,27.1795],[96.0101,27.1422],[95.9675,27.0985],[95.9456,27.0514],[95.9042,27.0391],[95.8703,27.0132],[95.831,27.0077],[95.8021,27.0149],[95.7551,26.9538],[95.76,26.9368],[95.748,26.9262],[95.7447,26.8961],[95.7164,26.8791],[95.6792,26.8961],[95.6847,26.9037],[95.694,26.9177],[95.6809,26.9852],[95.6427,26.9907],[95.6312,27.0111],[95.629,27.0268],[95.6497,27.0632],[95.6388,27.1002],[95.6634,27.1252],[95.6678,27.1719],[95.6405,27.1931],[95.6339,27.2304],[95.6814,27.252],[95.7202,27.2495],[95.742,27.2669],[95.7797,27.2699],[95.801,27.2843],[95.8048,27.2733],[95.8594,27.2873],[95.8561,27.2711],[95.8921,27.2554],[95.9042,27.2741],[95.8971,27.2822],[95.9598,27.311],[95.9549,27.3178],[95.9757,27.3246],[95.9653,27.328],[95.9893,27.3564],[96.015,27.3683],[95.9833,27.412],[95.9702,27.415],[95.9691,27.4281],[95.9544,27.4196],[95.9413,27.4374],[95.908,27.4345],[95.8856,27.3984],[95.8829,27.4353],[95.8572,27.4201],[95.8599,27.4082],[95.8446,27.4218],[95.8534,27.457],[95.8709,27.4667],[95.8741,27.4935],[95.8867,27.4973],[95.8758,27.5125],[95.8741,27.5444],[95.8741,27.5469],[96.0019,27.5567],[96.0614,27.6063],[96.1258,27.6195],[96.1329,27.6063],[96.2246,27.5681],[96.294,27.5588],[96.3076,27.5669],[96.3114,27.5698],[96.3726,27.6449],[96.3835,27.639],[96.3939,27.6487],[96.4397,27.6526],[96.4523,27.6411],[96.4801,27.6462],[96.5189,27.6369],[96.5822,27.656],[96.6406,27.6279],[96.6821,27.6547],[96.7001,27.6606]]]}},{"type":"Feature","properties":{"district":"Tawang","district_hi":"तवांग"},"geometry":{"type":"Polygon","coordinates":[[[92.0138,27.4901],[91.9805,27.4646],[91.9406,27.4604],[91.8505,27.4824],[91.8298,27.4688],[91.7217,27.4701],[91.7124,27.4909],[91.6917,27.5024],[91.6551,27.4828],[91.6223,27.513],[91.6114,27.5414],[91.5961,27.5393],[91.5639,27.5842],[91.5781,27.6084],[91.5601,27.6335],[91.5983,27.6924],[91.6262,27.706],[91.642,27.765],[91.6305,27.8006],[91.6011,27.821],[91.5678,27.8155],[91.5465,27.8558],[91.6644,27.8583],[91.7119,27.8134],[91.7605,27.8011],[91.8265,27.8104],[91.8626,27.737],[91.8806,27.7217],[91.9101,27.726],[91.9204,27.7149],[91.9472,27.7285],[91.9576,27.7506],[91.9859,27.7697],[92.0575,27.759],[92.1579,27.8367],[92.2021,27.8566],[92.2567,27.8617],[92.3091,27.779],[92.3812,27.7947],[92.3845,27.8151],[92.4085,27.8218],[92.4451,27.8002],[92.4686,27.8146],[92.4615,27.7849],[92.4609,27.782],[92.4598,27.7815],[92.4129,27.7557],[92.4134,27.709],[92.3932,27.6725],[92.343,27.6725],[92.2698,27.6483],[92.2447,27.6509],[92.2223,27.6271],[92.2223,27.6029],[92.2092,27.5804],[92.1519,27.5775],[92.1121,27.5253],[92.0493,27.5168],[92.0138,27.4913],[92.0138,27.4901]]]}},{"type":"Feature","properties":{"district":"Papum Pare","district_hi":"पापम पारे"},"geometry":{"type":"Polygon","coordinates":[[[93.942,27.5113],[94.0452,27.4994],[94.0687,27.4824],[94.1058,27.4935],[94.1506,27.5304],[94.191,27.5359],[94.2052,27.5312],[94.2199,27.5049],[94.1566,27.4748],[94.1593,27.4616],[94.0894,27.4073],[94.06,27.3615],[93.9912,27.3284],[93.8061,27.1489],[93.8056,27.1371],[93.7979,27.1366],[93.8252,27.1167],[93.8378,27.0853],[93.829,27.0671],[93.8105,27.0675],[93.8034,27.0581],[93.7936,27.0726],[93.8001,27.0581],[93.7837,27.0514],[93.781,27.0658],[93.7783,27.0492],[93.7706,27.062],[93.7673,27.0395],[93.7231,27.0208],[93.6975,26.9941],[93.6767,26.9792],[93.6647,26.9686],[93.6614,26.9682],[93.4742,26.9372],[93.4704,26.9368],[93.4693,26.9377],[93.4485,26.9508],[93.3983,26.9572],[93.3912,26.9584],[93.3874,26.9674],[93.3808,26.9847],[93.3399,26.9928],[93.3426,27.0365],[93.3126,27.0794],[93.2929,27.0781],[93.2722,27.1035],[93.2121,27.1175],[93.2143,27.1379],[93.3115,27.1727],[93.2738,27.2109],[93.2258,27.2011],[93.2198,27.1999],[93.2209,27.2117],[93.2241,27.2346],[93.2241,27.2351],[93.234,27.238],[93.2258,27.252],[93.294,27.2898],[93.288,27.3276],[93.3033,27.3411],[93.3197,27.3479],[93.33,27.3547],[93.3737,27.37],[93.3704,27.415],[93.3699,27.415],[93.33,27.4425],[93.3148,27.4413],[93.3273,27.4608],[93.3208,27.4871],[93.294,27.5215],[93.3306,27.5562],[93.3,27.5787],[93.282,27.577],[93.2842,27.5881],[93.2716,27.5949],[93.2285,27.6025],[93.229,27.6033],[93.2913,27.6576],[93.3295,27.6695],[93.5146,27.65],[93.543,27.6216],[93.5446,27.6199],[93.5626,27.6021],[93.6178,27.5321],[93.6074,27.4939],[93.5681,27.4718],[93.5572,27.4379],[93.5784,27.4349],[93.6003,27.3674],[93.6128,27.3573],[93.6309,27.3602],[93.6658,27.336],[93.7406,27.3526],[93.7848,27.3505],[93.8067,27.3713],[93.8269,27.3581],[93.8356,27.3636],[93.8274,27.4247],[93.8498,27.4404],[93.8525,27.465],[93.8885,27.4913],[93.942,27.5113]]]}},{"type":"Feature","properties":{"district":"Tirap","district_hi":"तिराप"},"geometry":{"type":"Polygon","coordinates":[[[95.6339,27.2304],[95.6405,27.1931],[95.6678,27.1719],[95.6634,27.1252],[95.6388,27.1002],[95.6497,27.0632],[95.629,27.0268],[95.6312,27.0111],[95.6427,26.9907],[95.6809,26.9852],[95.694,26.9177],[95.6847,26.9037],[95.6672,26.9029],[95.6317,26.8736],[95.6268,26.8426],[95.6083,26.8133],[95.5695,26.8163],[95.5433,26.8354],[95.5056,26.7998],[95.4963,26.818],[95.5051,26.8766],[95.4407,26.8672],[95.3948,26.9012],[95.379,26.9126],[95.368,26.9355],[95.3773,27.0089],[95.3604,27.0327],[95.3888,27.0446],[95.3872,27.0845],[95.3746,27.0929],[95.3768,27.0959],[95.3762,27.0968],[95.379,27.0985],[95.3975,27.1108],[95.4341,27.126],[95.4396,27.126],[95.4412,27.129],[95.4488,27.1324],[95.4532,27.1294],[95.4554,27.1349],[95.4619,27.1498],[95.4532,27.1574],[95.4663,27.1816],[95.4587,27.2075],[95.469,27.2211],[95.4843,27.2414],[95.4914,27.244],[95.5034,27.2486],[95.5089,27.2618],[95.5351,27.2643],[95.5793,27.2359],[95.5968,27.2245],[95.599,27.2232],[95.6088,27.2266],[95.6339,27.2304]]]}},{"type":"Feature","properties":{"district":"East Siang","district_hi":"पूर्वी सियांग"},"geometry":{"type":"Polygon","coordinates":[[[95.5193,27.8834],[95.5149,27.88],[95.3795,27.8392],[95.3085,27.8681],[95.249,27.8503],[95.2092,27.838],[95.1366,27.8159],[95.1153,27.8566],[95.1207,27.9033],[95.0716,27.916],[95.0891,27.9678],[95.0672,28.0234],[95.1153,28.0242],[95.2054,28.0526],[95.2403,28.0471],[95.2889,28.0904],[95.2954,28.121],[95.2507,28.1502],[95.2277,28.1557],[95.2698,28.1973],[95.3031,28.2024],[95.3053,28.2241],[95.3418,28.2448],[95.3462,28.2839],[95.3833,28.3123],[95.3844,28.3123],[95.3893,28.3076],[95.4368,28.314],[95.4554,28.2775],[95.4652,28.2576],[95.4761,28.2618],[95.5351,28.2847],[95.5373,28.2835],[95.5629,28.2563],[95.564,28.255],[95.5629,28.0662],[95.5602,28.0514],[95.5302,28.0],[95.5029,27.9529],[95.5007,27.95],[95.5018,27.9462],[95.5193,27.8834]]]}},{"type":"Feature","properties":{"district":"Lohit","district_hi":"लोहित"},"geometry":{"type":"Polygon","coordinates":[[[96.3054,28.3696],[96.3114,28.3653],[96.3371,28.3395],[96.3016,28.2839],[96.2956,28.2491],[96.3354,28.1723],[96.3273,28.1311],[96.2732,28.0913],[96.2825,28.0722],[96.288,28.062],[96.3917,27.975],[96.4162,27.9232],[96.5287,27.9008],[96.586,27.8532],[96.6139,27.8575],[96.6319,27.8104],[96.6128,27.7739],[96.6155,27.7701],[96.6401,27.7378],[96.6199,27.7141],[96.6161,27.7094],[96.6193,27.7035],[96.6243,27.6946],[96.6292,27.6848],[96.6395,27.6818],[96.6488,27.6738],[96.7001,27.6606],[96.6821,27.6547],[96.6406,27.6279],[96.5822,27.656],[96.5189,27.6369],[96.4801,27.6462],[96.4523,27.6411],[96.4397,27.6526],[96.3939,27.6487],[96.3835,27.639],[96.3726,27.6449],[96.3114,27.5698],[96.2852,27.5953],[96.2918,27.6279],[96.2699,27.6517],[96.2607,27.7196],[96.2732,27.7879],[96.2077,27.8774],[96.0232,27.8503],[95.8048,27.7361],[95.7709,27.7298],[95.7742,27.7319],[95.7791,27.7336],[95.7791,27.7349],[95.7759,27.7535],[95.813,27.7985],[95.8376,27.81],[95.8376,27.8104],[95.8381,27.8104],[95.8376,27.8244],[95.8703,27.8329],[95.8709,27.8333],[95.9156,27.8838],[95.9249,27.8817],[95.9156,27.8893],[95.9375,27.8982],[95.9298,27.9029],[95.9527,27.9203],[95.9527,27.9207],[95.9489,27.9381],[95.9544,27.944],[95.9691,27.9602],[95.9697,27.9602],[95.9866,27.9585],[96.0139,27.9954],[96.0199,28.0408],[96.057,28.0857],[96.0587,28.0874],[96.0587,28.0879],[96.0597,28.0917],[96.0707,28.121],[96.0707,28.1235],[96.069,28.1676],[96.0679,28.1905],[96.0898,28.1914],[96.1007,28.1901],[96.1422,28.1702],[96.2153,28.2308],[96.2678,28.2389],[96.2383,28.2996],[96.2901,28.3445],[96.3054,28.3696]]]}},{"type":"Feature","properties":{"district":"Kurung Kumey","district_hi":"कुरुंग कुमे"},"geometry":{"type":"Polygon","coordinates":[[[93.2241,28.3424],[93.223,28.3344],[93.2536,28.3619],[93.2825,28.3649],[93.294,28.3403],[93.3366,28.3535],[93.3606,28.3437],[93.3606,28.3297],[93.3704,28.3263],[93.3786,28.3115],[93.3841,28.3106],[93.3863,28.3064],[93.4087,28.3068],[93.4234,28.2851],[93.425,28.2826],[93.4289,28.283],[93.4534,28.2737],[93.4551,28.2716],[93.4567,28.2724],[93.4573,28.272],[93.4469,28.2003],[93.46,28.1129],[93.4862,28.1036],[93.5058,28.0692],[93.5703,28.0573],[93.5877,27.9776],[93.6183,27.9538],[93.5845,27.9058],[93.6019,27.9075],[93.5921,27.8333],[93.5097,27.7429],[93.5326,27.7221],[93.5375,27.6738],[93.5146,27.65],[93.3295,27.6695],[93.2913,27.6576],[93.229,27.6033],[93.2389,27.6139],[93.2296,27.6462],[93.1952,27.6746],[93.2236,27.7107],[93.2012,27.7319],[93.2252,27.7603],[93.2389,27.8006],[93.2028,27.8397],[93.199,27.8443],[93.1974,27.8431],[93.1761,27.8214],[93.1308,27.8223],[93.0958,27.8091],[93.0745,27.8269],[92.9785,27.824],[92.9441,27.8507],[92.9315,27.8783],[92.9315,27.9249],[92.8655,27.9457],[92.86,27.958],[92.86,27.9585],[92.7568,27.9576],[92.7344,27.9767],[92.741,27.989],[92.711,28.0327],[92.6629,28.0675],[92.6891,28.1256],[92.8016,28.202],[92.818,28.2011],[92.83,28.171],[92.8971,28.2041],[92.9146,28.2347],[92.9665,28.2614],[93.0019,28.2304],[93.0358,28.2627],[93.0254,28.303],[93.0969,28.3068],[93.1264,28.3263],[93.1957,28.3174],[93.2241,28.3424]]]}},{"type":"Feature","properties":{"district":"Lower Subansiri","district_hi":"निचली सुबनसिरी"},"geometry":{"type":"Polygon","coordinates":[[[93.942,27.5113],[93.8885,27.4913],[93.8525,27.465],[93.8498,27.4404],[93.8274,27.4247],[93.8356,27.3636],[93.8269,27.3581],[93.8067,27.3713],[93.7848,27.3505],[93.7406,27.3526],[93.6658,27.336],[93.6309,27.3602],[93.6128,27.3573],[93.6003,27.3674],[93.5784,27.4349],[93.5572,27.4379],[93.5681,27.4718],[93.6074,27.4939],[93.6178,27.5321],[93.5626,27.6021],[93.5446,27.6199],[93.543,27.6216],[93.5774,27.6173],[93.6767,27.6848],[93.7089,27.6861],[93.7679,27.7302],[93.7684,27.7896],[93.8645,27.8172],[93.8902,27.8201],[93.9077,27.7972],[93.8907,27.7429],[93.9197,27.7234],[93.9257,27.6593],[93.9415,27.6373],[94.0534,27.608],[94.0491,27.5826],[94.1064,27.5541],[94.1064,27.5439],[94.072,27.5155],[93.942,27.5113]]]}},{"type":"Feature","properties":{"district":"East Kameng","district_hi":"पूर्वी कामेंग"},"geometry":{"type":"Polygon","coordinates":[[[92.4609,27.782],[92.4615,27.7849],[92.4686,27.8146],[92.5029,27.8409],[92.5455,27.8168],[92.5619,27.8206],[92.6067,27.877],[92.6706,27.8995],[92.7344,27.9767],[92.7568,27.9576],[92.86,27.9585],[92.86,27.958],[92.8655,27.9457],[92.9315,27.9249],[92.9315,27.8783],[92.9441,27.8507],[92.9785,27.824],[93.0745,27.8269],[93.0958,27.8091],[93.1308,27.8223],[93.1761,27.8214],[93.1974,27.8431],[93.199,27.8443],[93.2028,27.8397],[93.2389,27.8006],[93.2252,27.7603],[93.2012,27.7319],[93.2236,27.7107],[93.1952,27.6746],[93.2296,27.6462],[93.2389,27.6139],[93.229,27.6033],[93.2285,27.6025],[93.2716,27.5949],[93.2842,27.5881],[93.282,27.577],[93.3,27.5787],[93.3306,27.5562],[93.294,27.5215],[93.3208,27.4871],[93.3273,27.4608],[93.3148,27.4413],[93.33,27.4425],[93.3699,27.415],[93.3704,27.415],[93.3737,27.37],[93.33,27.3547],[93.2995,27.3997],[93.1952,27.3781],[93.1652,27.3114],[93.0025,27.2495],[92.9845,27.2198],[93.0096,27.2007],[93.0724,27.2032],[93.0806,27.1867],[93.0691,27.171],[93.0118,27.1426],[92.9583,27.1583],[92.8955,27.1341],[92.8573,27.14],[92.8392,27.132],[92.8283,27.1617],[92.8087,27.1769],[92.8087,27.1778],[92.8147,27.1761],[92.8092,27.2007],[92.8338,27.2143],[92.8283,27.2245],[92.8365,27.2325],[92.8365,27.2329],[92.824,27.2419],[92.7994,27.2601],[92.8059,27.2953],[92.8212,27.2873],[92.8447,27.2932],[92.8043,27.3297],[92.8005,27.35],[92.8147,27.3547],[92.8119,27.3789],[92.8229,27.3785],[92.8229,27.4001],[92.819,27.4145],[92.8038,27.4171],[92.8109,27.4256],[92.8038,27.4485],[92.7006,27.4502],[92.6847,27.4727],[92.6602,27.4824],[92.6514,27.5007],[92.658,27.5253],[92.6438,27.552],[92.6067,27.5626],[92.6203,27.5872],[92.6072,27.5978],[92.6105,27.619],[92.5947,27.6305],[92.5472,27.6212],[92.5308,27.6288],[92.5302,27.6801],[92.5106,27.7145],[92.516,27.7344],[92.4696,27.7773],[92.4609,27.782]]]}},{"type":"Feature","properties":{"district":"West Kameng","district_hi":"पश्चिम कामेंग"},"geometry":{"type":"Polygon","coordinates":[[[92.0138,27.4901],[92.0138,27.4913],[92.0493,27.5168],[92.1121,27.5253],[92.1519,27.5775],[92.2092,27.5804],[92.2223,27.6029],[92.2223,27.6271],[92.2447,27.6509],[92.2698,27.6483],[92.343,27.6725],[92.3932,27.6725],[92.4134,27.709],[92.4129,27.7557],[92.4598,27.7815],[92.4609,27.782],[92.4696,27.7773],[92.516,27.7344],[92.5106,27.7145],[92.5302,27.6801],[92.5308,27.6288],[92.5472,27.6212],[92.5947,27.6305],[92.6105,27.619],[92.6072,27.5978],[92.6203,27.5872],[92.6067,27.5626],[92.6438,27.552],[92.658,27.5253],[92.6514,27.5007],[92.6602,27.4824],[92.6847,27.4727],[92.7006,27.4502],[92.8038,27.4485],[92.8109,27.4256],[92.8038,27.4171],[92.819,27.4145],[92.8229,27.4001],[92.8229,27.3785],[92.8119,27.3789],[92.8147,27.3547],[92.8005,27.35],[92.8043,27.3297],[92.8447,27.2932],[92.8212,27.2873],[92.8059,27.2953],[92.7994,27.2601],[92.824,27.2419],[92.8365,27.2329],[92.8365,27.2325],[92.8283,27.2245],[92.8338,27.2143],[92.8092,27.2007],[92.8147,27.1761],[92.8087,27.1778],[92.7628,27.1909],[92.7524,27.1935],[92.6902,27.1719],[92.6154,27.143],[92.6012,27.1175],[92.5947,27.0951],[92.5979,27.0531],[92.6569,27.0081],[92.6449,26.9869],[92.6007,26.9669],[92.5979,26.9661],[92.5701,26.9597],[92.563,26.958],[92.4473,26.9589],[92.426,26.941],[92.4118,26.9427],[92.3981,26.9249],[92.3599,26.9258],[92.3648,26.9321],[92.3026,26.9228],[92.3031,26.9071],[92.2758,26.902],[92.2551,26.9097],[92.1945,26.8901],[92.1137,26.8927],[92.1082,26.8931],[92.1175,26.9593],[92.1028,26.9822],[92.1039,27.0072],[92.0804,27.02],[92.0646,27.0514],[92.0454,27.0514],[92.0345,27.0641],[92.0231,27.1142],[92.0373,27.1379],[92.0242,27.1617],[92.0569,27.1888],[92.0706,27.2232],[92.0667,27.2444],[92.0405,27.266],[92.0711,27.2766],[92.1028,27.2686],[92.1197,27.2754],[92.1213,27.2868],[92.0596,27.3267],[92.0613,27.345],[92.0476,27.3679],[92.0558,27.3997],[92.04,27.4362],[92.0203,27.4472],[92.0138,27.4901]]]}},{"type":"Feature","properties":{"district":"Kra Daadi","district_hi":"करा दादी"},"geometry":{"type":"Polygon","coordinates":[[[93.4567,28.2724],[93.4796,28.2813],[93.555,28.2593],[93.561,28.2605],[93.603,28.2695],[93.6118,28.2716],[93.6118,28.272],[93.6276,28.3068],[93.6603,28.3047],[93.68,28.3221],[93.7018,28.3081],[93.7657,28.2631],[93.84,28.2368],[93.8465,28.2079],[93.8924,28.1286],[93.8765,28.121],[93.8809,28.1078],[93.8547,28.0815],[93.8749,28.073],[93.8738,28.0535],[93.9098,28.0293],[93.9126,28.0128],[93.941,28.0005],[93.9491,27.9805],[93.9617,27.9788],[93.9448,27.9644],[93.9268,27.9198],[93.8825,27.9097],[93.8836,27.9008],[93.9273,27.8851],[93.9109,27.8308],[93.8902,27.8201],[93.8645,27.8172],[93.7684,27.7896],[93.7679,27.7302],[93.7089,27.6861],[93.6767,27.6848],[93.5774,27.6173],[93.543,27.6216],[93.5146,27.65],[93.5375,27.6738],[93.5326,27.7221],[93.5097,27.7429],[93.5921,27.8333],[93.6019,27.9075],[93.5845,27.9058],[93.6183,27.9538],[93.5877,27.9776],[93.5703,28.0573],[93.5058,28.0692],[93.4862,28.1036],[93.46,28.1129],[93.4469,28.2003],[93.4573,28.272],[93.4567,28.2724]]]}},{"type":"Feature","properties":{"district":"Namsai","district_hi":"नामसाई"},"geometry":{"type":"Polygon","coordinates":[[[96.3114,27.5698],[96.3076,27.5669],[96.294,27.5588],[96.2246,27.5681],[96.1329,27.6063],[96.1258,27.6195],[96.0614,27.6063],[96.0019,27.5567],[95.8741,27.5469],[95.8741,27.5444],[95.8638,27.5435],[95.8605,27.5431],[95.8141,27.5745],[95.8157,27.597],[95.8157,27.5987],[95.7911,27.5995],[95.7884,27.6042],[95.7797,27.6212],[95.7955,27.6419],[95.7704,27.6581],[95.7753,27.6746],[95.7906,27.6801],[95.7677,27.6873],[95.7655,27.7149],[95.7551,27.7251],[95.7617,27.7272],[95.7742,27.7319],[95.7709,27.7298],[95.8048,27.7361],[96.0232,27.8503],[96.2077,27.8774],[96.2732,27.7879],[96.2607,27.7196],[96.2699,27.6517],[96.2918,27.6279],[96.2852,27.5953],[96.3114,27.5698]]]}},{"type":"Feature","properties":{"district":"Longding","district_hi":"लोंगडिंग"},"geometry":{"type":"Polygon","coordinates":[[[95.3762,27.0968],[95.3768,27.0959],[95.3746,27.0929],[95.3872,27.0845],[95.3888,27.0446],[95.3604,27.0327],[95.3773,27.0089],[95.368,26.9355],[95.379,26.9126],[95.3948,26.9012],[95.4407,26.8672],[95.5051,26.8766],[95.4963,26.818],[95.5045,26.7926],[95.4821,26.7463],[95.4592,26.7429],[95.427,26.6979],[95.374,26.6839],[95.3604,26.6708],[95.3353,26.6738],[95.3036,26.6508],[95.2594,26.6555],[95.2572,26.6763],[95.2337,26.6831],[95.2326,26.706],[95.2103,26.7289],[95.2163,26.7556],[95.2425,26.7824],[95.2419,26.7828],[95.2081,26.7951],[95.1972,26.8227],[95.2032,26.8464],[95.1808,26.8562],[95.2086,26.8825],[95.2283,26.8808],[95.2321,26.9029],[95.2299,26.9228],[95.2064,26.9419],[95.2021,26.958],[95.2114,26.9661],[95.1917,26.9847],[95.1955,27.0348],[95.2108,27.0284],[95.2321,27.0429],[95.2463,27.0238],[95.2589,27.0306],[95.261,27.0327],[95.2916,27.0666],[95.3686,27.1099],[95.3691,27.1052],[95.3713,27.0934],[95.3762,27.0968]]]}},{"type":"Feature","properties":{"district":"Upper Siang","district_hi":"ऊपरी सियांग"},"geometry":{"type":"Polygon","coordinates":[[[95.3833,28.3123],[95.3462,28.2839],[95.3418,28.2448],[95.3053,28.2241],[95.3031,28.2024],[95.2698,28.1973],[95.2277,28.1557],[95.2239,28.1519],[95.1922,28.1647],[95.1715,28.1965],[95.1371,28.2037],[95.1306,28.2168],[95.1387,28.2287],[95.1065,28.2635],[95.1175,28.3764],[95.0825,28.395],[95.0814,28.415],[95.1044,28.4443],[95.1109,28.4629],[95.1016,28.4837],[95.1104,28.5007],[95.0842,28.5266],[95.0383,28.5155],[94.9886,28.5291],[94.9722,28.5656],[94.958,28.5728],[94.9018,28.549],[94.8199,28.5681],[94.7954,28.5461],[94.7588,28.5342],[94.7773,28.5592],[94.7599,28.5601],[94.7468,28.5881],[94.7457,28.6865],[94.6338,28.7667],[94.6332,28.7841],[94.6201,28.7939],[94.5923,28.7917],[94.5617,28.8104],[94.5251,28.8117],[94.5153,28.821],[94.5169,28.8367],[94.4798,28.8583],[94.4498,28.8863],[94.4416,28.8919],[94.3957,28.9322],[94.3428,28.9839],[94.1872,29.0387],[94.2172,29.0836],[94.2904,29.1481],[94.3591,29.1524],[94.375,29.1901],[94.4339,29.2266],[94.4967,29.2164],[94.5606,29.2287],[94.5803,29.2805],[94.6217,29.3127],[94.631,29.3484],[94.6796,29.3276],[94.7391,29.2818],[94.7932,29.2258],[94.7986,29.1948],[94.7997,29.1638],[94.874,29.1838],[94.9209,29.1613],[94.9695,29.1587],[95.0246,29.1295],[94.9886,29.1727],[94.9995,29.1723],[95.0416,29.1515],[95.1,29.1426],[95.1235,29.115],[95.2523,29.1087],[95.2512,29.0671],[95.2698,29.0497],[95.2758,29.0289],[95.2458,29.0013],[95.2632,28.9657],[95.2572,28.9517],[95.2572,28.9513],[95.2812,28.9457],[95.3014,28.9585],[95.3276,28.9283],[95.3189,28.9114],[95.3282,28.8953],[95.3173,28.8868],[95.3238,28.8443],[95.356,28.8257],[95.3609,28.7909],[95.3779,28.779],[95.373,28.7654],[95.3926,28.7421],[95.3538,28.7069],[95.373,28.6212],[95.3833,28.5728],[95.403,28.5698],[95.4101,28.5546],[95.3964,28.5325],[95.3953,28.5312],[95.3948,28.53],[95.3953,28.53],[95.3948,28.513],[95.3386,28.4769],[95.3397,28.4409],[95.32,28.4264],[95.3391,28.4069],[95.338,28.3658],[95.3691,28.3581],[95.3828,28.3136],[95.3833,28.3123]]]}},{"type":"Feature","properties":{"district":"Lower Siang","district_hi":"निचली सियांग"},"geometry":{"type":"Polygon","coordinates":[[[94.3182,27.773],[94.3346,27.7603],[94.3351,27.7603],[94.3821,27.7972],[94.4383,27.8129],[94.4443,27.8286],[94.5824,27.86],[94.589,27.8617],[94.5895,27.8664],[94.595,27.8706],[94.6316,27.8668],[94.6458,27.8503],[94.7173,27.8252],[94.7238,27.7947],[94.7462,27.773],[94.809,27.7858],[94.9002,27.8231],[94.9051,27.8426],[94.9286,27.8571],[94.9095,27.8596],[94.9095,27.86],[94.9089,27.86],[94.9056,27.8804],[94.9242,27.8893],[94.9569,27.9809],[94.922,27.9975],[94.9215,27.9975],[94.8805,28.0005],[94.8942,28.0153],[94.8942,28.0157],[94.9269,28.0509],[94.928,28.0522],[95.0672,28.0234],[95.0891,27.9678],[95.0716,27.916],[95.1207,27.9033],[95.1153,27.8566],[95.1366,27.8159],[94.9619,27.7616],[94.8521,27.7277],[94.8407,27.7005],[94.7937,27.6954],[94.7544,27.6606],[94.7249,27.6691],[94.7091,27.6568],[94.6878,27.6653],[94.6823,27.6462],[94.6627,27.6453],[94.6332,27.6241],[94.5873,27.6186],[94.5742,27.6038],[94.5448,27.6012],[94.4989,27.5724],[94.4776,27.5762],[94.4618,27.5554],[94.4318,27.6004],[94.3646,27.5745],[94.363,27.5749],[94.298,27.6021],[94.2773,27.5898],[94.2543,27.6144],[94.2576,27.6178],[94.2669,27.6275],[94.2663,27.6284],[94.2647,27.6309],[94.2614,27.636],[94.2565,27.6352],[94.2461,27.6339],[94.2374,27.6326],[94.2238,27.6182],[94.2123,27.6067],[94.2096,27.6089],[94.2445,27.6492],[94.3537,27.723],[94.3537,27.7272],[94.3499,27.7298],[94.3357,27.7247],[94.3357,27.7251],[94.3138,27.74],[94.3127,27.7408],[94.3171,27.7688],[94.3182,27.773]]]}},{"type":"Feature","properties":{"district":"Upper Dibang Valley","district_hi":"ऊपरी दिबांग घाटी"},"geometry":{"type":"Polygon","coordinates":[[[95.3953,28.53],[95.3948,28.53],[95.3953,28.5312],[95.3964,28.5325],[95.4101,28.5546],[95.403,28.5698],[95.3833,28.5728],[95.373,28.6212],[95.3538,28.7069],[95.3926,28.7421],[95.373,28.7654],[95.3779,28.779],[95.3609,28.7909],[95.356,28.8257],[95.3238,28.8443],[95.3173,28.8868],[95.3282,28.8953],[95.3189,28.9114],[95.3276,28.9283],[95.3014,28.9585],[95.2812,28.9457],[95.2572,28.9513],[95.2572,28.9517],[95.2632,28.9657],[95.2458,29.0013],[95.2758,29.0289],[95.2698,29.0497],[95.2676,29.0561],[95.2872,29.0607],[95.4008,29.0336],[95.4554,29.0353],[95.4871,29.0743],[95.4974,29.1388],[95.5477,29.1269],[95.5389,29.2126],[95.587,29.2164],[95.6001,29.2606],[95.6394,29.2483],[95.7033,29.2987],[95.7284,29.3009],[95.7791,29.3547],[95.7977,29.3348],[95.8496,29.3573],[95.8823,29.39],[95.9588,29.381],[96.057,29.457],[96.0887,29.46],[96.1766,29.3624],[96.187,29.3424],[96.1842,29.3072],[96.2443,29.2326],[96.2934,29.233],[96.3131,29.2563],[96.3458,29.2648],[96.3638,29.283],[96.3758,29.2809],[96.3933,29.2538],[96.3469,29.1681],[96.2607,29.1575],[96.2181,29.1354],[96.1859,29.0917],[96.1149,29.0747],[96.1509,29.0501],[96.1848,28.9852],[96.1804,28.9653],[96.1553,28.9525],[96.1455,28.9343],[96.1662,28.9025],[96.2481,28.9394],[96.2934,28.9954],[96.3469,29.0289],[96.4359,29.034],[96.5249,29.076],[96.4774,28.9903],[96.4872,28.9614],[96.5183,28.9674],[96.538,28.9169],[96.5369,28.88],[96.6073,28.7934],[96.6144,28.7603],[96.5849,28.7171],[96.4719,28.6835],[96.4927,28.6335],[96.4266,28.5826],[96.3999,28.5898],[96.4053,28.5592],[96.3535,28.5558],[96.3245,28.5295],[96.3256,28.5109],[96.2759,28.507],[96.2563,28.5376],[96.2241,28.5312],[96.1766,28.5147],[96.1717,28.4969],[96.1034,28.4888],[96.0144,28.5075],[95.997,28.4888],[95.9484,28.482],[95.944,28.4311],[95.9598,28.4133],[95.9462,28.4022],[95.9085,28.3993],[95.8501,28.3662],[95.8446,28.3386],[95.8834,28.3059],[95.8332,28.2745],[95.7961,28.3157],[95.7644,28.3174],[95.6852,28.3488],[95.676,28.3624],[95.5733,28.3709],[95.5804,28.4629],[95.5597,28.485],[95.5275,28.4803],[95.5149,28.5024],[95.3953,28.53]]]}},{"type":"Feature","properties":{"district":"Lower Dibang Valley","district_hi":"निचली दिबांग घाटी"},"geometry":{"type":"Polygon","coordinates":[[[96.3136,28.3836],[96.3038,28.3738],[96.3065,28.3713],[96.3054,28.3696],[96.2901,28.3445],[96.2383,28.2996],[96.2678,28.2389],[96.2153,28.2308],[96.1422,28.1702],[96.1007,28.1901],[96.0898,28.1914],[96.0679,28.1905],[96.069,28.1676],[96.0707,28.1235],[96.0707,28.121],[96.0597,28.0917],[96.0587,28.0879],[96.0587,28.0874],[96.057,28.0857],[96.0199,28.0408],[96.0139,27.9954],[95.9866,27.9585],[95.9697,27.9602],[95.9691,27.9602],[95.9719,27.9627],[95.8479,27.9695],[95.8201,27.9712],[95.8195,27.9712],[95.6066,27.9551],[95.6066,27.9546],[95.5859,27.9368],[95.5706,27.9377],[95.57,27.936],[95.5635,27.9194],[95.5193,27.8834],[95.5018,27.9462],[95.5007,27.95],[95.5029,27.9529],[95.5302,28.0],[95.5602,28.0514],[95.5629,28.0662],[95.564,28.255],[95.5629,28.2563],[95.5373,28.2835],[95.5351,28.2847],[95.4761,28.2618],[95.4652,28.2576],[95.4554,28.2775],[95.4368,28.314],[95.3893,28.3076],[95.3844,28.3123],[95.3833,28.3123],[95.3828,28.3136],[95.3691,28.3581],[95.338,28.3658],[95.3391,28.4069],[95.32,28.4264],[95.3397,28.4409],[95.3386,28.4769],[95.3948,28.513],[95.3953,28.53],[95.5149,28.5024],[95.5275,28.4803],[95.5597,28.485],[95.5804,28.4629],[95.5733,28.3709],[95.676,28.3624],[95.6852,28.3488],[95.7644,28.3174],[95.7961,28.3157],[95.8332,28.2745],[95.8834,28.3059],[95.8446,28.3386],[95.8501,28.3662],[95.9085,28.3993],[95.9462,28.4022],[95.9598,28.4133],[95.944,28.4311],[95.9484,28.482],[95.997,28.4888],[96.0144,28.5075],[96.1034,28.4888],[96.1717,28.4969],[96.1766,28.5147],[96.2241,28.5312],[96.2563,28.5376],[96.2759,28.507],[96.3256,28.5109],[96.3262,28.524],[96.3655,28.4998],[96.3715,28.482],[96.2623,28.4086],[96.3032,28.3997],[96.3136,28.3836]]]}},{"type":"Feature","properties":{"district":"Siang","district_hi":"सियांग"},"geometry":{"type":"Polygon","coordinates":[[[95.2277,28.1557],[95.2507,28.1502],[95.2954,28.121],[95.2889,28.0904],[95.2403,28.0471],[95.2054,28.0526],[95.1153,28.0242],[95.0672,28.0234],[94.928,28.0522],[94.9002,28.0768],[94.928,28.0968],[94.9488,28.129],[94.9084,28.1587],[94.9144,28.1961],[94.8947,28.2211],[94.8368,28.2194],[94.8003,28.1859],[94.7746,28.1867],[94.7271,28.2219],[94.6911,28.2164],[94.6605,28.2071],[94.6414,28.1659],[94.6146,28.1498],[94.6163,28.1833],[94.6048,28.2024],[94.6163,28.2308],[94.6136,28.2576],[94.5803,28.2826],[94.5617,28.3267],[94.5284,28.3318],[94.4995,28.3641],[94.4891,28.3755],[94.4907,28.3844],[94.4853,28.3959],[94.4934,28.4078],[94.5005,28.4608],[94.5448,28.4689],[94.5431,28.4812],[94.5584,28.4947],[94.5382,28.5338],[94.536,28.5889],[94.4809,28.6004],[94.4574,28.5915],[94.4503,28.6157],[94.4678,28.6258],[94.4847,28.6912],[94.4339,28.7548],[94.4427,28.7773],[94.4361,28.81],[94.4236,28.8129],[94.3946,28.8541],[94.3875,28.8706],[94.3783,28.8919],[94.3957,28.9322],[94.4416,28.8919],[94.4498,28.8863],[94.4798,28.8583],[94.5169,28.8367],[94.5153,28.821],[94.5251,28.8117],[94.5617,28.8104],[94.5923,28.7917],[94.6201,28.7939],[94.6332,28.7841],[94.6338,28.7667],[94.7457,28.6865],[94.7468,28.5881],[94.7599,28.5601],[94.7773,28.5592],[94.7588,28.5342],[94.7954,28.5461],[94.8199,28.5681],[94.9018,28.549],[94.958,28.5728],[94.9722,28.5656],[94.9886,28.5291],[95.0383,28.5155],[95.0842,28.5266],[95.1104,28.5007],[95.1016,28.4837],[95.1109,28.4629],[95.1044,28.4443],[95.0814,28.415],[95.0825,28.395],[95.1175,28.3764],[95.1065,28.2635],[95.1387,28.2287],[95.1306,28.2168],[95.1371,28.2037],[95.1715,28.1965],[95.1922,28.1647],[95.2239,28.1519],[95.2277,28.1557]]]}},{"type":"Feature","properties":{"district":"Shi Yomi","district_hi":"शी योमी"},"geometry":{"type":"Polygon","coordinates":[[[94.4017,28.3386],[94.4012,28.3403],[94.3859,28.3361],[94.369,28.3522],[94.3679,28.353],[94.3297,28.3577],[94.3084,28.3755],[94.3018,28.3959],[94.3084,28.4171],[94.2925,28.429],[94.2418,28.4468],[94.2314,28.4281],[94.2194,28.4362],[94.1686,28.4328],[94.1577,28.4349],[94.1484,28.4396],[94.1146,28.4756],[94.1086,28.5215],[94.0971,28.5363],[94.0714,28.5393],[94.0016,28.5779],[94.0059,28.6216],[94.0234,28.6513],[93.9895,28.6878],[93.9622,28.7124],[93.9704,28.7506],[94.0032,28.7748],[93.9874,28.7977],[94.0021,28.8193],[93.9972,28.8409],[94.0321,28.8528],[94.0687,28.8957],[94.1571,28.9542],[94.1872,29.0387],[94.3428,28.9839],[94.3957,28.9322],[94.3783,28.8919],[94.3875,28.8706],[94.3946,28.8541],[94.4236,28.8129],[94.4361,28.81],[94.4427,28.7773],[94.4339,28.7548],[94.4847,28.6912],[94.4678,28.6258],[94.4503,28.6157],[94.4574,28.5915],[94.4809,28.6004],[94.536,28.5889],[94.5382,28.5338],[94.5584,28.4947],[94.5431,28.4812],[94.5448,28.4689],[94.5005,28.4608],[94.4934,28.4078],[94.4853,28.3959],[94.4459,28.4035],[94.4345,28.3734],[94.4017,28.3386]]]}},{"type":"Feature","properties":{"district":"Pakke Kessang","district_hi":"पक्के केसांग"},"geometry":{"type":"Polygon","coordinates":[[[93.33,27.3547],[93.3197,27.3479],[93.3033,27.3411],[93.288,27.3276],[93.294,27.2898],[93.2258,27.252],[93.234,27.238],[93.2241,27.2351],[93.2241,27.2346],[93.2209,27.2117],[93.2198,27.1999],[93.2258,27.2011],[93.2738,27.2109],[93.3115,27.1727],[93.2143,27.1379],[93.2121,27.1175],[93.2722,27.1035],[93.2929,27.0781],[93.3126,27.0794],[93.3426,27.0365],[93.3399,26.9928],[93.3808,26.9847],[93.3874,26.9674],[93.3912,26.9584],[93.3983,26.9572],[93.3988,26.9572],[93.3721,26.9567],[93.2869,26.9542],[93.1073,26.9258],[93.0882,26.9143],[93.0614,26.922],[93.0216,26.9135],[92.9173,26.9631],[92.9184,26.9822],[92.8867,27.0],[92.8109,27.0157],[92.7819,27.0221],[92.7781,27.0229],[92.723,27.0183],[92.6766,27.0306],[92.6722,27.0318],[92.6607,27.0128],[92.6569,27.0081],[92.5979,27.0531],[92.5947,27.0951],[92.6012,27.1175],[92.6154,27.143],[92.6902,27.1719],[92.7524,27.1935],[92.7628,27.1909],[92.8087,27.1778],[92.8087,27.1769],[92.8283,27.1617],[92.8392,27.132],[92.8573,27.14],[92.8955,27.1341],[92.9583,27.1583],[93.0118,27.1426],[93.0691,27.171],[93.0806,27.1867],[93.0724,27.2032],[93.0096,27.2007],[92.9845,27.2198],[93.0025,27.2495],[93.1652,27.3114],[93.1952,27.3781],[93.2995,27.3997],[93.33,27.3547]]]}},{"type":"Feature","properties":{"district":"West Siang","district_hi":"पश्चिम सियांग"},"geometry":{"type":"Polygon","coordinates":[[[94.4847,28.0217],[94.4842,28.0217],[94.4672,28.0488],[94.3919,28.0828],[94.3914,28.1422],[94.3564,28.1986],[94.3679,28.2117],[94.369,28.2444],[94.3832,28.258],[94.417,28.2542],[94.3941,28.2635],[94.375,28.2949],[94.3777,28.3089],[94.4034,28.328],[94.4017,28.3386],[94.4345,28.3734],[94.4459,28.4035],[94.4853,28.3959],[94.4907,28.3844],[94.4891,28.3755],[94.4995,28.3641],[94.5284,28.3318],[94.5617,28.3267],[94.5803,28.2826],[94.6136,28.2576],[94.6163,28.2308],[94.6048,28.2024],[94.6163,28.1833],[94.6146,28.1498],[94.6414,28.1659],[94.6605,28.2071],[94.6911,28.2164],[94.7271,28.2219],[94.7746,28.1867],[94.8003,28.1859],[94.8368,28.2194],[94.8947,28.2211],[94.9144,28.1961],[94.9084,28.1587],[94.9488,28.129],[94.928,28.0968],[94.9002,28.0768],[94.928,28.0522],[94.9269,28.0509],[94.8942,28.0157],[94.8942,28.0153],[94.8199,27.9856],[94.791,27.9869],[94.791,27.9873],[94.7528,28.0111],[94.7522,28.0115],[94.6998,28.0191],[94.6692,28.0412],[94.6408,28.0433],[94.6403,28.0433],[94.6037,28.062],[94.5677,28.0493],[94.5065,28.0556],[94.5038,28.0522],[94.4853,28.0234],[94.4847,28.0217]]]}},{"type":"Feature","properties":{"district":"Lepa Rada","district_hi":"लेपा राडा"},"geometry":{"type":"Polygon","coordinates":[[[94.595,27.8706],[94.5934,27.8901],[94.5928,27.8901],[94.5584,27.9025],[94.5328,27.9453],[94.5257,27.9602],[94.5322,27.986],[94.5131,28.0153],[94.4847,28.0217],[94.4853,28.0234],[94.5038,28.0522],[94.5065,28.0556],[94.5677,28.0493],[94.6037,28.062],[94.6403,28.0433],[94.6408,28.0433],[94.6692,28.0412],[94.6998,28.0191],[94.7522,28.0115],[94.7528,28.0111],[94.791,27.9873],[94.791,27.9869],[94.8199,27.9856],[94.8942,28.0153],[94.8805,28.0005],[94.9215,27.9975],[94.922,27.9975],[94.9569,27.9809],[94.9242,27.8893],[94.9056,27.8804],[94.9089,27.86],[94.9095,27.86],[94.9095,27.8596],[94.9286,27.8571],[94.9051,27.8426],[94.9002,27.8231],[94.809,27.7858],[94.7462,27.773],[94.7238,27.7947],[94.7173,27.8252],[94.6458,27.8503],[94.6316,27.8668],[94.595,27.8706]]]}},{"type":"Feature","properties":{"district":"Kamle","district_hi":"कमले"},"geometry":{"type":"Polygon","coordinates":[[[93.9617,27.9788],[93.9677,27.978],[93.9988,27.9657],[94.0108,27.9563],[94.0234,27.9563],[94.0682,27.9394],[94.0474,27.9118],[94.0742,27.8494],[94.149,27.866],[94.1599,27.8439],[94.1921,27.8367],[94.1932,27.8117],[94.2712,27.8095],[94.3182,27.7735],[94.3182,27.773],[94.3171,27.7688],[94.3127,27.7408],[94.3138,27.74],[94.3357,27.7251],[94.3357,27.7247],[94.3499,27.7298],[94.3537,27.7272],[94.3537,27.723],[94.2445,27.6492],[94.2096,27.6089],[94.2123,27.6067],[94.2101,27.6042],[94.2265,27.5978],[94.2248,27.5741],[94.2587,27.5554],[94.2581,27.535],[94.2658,27.5202],[94.2456,27.5134],[94.2412,27.513],[94.2319,27.5092],[94.2199,27.5049],[94.2052,27.5312],[94.191,27.5359],[94.1506,27.5304],[94.1058,27.4935],[94.0687,27.4824],[94.0452,27.4994],[93.942,27.5113],[94.072,27.5155],[94.1064,27.5439],[94.1064,27.5541],[94.0491,27.5826],[94.0534,27.608],[93.9415,27.6373],[93.9257,27.6593],[93.9197,27.7234],[93.8907,27.7429],[93.9077,27.7972],[93.8902,27.8201],[93.9109,27.8308],[93.9273,27.8851],[93.8836,27.9008],[93.8825,27.9097],[93.9268,27.9198],[93.9448,27.9644],[93.9617,27.9788]]]}}]}