{"type":"FeatureCollection","features":[{"type":"Feature","properties":{"district":"Chandigarh","district_hi":"चंडीगढ़"},"geometry":{"type":"Polygon","coordinates":[[[76.8268,30.6818],[76.8078,30.6674],[76.8062,30.6677],[76.7898,30.6757],[76.7766,30.6704],[76.7641,30.6864],[76.7392,30.693],[76.7311,30.7236],[76.7052,30.743],[76.7103,30.7608],[76.7439,30.7696],[76.7717,30.795],[76.7827,30.7796],[76.7827,30.7707],[76.7878,30.7724],[76.8131,30.7802],[76.8156,30.777],[76.8163,30.7764],[76.8051,30.7652],[76.8149,30.753],[76.8266,30.7635],[76.8378,30.7544],[76.838,30.7549],[76.8315,30.7397],[76.8476,30.7308],[76.8481,30.7274],[76.8474,30.7158],[76.8252,30.6883],[76.8268,30.6818]]]}}]}