{"type":"FeatureCollection","features":[{"type":"Feature","properties":{"district":"Mahasamund","district_hi":"महासमुंद"},"geometry":{"type":"MultiPolygon","coordinates":[[[[83.2692,21.3779],[83.2723,21.3703],[83.2574,21.3205],[83.2581,21.3195],[83.2578,21.3185],[83.2786,21.2894],[83.2709,21.2723],[83.2509,21.2821],[83.2221,21.2661],[83.2148,21.1946],[83.1923,21.1392],[83.1671,21.1388],[83.1314,21.1057],[83.0781,21.112],[83.0161,21.1461],[82.9904,21.1398],[82.9859,21.151],[83.0033,21.1684],[82.9808,21.17],[82.988,21.1828],[82.9655,21.1752],[82.9652,21.1933],[82.944,21.1779],[82.9479,21.1618],[82.9378,21.1697],[82.9021,21.167],[82.8824,21.1484],[82.8765,21.1634],[82.853,21.1595],[82.8509,21.1687],[82.8003,21.1559],[82.7938,21.1428],[82.756,21.167],[82.6404,21.1543],[82.64,21.1543],[82.6372,21.1448],[82.6528,21.1293],[82.6404,21.1182],[82.6414,21.1172],[82.65,21.1064],[82.6358,21.0906],[82.6372,21.0893],[82.6379,21.0887],[82.6307,21.0775],[82.612,21.0736],[82.6293,21.0385],[82.56,20.9467],[82.488,20.9087],[82.4876,20.8605],[82.4655,20.8332],[82.461,20.828],[82.4599,20.8264],[82.4208,20.8303],[82.4063,20.869],[82.3654,20.8693],[82.3647,20.8873],[82.3509,20.8896],[82.3394,20.8746],[82.3367,20.8752],[82.3128,20.8808],[82.2975,20.9014],[82.2747,20.911],[82.2657,20.9454],[82.2494,20.9398],[82.2238,20.9519],[82.2196,20.9346],[82.1985,20.9392],[82.1864,20.967],[82.1718,20.9746],[82.1621,21.0162],[82.0929,21.0257],[82.061,21.0615],[82.0253,21.0569],[81.9883,21.0834],[82.0066,21.152],[82.016,21.1864],[82.0267,21.2264],[82.0285,21.2323],[82.033,21.2369],[82.0434,21.2474],[82.0589,21.2635],[82.0894,21.2762],[82.1459,21.3113],[82.1933,21.3792],[82.2331,21.434],[82.2522,21.4323],[82.2456,21.4189],[82.2733,21.4022],[82.275,21.4012],[82.275,21.3976],[82.275,21.391],[82.275,21.3854],[82.2671,21.3844],[82.2432,21.3648],[82.256,21.3533],[82.2522,21.3179],[82.2428,21.3156],[82.2774,21.3012],[82.2768,21.2726],[82.2975,21.269],[82.2989,21.2812],[82.3249,21.2926],[82.3481,21.2841],[82.345,21.2638],[82.3619,21.2766],[82.3896,21.2625],[82.3955,21.2959],[82.4177,21.3103],[82.4187,21.31],[82.4298,21.3077],[82.445,21.3041],[82.4447,21.3035],[82.4371,21.2903],[82.4364,21.289],[82.4367,21.289],[82.4513,21.2812],[82.4558,21.2943],[82.4558,21.2946],[82.4755,21.2972],[82.4599,21.3077],[82.4717,21.328],[82.5133,21.3166],[82.5299,21.3317],[82.5427,21.3185],[82.5638,21.3159],[82.5971,21.3399],[82.6286,21.3353],[82.6518,21.3461],[82.6511,21.331],[82.6958,21.33],[82.7027,21.3733],[82.6909,21.4851],[82.7373,21.495],[82.7719,21.5241],[82.7899,21.5104],[82.8253,21.5045],[82.8208,21.5313],[82.8758,21.5556],[82.8772,21.5563],[82.9205,21.4917],[82.9343,21.4956],[82.934,21.4969],[82.953,21.4972],[82.9659,21.4717],[82.9776,21.4779],[82.9988,21.4599],[83.0147,21.472],[83.0157,21.4904],[83.0465,21.4825],[83.0594,21.4359],[83.1227,21.4228],[83.1144,21.4117],[83.13,21.3982],[83.1428,21.3628],[83.1795,21.4025],[83.1882,21.3815],[83.2013,21.3995],[83.218,21.3953],[83.2218,21.3831],[83.2692,21.3779]]],[[[83.272,21.3776],[83.2741,21.3772],[83.2741,21.3769],[83.272,21.3776]]]]}},{"type":"Feature","properties":{"district":"Uttar Bastar Kanker","district_hi":"उत्तर बस्तर कांकेर"},"geometry":{"type":"Polygon","coordinates":[[[80.6714,19.7023],[80.6693,19.7033],[80.6122,19.7338],[80.5637,19.7597],[80.5477,19.7725],[80.5439,19.7781],[80.5464,19.8181],[80.5464,19.8184],[80.52,19.8318],[80.4806,19.8276],[80.4691,19.8105],[80.4688,19.8102],[80.4851,19.8023],[80.4892,19.7702],[80.4643,19.7958],[80.4023,19.7961],[80.402,19.8167],[80.4407,19.8102],[80.4691,19.8269],[80.4864,19.8633],[80.5058,19.8705],[80.4913,19.902],[80.4688,19.9076],[80.4497,19.8964],[80.4137,19.9072],[80.4113,19.9381],[80.4522,19.9574],[80.4802,19.9417],[80.4889,19.9305],[80.4968,19.9322],[80.5166,19.9364],[80.5301,19.9394],[80.5335,19.9482],[80.5408,19.9653],[80.5495,19.9859],[80.546,19.9987],[80.5567,20.0719],[80.5443,20.0964],[80.5453,20.0994],[80.5651,20.1384],[80.5654,20.1466],[80.5689,20.1545],[80.5671,20.1892],[80.5841,20.1774],[80.6146,20.1853],[80.6544,20.2266],[80.688,20.1912],[80.7143,20.1902],[80.7147,20.1912],[80.7365,20.2394],[80.7275,20.2686],[80.7469,20.2755],[80.7503,20.2916],[80.7759,20.2942],[80.7894,20.2824],[80.83,20.3083],[80.8265,20.3414],[80.8123,20.3548],[80.8476,20.3483],[80.8601,20.388],[80.8868,20.387],[80.9311,20.4371],[80.9664,20.4368],[80.9896,20.4529],[80.9889,20.4568],[80.992,20.4594],[81.0336,20.4273],[81.0772,20.4188],[81.1492,20.3771],[81.1731,20.4063],[81.222,20.4188],[81.2348,20.4437],[81.2542,20.4473],[81.249,20.4562],[81.2639,20.4808],[81.2531,20.4988],[81.2912,20.5165],[81.3245,20.5627],[81.3574,20.5552],[81.3864,20.5335],[81.4103,20.5545],[81.4107,20.5257],[81.4567,20.5139],[81.4592,20.5139],[81.5028,20.5201],[81.5146,20.4971],[81.5198,20.4942],[81.5385,20.5008],[81.5412,20.5152],[81.5977,20.5188],[81.6029,20.5168],[81.641,20.5017],[81.6531,20.4968],[81.6922,20.4814],[81.7352,20.4821],[81.7362,20.4191],[81.7691,20.3824],[81.7632,20.3545],[81.7816,20.3568],[81.7951,20.3263],[81.7684,20.3106],[81.7611,20.3001],[81.7604,20.283],[81.7743,20.2791],[81.7878,20.287],[81.7888,20.2879],[81.7892,20.2876],[81.7999,20.265],[81.8003,20.265],[81.7992,20.2558],[81.7843,20.2611],[81.775,20.2322],[81.7854,20.2092],[81.801,20.2142],[81.8141,20.1676],[81.7753,20.1568],[81.7466,20.1637],[81.7296,20.1578],[81.7189,20.1397],[81.6801,20.1299],[81.6122,20.1581],[81.5849,20.1955],[81.4509,20.1466],[81.4193,20.1571],[81.4013,20.1168],[81.4051,20.081],[81.3882,20.0486],[81.3591,20.0476],[81.3556,20.0358],[81.2916,20.0214],[81.302,19.9761],[81.3307,19.965],[81.3265,19.9391],[81.3442,19.9309],[81.3487,19.9132],[81.3747,19.9079],[81.4058,19.8807],[81.4024,19.8676],[81.3774,19.8538],[81.3961,19.8361],[81.3709,19.7987],[81.3716,19.7922],[81.3733,19.779],[81.3172,19.7777],[81.2888,19.7885],[81.2715,19.7676],[81.251,19.7666],[81.2168,19.7981],[81.1832,19.8095],[81.1579,19.7548],[81.205,19.7167],[81.1866,19.7036],[81.0852,19.7062],[81.0585,19.7508],[81.0253,19.7646],[81.009,19.8128],[80.9723,19.8128],[80.9494,19.8305],[80.9377,19.8741],[80.9065,19.9223],[80.8885,19.9387],[80.8428,19.9473],[80.8196,19.9122],[80.8178,19.9118],[80.7656,19.8909],[80.7486,19.8531],[80.7219,19.8472],[80.7271,19.8204],[80.7475,19.8161],[80.7773,19.8482],[80.7811,19.8341],[80.8092,19.8266],[80.812,19.8125],[80.7798,19.7899],[80.7784,19.7902],[80.7576,19.7912],[80.7659,19.8112],[80.7223,19.7902],[80.7112,19.7813],[80.706,19.7718],[80.7133,19.7279],[80.716,19.7177],[80.7153,19.7161],[80.7126,19.7105],[80.7105,19.7066],[80.6714,19.7023]]]}},{"type":"Feature","properties":{"district":"Narayanpur","district_hi":"नारायणपुर"},"geometry":{"type":"Polygon","coordinates":[[[80.6714,19.7023],[80.7105,19.7066],[80.7126,19.7105],[80.7153,19.7161],[80.716,19.7177],[80.7133,19.7279],[80.706,19.7718],[80.7112,19.7813],[80.7223,19.7902],[80.7659,19.8112],[80.7576,19.7912],[80.7784,19.7902],[80.7798,19.7899],[80.812,19.8125],[80.8092,19.8266],[80.7811,19.8341],[80.7773,19.8482],[80.7475,19.8161],[80.7271,19.8204],[80.7219,19.8472],[80.7486,19.8531],[80.7656,19.8909],[80.8178,19.9118],[80.8196,19.9122],[80.8428,19.9473],[80.8885,19.9387],[80.9065,19.9223],[80.9377,19.8741],[80.9494,19.8305],[80.9723,19.8128],[81.009,19.8128],[81.0253,19.7646],[81.0585,19.7508],[81.0852,19.7062],[81.1866,19.7036],[81.205,19.7167],[81.1579,19.7548],[81.1832,19.8095],[81.2168,19.7981],[81.251,19.7666],[81.2715,19.7676],[81.2888,19.7885],[81.3172,19.7777],[81.3733,19.779],[81.3819,19.7548],[81.3709,19.7426],[81.3736,19.7302],[81.3736,19.7299],[81.4287,19.7194],[81.4851,19.6882],[81.4768,19.6643],[81.5167,19.663],[81.509,19.6515],[81.455,19.6371],[81.4644,19.6161],[81.4612,19.5692],[81.4398,19.5357],[81.4491,19.5161],[81.4214,19.4938],[81.4266,19.4803],[81.4761,19.4721],[81.4647,19.4361],[81.4706,19.377],[81.4051,19.3669],[81.3885,19.3826],[81.3882,19.3833],[81.3913,19.4092],[81.3916,19.4102],[81.3861,19.4121],[81.3802,19.4141],[81.3799,19.4144],[81.3726,19.4095],[81.3774,19.3872],[81.3653,19.3744],[81.3903,19.3642],[81.3986,19.3341],[81.3639,19.3328],[81.3432,19.319],[81.3428,19.319],[81.2975,19.3364],[81.2715,19.3236],[81.241,19.3239],[81.2313,19.3206],[81.2233,19.2888],[81.1946,19.2885],[81.1904,19.277],[81.1704,19.2711],[81.161,19.2954],[81.1413,19.299],[81.1461,19.2596],[81.1295,19.2567],[81.1295,19.2564],[81.1292,19.2567],[81.1094,19.2754],[81.0755,19.2741],[81.0734,19.2737],[81.0738,19.2714],[81.0789,19.2364],[81.0623,19.2278],[81.0357,19.2285],[81.0246,19.2393],[80.9553,19.2364],[80.9522,19.3105],[80.8528,19.3646],[80.8525,19.3642],[80.8279,19.38],[80.812,19.4072],[80.8133,19.4338],[80.8421,19.4469],[80.8746,19.4452],[80.8985,19.482],[80.8954,19.5197],[80.8566,19.5229],[80.8359,19.5662],[80.8355,19.5662],[80.7756,19.5623],[80.7697,19.5866],[80.741,19.6062],[80.7147,19.6167],[80.6686,19.6121],[80.6658,19.6167],[80.6682,19.6344],[80.6762,19.6974],[80.6766,19.6994],[80.6714,19.7023]]]}},{"type":"Feature","properties":{"district":"Dakshin Bastar Dantewada","district_hi":"दक्षिण बस्तर दंतेवाड़ा"},"geometry":{"type":"Polygon","coordinates":[[[81.1295,19.2567],[81.1461,19.2596],[81.1413,19.299],[81.161,19.2954],[81.1704,19.2711],[81.1904,19.277],[81.1946,19.2885],[81.2233,19.2888],[81.2313,19.3206],[81.241,19.3239],[81.2715,19.3236],[81.2975,19.3364],[81.3428,19.319],[81.3432,19.319],[81.3581,19.3233],[81.3747,19.3059],[81.3764,19.3016],[81.3567,19.2928],[81.357,19.2924],[81.3567,19.2924],[81.3667,19.2551],[81.3439,19.2314],[81.393,19.2078],[81.4013,19.1918],[81.4017,19.1914],[81.4505,19.1891],[81.4768,19.2137],[81.5021,19.2039],[81.4924,19.159],[81.5021,19.1344],[81.4855,19.1157],[81.4903,19.0852],[81.5167,19.0668],[81.4993,19.0586],[81.5028,19.0445],[81.5295,19.0373],[81.5167,19.0134],[81.4713,19.0019],[81.4682,19.0009],[81.4706,18.997],[81.4841,18.9737],[81.4571,18.9662],[81.464,18.9494],[81.4651,18.9462],[81.5056,18.9308],[81.5153,18.914],[81.5246,18.9235],[81.5558,18.9121],[81.5482,18.8842],[81.5734,18.8678],[81.5821,18.8448],[81.6022,18.8544],[81.6195,18.8412],[81.6112,18.8314],[81.6271,18.8137],[81.6424,18.8222],[81.668,18.8035],[81.7123,18.838],[81.7545,18.8107],[81.7667,18.7848],[81.7601,18.7727],[81.7774,18.773],[81.7729,18.7461],[81.757,18.7386],[81.7483,18.7127],[81.7293,18.6986],[81.758,18.6888],[81.7732,18.6704],[81.7573,18.6619],[81.7185,18.6875],[81.6763,18.6622],[81.6759,18.6609],[81.6732,18.6524],[81.6576,18.6596],[81.6572,18.6599],[81.6621,18.6884],[81.6638,18.6973],[81.6237,18.7088],[81.6285,18.7347],[81.6278,18.7353],[81.6157,18.7488],[81.614,18.7507],[81.5977,18.7343],[81.5689,18.7399],[81.5689,18.7396],[81.5696,18.713],[81.5457,18.695],[81.5454,18.6937],[81.5423,18.674],[81.5561,18.6579],[81.5423,18.6327],[81.5433,18.6288],[81.5464,18.6153],[81.5471,18.615],[81.5755,18.6022],[81.5797,18.6002],[81.5793,18.5996],[81.5599,18.5655],[81.5554,18.5602],[81.5402,18.5678],[81.5523,18.5835],[81.5437,18.6065],[81.5218,18.6045],[81.4883,18.6238],[81.4876,18.6235],[81.4647,18.614],[81.4467,18.6068],[81.4467,18.6061],[81.446,18.5809],[81.4342,18.5927],[81.4207,18.5799],[81.4183,18.5773],[81.4187,18.5763],[81.4211,18.5668],[81.4238,18.5553],[81.4304,18.5547],[81.4415,18.5406],[81.4145,18.5147],[81.4142,18.5143],[81.4432,18.4983],[81.4235,18.4799],[81.3941,18.4937],[81.3771,18.4887],[81.383,18.4664],[81.3698,18.432],[81.3934,18.4209],[81.4294,18.4212],[81.428,18.4022],[81.4096,18.3927],[81.3702,18.4173],[81.3335,18.4179],[81.3276,18.4389],[81.3054,18.4369],[81.2999,18.4566],[81.2583,18.4792],[81.2556,18.5238],[81.2227,18.5278],[81.2185,18.515],[81.1828,18.5412],[81.1956,18.5504],[81.1956,18.551],[81.1936,18.5943],[81.1936,18.596],[81.1714,18.592],[81.1465,18.5688],[81.1489,18.5999],[81.1627,18.6107],[81.1624,18.6314],[81.1787,18.652],[81.1631,18.6661],[81.1607,18.6907],[81.1981,18.7481],[81.188,18.8166],[81.204,18.8363],[81.2143,18.8983],[81.2251,18.9101],[81.2209,18.9219],[81.1863,18.914],[81.1704,18.9199],[81.1704,18.9291],[81.2005,18.9386],[81.2188,18.9317],[81.2171,18.9527],[81.2365,18.9678],[81.2033,18.9947],[81.223,19.015],[81.2116,19.0193],[81.2112,19.0311],[81.2258,19.0508],[81.2088,19.0918],[81.2095,19.1836],[81.1451,19.1823],[81.1285,19.2085],[81.1295,19.2301],[81.1146,19.236],[81.1323,19.2459],[81.1295,19.2567]]]}},{"type":"Feature","properties":{"district":"Bastar","district_hi":"बस्तर"},"geometry":{"type":"Polygon","coordinates":[[[81.6732,18.6524],[81.6759,18.6609],[81.6763,18.6622],[81.7185,18.6875],[81.7573,18.6619],[81.7732,18.6704],[81.758,18.6888],[81.7293,18.6986],[81.7483,18.7127],[81.757,18.7386],[81.7729,18.7461],[81.7774,18.773],[81.7601,18.7727],[81.7667,18.7848],[81.7545,18.8107],[81.7123,18.838],[81.668,18.8035],[81.6424,18.8222],[81.6271,18.8137],[81.6112,18.8314],[81.6195,18.8412],[81.6022,18.8544],[81.5821,18.8448],[81.5734,18.8678],[81.5482,18.8842],[81.5558,18.9121],[81.5246,18.9235],[81.5153,18.914],[81.5056,18.9308],[81.4651,18.9462],[81.464,18.9494],[81.4571,18.9662],[81.4841,18.9737],[81.4706,18.997],[81.4682,19.0009],[81.4713,19.0019],[81.5167,19.0134],[81.5295,19.0373],[81.5028,19.0445],[81.4993,19.0586],[81.5167,19.0668],[81.4903,19.0852],[81.4855,19.1157],[81.5021,19.1344],[81.4924,19.159],[81.5021,19.2039],[81.4768,19.2137],[81.4505,19.1891],[81.4017,19.1914],[81.4013,19.1918],[81.393,19.2078],[81.3439,19.2314],[81.3667,19.2551],[81.3567,19.2924],[81.357,19.2924],[81.3567,19.2928],[81.3764,19.3016],[81.3747,19.3059],[81.3726,19.3124],[81.3837,19.3206],[81.4283,19.2967],[81.4751,19.258],[81.4772,19.2469],[81.4827,19.2413],[81.4993,19.2324],[81.5364,19.2229],[81.5367,19.2226],[81.5423,19.2577],[81.5689,19.2833],[81.6084,19.2731],[81.6202,19.2278],[81.6742,19.2495],[81.6756,19.2649],[81.6489,19.2678],[81.6282,19.2892],[81.6282,19.2898],[81.6337,19.3429],[81.6638,19.3531],[81.6666,19.3659],[81.7033,19.3583],[81.7286,19.3774],[81.7549,19.3557],[81.7944,19.3528],[81.8106,19.4075],[81.7975,19.4121],[81.7916,19.4534],[81.8082,19.4692],[81.8242,19.5105],[81.8571,19.4738],[81.8574,19.5128],[81.846,19.5374],[81.8456,19.5384],[81.8491,19.5407],[81.8636,19.5521],[81.8983,19.5498],[81.9069,19.5282],[81.9523,19.5413],[81.953,19.5413],[81.9568,19.5407],[81.9873,19.5351],[81.9907,19.5344],[81.9987,19.5295],[81.9997,19.4934],[82.0084,19.4954],[82.0285,19.5075],[82.0292,19.5079],[82.0655,19.5108],[82.0759,19.5236],[82.1001,19.5167],[82.0981,19.499],[82.1081,19.4944],[82.1029,19.4662],[82.1261,19.4292],[82.1715,19.4374],[82.1895,19.4275],[82.1788,19.379],[82.1531,19.377],[82.1472,19.3652],[82.1486,19.3528],[82.1788,19.3433],[82.194,19.3259],[82.1812,19.3233],[82.1583,19.2652],[82.158,19.2275],[82.1687,19.2131],[82.1618,19.2023],[82.1805,19.1911],[82.176,19.1721],[82.186,19.1665],[82.1781,19.156],[82.1697,19.1609],[82.1808,19.1508],[82.1739,19.1436],[82.1756,19.1386],[82.1666,19.1331],[82.168,19.1291],[82.1725,19.1213],[82.1815,19.1298],[82.1826,19.1314],[82.1829,19.1311],[82.185,19.1305],[82.2058,19.1242],[82.2058,19.1209],[82.2047,19.097],[82.2175,19.0957],[82.2023,19.0665],[82.2328,19.018],[82.2459,18.9193],[82.2182,18.9226],[82.1805,18.9049],[82.176,18.9026],[82.1767,18.8871],[82.1607,18.8793],[82.1604,18.8789],[82.1691,18.836],[82.159,18.7881],[82.1334,18.7806],[82.1334,18.7655],[82.0908,18.7606],[82.0887,18.7602],[82.0898,18.7524],[82.0915,18.7386],[82.0918,18.7383],[82.0849,18.7186],[82.0309,18.7239],[81.9699,18.6983],[81.9606,18.6888],[81.9692,18.6734],[81.9488,18.6438],[81.9218,18.6429],[81.901,18.6616],[81.8993,18.6606],[81.8993,18.6609],[81.874,18.6566],[81.8726,18.6475],[81.8387,18.6265],[81.7868,18.6025],[81.7684,18.5943],[81.767,18.5937],[81.7653,18.5943],[81.7068,18.614],[81.66,18.6074],[81.652,18.6133],[81.6552,18.6543],[81.6562,18.6543],[81.6728,18.6524],[81.6732,18.6524]]]}},{"type":"Feature","properties":{"district":"Kondagaon","district_hi":"कोंडागांव"},"geometry":{"type":"Polygon","coordinates":[[[81.3733,19.779],[81.3716,19.7922],[81.3709,19.7987],[81.3961,19.8361],[81.3774,19.8538],[81.4024,19.8676],[81.4058,19.8807],[81.3747,19.9079],[81.3487,19.9132],[81.3442,19.9309],[81.3265,19.9391],[81.3307,19.965],[81.302,19.9761],[81.2916,20.0214],[81.3556,20.0358],[81.3591,20.0476],[81.3882,20.0486],[81.4051,20.081],[81.4013,20.1168],[81.4193,20.1571],[81.4509,20.1466],[81.5849,20.1955],[81.6122,20.1581],[81.6801,20.1299],[81.7189,20.1397],[81.7296,20.1578],[81.7466,20.1637],[81.7753,20.1568],[81.8141,20.1676],[81.821,20.1692],[81.8463,20.1643],[81.8453,20.1128],[81.8678,20.0886],[81.8761,20.0522],[81.8754,20.0499],[81.847,19.9577],[81.8449,19.9518],[81.8567,19.9476],[81.8522,19.9217],[81.8532,19.9204],[81.8581,19.9151],[81.8695,19.9027],[81.8899,19.8938],[81.9682,19.86],[81.9654,19.8371],[81.9859,19.801],[82.0655,19.7905],[82.0447,19.7089],[82.0451,19.7069],[82.0589,19.6282],[82.0399,19.5977],[82.0489,19.5567],[82.0482,19.5443],[82.0298,19.5095],[82.0292,19.5079],[82.0285,19.5075],[82.0084,19.4954],[81.9997,19.4934],[81.9987,19.5295],[81.9907,19.5344],[81.9873,19.5351],[81.9568,19.5407],[81.953,19.5413],[81.9523,19.5413],[81.9069,19.5282],[81.8983,19.5498],[81.8636,19.5521],[81.8491,19.5407],[81.8456,19.5384],[81.846,19.5374],[81.8574,19.5128],[81.8571,19.4738],[81.8242,19.5105],[81.8082,19.4692],[81.7916,19.4534],[81.7975,19.4121],[81.8106,19.4075],[81.7944,19.3528],[81.7549,19.3557],[81.7286,19.3774],[81.7033,19.3583],[81.6666,19.3659],[81.6638,19.3531],[81.6337,19.3429],[81.6282,19.2898],[81.6282,19.2892],[81.6489,19.2678],[81.6756,19.2649],[81.6742,19.2495],[81.6202,19.2278],[81.6084,19.2731],[81.5689,19.2833],[81.5423,19.2577],[81.5367,19.2226],[81.5364,19.2229],[81.4993,19.2324],[81.4827,19.2413],[81.4772,19.2469],[81.4751,19.258],[81.4283,19.2967],[81.3837,19.3206],[81.3726,19.3124],[81.3747,19.3059],[81.3581,19.3233],[81.3432,19.319],[81.3639,19.3328],[81.3986,19.3341],[81.3903,19.3642],[81.3653,19.3744],[81.3774,19.3872],[81.3726,19.4095],[81.3799,19.4144],[81.3802,19.4141],[81.3861,19.4121],[81.3916,19.4102],[81.3913,19.4092],[81.3882,19.3833],[81.3885,19.3826],[81.4051,19.3669],[81.4706,19.377],[81.4647,19.4361],[81.4761,19.4721],[81.4266,19.4803],[81.4214,19.4938],[81.4491,19.5161],[81.4398,19.5357],[81.4612,19.5692],[81.4644,19.6161],[81.455,19.6371],[81.509,19.6515],[81.5167,19.663],[81.4768,19.6643],[81.4851,19.6882],[81.4287,19.7194],[81.3736,19.7299],[81.3736,19.7302],[81.3709,19.7426],[81.3819,19.7548],[81.3733,19.779]]]}},{"type":"Feature","properties":{"district":"Gariaband","district_hi":"गरियाबंद"},"geometry":{"type":"Polygon","coordinates":[[[81.9883,21.0834],[82.0253,21.0569],[82.061,21.0615],[82.0929,21.0257],[82.1621,21.0162],[82.1718,20.9746],[82.1864,20.967],[82.1985,20.9392],[82.2196,20.9346],[82.2238,20.9519],[82.2494,20.9398],[82.2657,20.9454],[82.2747,20.911],[82.2975,20.9014],[82.3128,20.8808],[82.3367,20.8752],[82.3394,20.8746],[82.346,20.8729],[82.3453,20.8693],[82.3405,20.8339],[82.3425,20.8047],[82.3536,20.7359],[82.3477,20.7329],[82.3488,20.7185],[82.3533,20.7008],[82.3741,20.6673],[82.3685,20.6496],[82.3765,20.6326],[82.347,20.6024],[82.3509,20.5814],[82.3322,20.5621],[82.3585,20.528],[82.3896,20.5168],[82.3969,20.4581],[82.4187,20.4804],[82.4257,20.4453],[82.4381,20.4342],[82.4166,20.4076],[82.4212,20.3929],[82.4004,20.3407],[82.4315,20.3129],[82.4378,20.2935],[82.4115,20.2643],[82.4222,20.2476],[82.4108,20.2424],[82.4218,20.2043],[82.3869,20.145],[82.3986,20.1224],[82.3993,20.0568],[82.4797,20.0364],[82.5101,20.0164],[82.551,20.0161],[82.603,19.9902],[82.6099,19.9902],[82.6424,20.0053],[82.7176,19.9889],[82.7203,19.9482],[82.7075,19.902],[82.7141,19.8777],[82.7245,19.8754],[82.7113,19.84],[82.6968,19.8305],[82.6521,19.8322],[82.6268,19.7935],[82.5974,19.7794],[82.5953,19.7784],[82.5957,19.7771],[82.5946,19.7754],[82.5818,19.7833],[82.5759,19.8335],[82.6016,19.8646],[82.6033,19.8669],[82.6002,19.8676],[82.5482,19.8758],[82.5347,19.8869],[82.5309,19.8784],[82.4973,19.9043],[82.4641,19.901],[82.4461,19.9102],[82.3948,19.8879],[82.3741,19.8604],[82.3609,19.8627],[82.3453,19.8358],[82.3041,19.8892],[82.2691,19.9751],[82.2376,20.0037],[82.2099,19.9863],[82.1843,19.9843],[82.1711,20.0056],[82.1268,20.0148],[82.0704,20.0571],[82.0326,20.0158],[82.0215,20.0237],[82.0177,20.0489],[82.0177,20.0492],[82.0354,20.0994],[82.1001,20.1056],[82.1074,20.1102],[82.1143,20.1348],[82.1372,20.1489],[82.1334,20.183],[82.1479,20.2181],[82.1483,20.2191],[82.1801,20.2571],[82.1604,20.2653],[82.1452,20.2873],[82.1085,20.2909],[82.0856,20.3299],[82.0853,20.4106],[82.0614,20.4375],[82.0479,20.5008],[82.0208,20.5273],[82.0177,20.5762],[81.9945,20.6352],[82.0125,20.6732],[81.9831,20.7018],[81.9814,20.7241],[81.9228,20.7516],[81.9093,20.7867],[81.9242,20.8132],[81.9041,20.8349],[81.8934,20.8637],[81.8913,20.8696],[81.8882,20.8775],[81.8924,20.8982],[81.8768,20.9192],[81.8764,20.9198],[81.8764,20.9241],[81.8733,20.9647],[81.8661,20.9621],[81.8778,20.9756],[81.8778,20.9769],[81.8813,20.9795],[81.9537,21.0365],[81.9883,21.0834]]]}},{"type":"Feature","properties":{"district":"Raipur","district_hi":"रायपुर"},"geometry":{"type":"Polygon","coordinates":[[[82.1933,21.3792],[82.1459,21.3113],[82.0894,21.2762],[82.0589,21.2635],[82.0434,21.2474],[82.033,21.2369],[82.0285,21.2323],[82.0267,21.2264],[82.016,21.1864],[82.0066,21.152],[81.9883,21.0834],[81.9537,21.0365],[81.8813,20.9795],[81.8778,20.9769],[81.8778,20.9756],[81.8661,20.9621],[81.8591,20.9595],[81.8567,20.9516],[81.8484,20.9421],[81.8429,20.9415],[81.8152,20.946],[81.8148,20.9464],[81.8106,20.9631],[81.8106,20.9634],[81.7795,20.9693],[81.7483,21.0116],[81.7075,21.0182],[81.6822,20.9959],[81.6815,20.9962],[81.6261,21.0192],[81.6143,21.0241],[81.6122,21.0224],[81.6112,21.0261],[81.5949,21.0388],[81.5866,21.0444],[81.5876,21.0451],[81.5856,21.0464],[81.6063,21.0598],[81.5856,21.07],[81.5779,21.0736],[81.5773,21.0739],[81.5776,21.0762],[81.5807,21.1198],[81.5807,21.1215],[81.5811,21.1218],[81.6053,21.1484],[81.6032,21.1585],[81.6032,21.1589],[81.6254,21.1615],[81.6022,21.2067],[81.543,21.2471],[81.543,21.2477],[81.5461,21.2697],[81.5343,21.2959],[81.5354,21.2966],[81.5499,21.3051],[81.5537,21.332],[81.5541,21.3333],[81.5807,21.332],[81.596,21.3428],[81.5921,21.3569],[81.6108,21.3654],[81.6101,21.3874],[81.6243,21.3881],[81.6306,21.3946],[81.6379,21.4038],[81.6226,21.4658],[81.6309,21.4746],[81.6282,21.5081],[81.6444,21.5215],[81.6434,21.5461],[81.6673,21.5494],[81.6666,21.5681],[81.6811,21.5753],[81.6829,21.5789],[81.6943,21.6009],[81.695,21.5923],[81.6953,21.592],[81.6978,21.591],[81.7026,21.5891],[81.7514,21.5832],[81.7417,21.6012],[81.748,21.6133],[81.7701,21.6087],[81.7854,21.6258],[81.7937,21.5966],[81.8446,21.5956],[81.8581,21.6094],[81.8619,21.594],[81.8889,21.5753],[81.9007,21.5999],[81.9208,21.5946],[81.9364,21.5714],[81.9242,21.554],[81.935,21.5254],[81.9301,21.4923],[81.9523,21.4887],[81.954,21.4723],[81.99,21.474],[81.9942,21.4599],[82.0198,21.4484],[82.034,21.4556],[82.0544,21.4366],[82.0787,21.4356],[82.1182,21.4126],[82.1175,21.3835],[82.1175,21.3825],[82.1185,21.3815],[82.1431,21.3599],[82.1441,21.3592],[82.1445,21.3595],[82.1701,21.3818],[82.1933,21.3792]]]}},{"type":"Feature","properties":{"district":"Durg","district_hi":"दुर्ग"},"geometry":{"type":"Polygon","coordinates":[[[81.5537,21.332],[81.5499,21.3051],[81.5354,21.2966],[81.5343,21.2959],[81.5461,21.2697],[81.543,21.2477],[81.543,21.2471],[81.6022,21.2067],[81.6254,21.1615],[81.6032,21.1589],[81.6032,21.1585],[81.6053,21.1484],[81.5811,21.1218],[81.5807,21.1215],[81.5807,21.1198],[81.5776,21.0762],[81.5773,21.0739],[81.5779,21.0736],[81.5856,21.07],[81.6063,21.0598],[81.5856,21.0464],[81.5876,21.0451],[81.5866,21.0444],[81.5949,21.0388],[81.6112,21.0261],[81.6122,21.0224],[81.607,21.0182],[81.6212,20.9913],[81.614,20.9844],[81.6095,20.9811],[81.6095,20.9805],[81.6095,20.9798],[81.6074,20.9618],[81.5904,20.9516],[81.5887,20.9408],[81.58,20.9388],[81.5409,20.9303],[81.5405,20.93],[81.5236,20.8969],[81.4983,20.8942],[81.4851,20.8706],[81.472,20.8706],[81.4599,20.869],[81.4664,20.8542],[81.4515,20.849],[81.4166,20.8493],[81.3882,20.8687],[81.3913,20.8808],[81.3996,20.8769],[81.4131,20.89],[81.4048,20.9401],[81.428,20.9634],[81.4034,20.9828],[81.4207,20.9877],[81.42,21.0064],[81.3941,21.0159],[81.3903,21.0559],[81.3892,21.0559],[81.3716,21.0546],[81.3657,21.0382],[81.329,21.0365],[81.3044,21.0405],[81.3013,21.0621],[81.2722,21.0493],[81.2708,21.0372],[81.2244,21.047],[81.2195,21.0283],[81.2088,21.0283],[81.1918,21.0395],[81.1915,21.0716],[81.1586,21.0697],[81.1593,21.0782],[81.1558,21.0765],[81.1541,21.0825],[81.1527,21.0903],[81.1662,21.1031],[81.1908,21.0923],[81.1918,21.092],[81.196,21.0949],[81.2046,21.1011],[81.2071,21.1031],[81.1956,21.1211],[81.2085,21.1251],[81.2168,21.1684],[81.196,21.1966],[81.1988,21.2221],[81.1485,21.212],[81.1503,21.2271],[81.1641,21.2356],[81.1485,21.2389],[81.1631,21.2507],[81.1624,21.2939],[81.1742,21.2962],[81.1863,21.334],[81.1963,21.3359],[81.188,21.3438],[81.1925,21.3877],[81.1756,21.3999],[81.1846,21.4077],[81.1711,21.434],[81.1818,21.4825],[81.1593,21.4861],[81.1579,21.5022],[81.1877,21.4963],[81.2015,21.5205],[81.2046,21.5179],[81.2098,21.5071],[81.2195,21.5071],[81.2213,21.5071],[81.2223,21.5071],[81.2195,21.5333],[81.2483,21.5336],[81.2687,21.534],[81.2715,21.5333],[81.2743,21.5136],[81.3013,21.5127],[81.3137,21.5376],[81.3283,21.5327],[81.3307,21.5412],[81.356,21.5441],[81.3591,21.5415],[81.3761,21.5159],[81.3892,21.5235],[81.3965,21.5222],[81.464,21.5087],[81.4644,21.4956],[81.4467,21.4995],[81.4419,21.4871],[81.4696,21.4717],[81.4498,21.4513],[81.4519,21.4274],[81.4384,21.4077],[81.4685,21.4087],[81.4685,21.4212],[81.4689,21.4212],[81.4896,21.4176],[81.4976,21.4133],[81.4997,21.4087],[81.4938,21.4018],[81.4834,21.3982],[81.4786,21.3841],[81.4993,21.372],[81.4959,21.354],[81.4962,21.354],[81.5354,21.3477],[81.5509,21.332],[81.5537,21.332]]]}},{"type":"Feature","properties":{"district":"Dhamtari","district_hi":"धमतरी"},"geometry":{"type":"MultiPolygon","coordinates":[[[[81.4446,20.5883],[81.4581,20.6234],[81.4592,20.6257],[81.4595,20.6214],[81.4599,20.6129],[81.4602,20.6122],[81.4446,20.5883]]],[[[81.8141,20.1676],[81.801,20.2142],[81.7854,20.2092],[81.775,20.2322],[81.7843,20.2611],[81.7992,20.2558],[81.8003,20.265],[81.7999,20.265],[81.7892,20.2876],[81.7888,20.2879],[81.7878,20.287],[81.7743,20.2791],[81.7604,20.283],[81.7611,20.3001],[81.7684,20.3106],[81.7951,20.3263],[81.7816,20.3568],[81.7632,20.3545],[81.7691,20.3824],[81.7362,20.4191],[81.7352,20.4821],[81.6922,20.4814],[81.6531,20.4968],[81.641,20.5017],[81.6029,20.5168],[81.5977,20.5188],[81.5412,20.5152],[81.5385,20.5008],[81.5198,20.4942],[81.5146,20.4971],[81.5028,20.5201],[81.4592,20.5139],[81.4567,20.5139],[81.4107,20.5257],[81.4103,20.5545],[81.455,20.567],[81.4474,20.5854],[81.4498,20.5854],[81.5156,20.5896],[81.4713,20.5952],[81.5128,20.6136],[81.5108,20.6237],[81.4973,20.6106],[81.4886,20.627],[81.5004,20.6365],[81.4945,20.6621],[81.5104,20.6634],[81.516,20.7139],[81.491,20.7142],[81.4782,20.7273],[81.4879,20.7588],[81.4786,20.7762],[81.5108,20.7982],[81.517,20.8277],[81.4934,20.8336],[81.4983,20.847],[81.4754,20.8562],[81.4723,20.8696],[81.472,20.8706],[81.4851,20.8706],[81.4983,20.8942],[81.5236,20.8969],[81.5405,20.93],[81.5409,20.9303],[81.58,20.9388],[81.5887,20.9408],[81.5904,20.9516],[81.6074,20.9618],[81.6095,20.9798],[81.6095,20.9805],[81.6095,20.9811],[81.614,20.9844],[81.6212,20.9913],[81.607,21.0182],[81.6122,21.0224],[81.6143,21.0241],[81.6261,21.0192],[81.6815,20.9962],[81.6822,20.9959],[81.7075,21.0182],[81.7483,21.0116],[81.7795,20.9693],[81.8106,20.9634],[81.8106,20.9631],[81.8148,20.9464],[81.8152,20.946],[81.8429,20.9415],[81.8484,20.9421],[81.8567,20.9516],[81.8591,20.9595],[81.8661,20.9621],[81.8733,20.9647],[81.8764,20.9241],[81.8764,20.9198],[81.8768,20.9192],[81.8924,20.8982],[81.8882,20.8775],[81.8913,20.8696],[81.8934,20.8637],[81.9041,20.8349],[81.9242,20.8132],[81.9093,20.7867],[81.9228,20.7516],[81.9814,20.7241],[81.9831,20.7018],[82.0125,20.6732],[81.9945,20.6352],[82.0177,20.5762],[82.0208,20.5273],[82.0479,20.5008],[82.0614,20.4375],[82.0853,20.4106],[82.0856,20.3299],[82.1085,20.2909],[82.1452,20.2873],[82.1604,20.2653],[82.1801,20.2571],[82.1483,20.2191],[82.1479,20.2181],[82.1334,20.183],[82.1372,20.1489],[82.1143,20.1348],[82.1074,20.1102],[82.1001,20.1056],[82.0354,20.0994],[82.0177,20.0492],[82.0177,20.0489],[81.9952,20.0535],[81.9464,20.1053],[81.946,20.1046],[81.8951,20.0482],[81.8761,20.0522],[81.8678,20.0886],[81.8453,20.1128],[81.8463,20.1643],[81.821,20.1692],[81.8141,20.1676]]]]}},{"type":"Feature","properties":{"district":"Balod","district_hi":"बालोद"},"geometry":{"type":"Polygon","coordinates":[[[81.4103,20.5545],[81.3864,20.5335],[81.3574,20.5552],[81.3245,20.5627],[81.2912,20.5165],[81.2531,20.4988],[81.2639,20.4808],[81.249,20.4562],[81.2542,20.4473],[81.2348,20.4437],[81.222,20.4188],[81.1731,20.4063],[81.1492,20.3771],[81.0772,20.4188],[81.0336,20.4273],[80.992,20.4594],[80.9834,20.5008],[80.9609,20.5073],[80.9543,20.5408],[80.9896,20.544],[80.9851,20.5585],[81.0066,20.5739],[81.0066,20.5985],[80.9584,20.6303],[80.9529,20.6431],[80.9619,20.664],[80.9276,20.6677],[80.9186,20.6483],[80.9096,20.6657],[80.8819,20.6559],[80.8549,20.6709],[80.8591,20.6893],[80.8165,20.6886],[80.8033,20.7224],[80.8196,20.745],[80.8182,20.7608],[80.8615,20.7801],[80.8836,20.8037],[80.9003,20.808],[80.9006,20.7864],[80.9214,20.7824],[80.9252,20.7719],[80.9567,20.8234],[80.9785,20.8109],[80.9751,20.829],[80.9692,20.8247],[80.9494,20.8431],[80.9951,20.8834],[80.9657,20.9077],[80.9629,20.9497],[80.9418,20.9467],[80.9532,20.9697],[80.939,20.9772],[80.956,20.9831],[80.9536,21.0031],[80.9875,21.0077],[81.0246,20.9926],[81.0609,20.9926],[81.1205,21.0044],[81.1513,21.0569],[81.1444,21.0703],[81.1513,21.0743],[81.1558,21.0765],[81.1593,21.0782],[81.1586,21.0697],[81.1915,21.0716],[81.1918,21.0395],[81.2088,21.0283],[81.2195,21.0283],[81.2244,21.047],[81.2708,21.0372],[81.2722,21.0493],[81.3013,21.0621],[81.3044,21.0405],[81.329,21.0365],[81.3657,21.0382],[81.3716,21.0546],[81.3892,21.0559],[81.3903,21.0559],[81.3941,21.0159],[81.42,21.0064],[81.4207,20.9877],[81.4034,20.9828],[81.428,20.9634],[81.4048,20.9401],[81.4131,20.89],[81.3996,20.8769],[81.3913,20.8808],[81.3882,20.8687],[81.4166,20.8493],[81.4515,20.849],[81.4664,20.8542],[81.4599,20.869],[81.472,20.8706],[81.4723,20.8696],[81.4754,20.8562],[81.4983,20.847],[81.4934,20.8336],[81.517,20.8277],[81.5108,20.7982],[81.4786,20.7762],[81.4879,20.7588],[81.4782,20.7273],[81.491,20.7142],[81.516,20.7139],[81.5104,20.6634],[81.4945,20.6621],[81.5004,20.6365],[81.4886,20.627],[81.4973,20.6106],[81.5108,20.6237],[81.5128,20.6136],[81.4713,20.5952],[81.5156,20.5896],[81.4498,20.5854],[81.4474,20.5854],[81.455,20.567],[81.4103,20.5545]],[[81.4446,20.5883],[81.4602,20.6122],[81.4599,20.6129],[81.4595,20.6214],[81.4592,20.6257],[81.4581,20.6234],[81.4446,20.5883]]]}},{"type":"Feature","properties":{"district":"Kabeerdham","district_hi":"कबीरधाम"},"geometry":{"type":"Polygon","coordinates":[[[81.4754,22.4891],[81.4699,22.4839],[81.4758,22.4557],[81.4914,22.4478],[81.4883,22.4229],[81.5018,22.4],[81.5163,22.3947],[81.5163,22.3944],[81.5121,22.3813],[81.5554,22.3439],[81.5544,22.3416],[81.5409,22.315],[81.5239,22.3078],[81.5388,22.2852],[81.5315,22.2744],[81.5516,22.2668],[81.5523,22.2409],[81.5333,22.2127],[81.5288,22.1619],[81.5156,22.154],[81.5208,22.0842],[81.5066,22.0383],[81.5118,22.0193],[81.5011,22.0035],[81.5025,22.013],[81.4758,22.015],[81.4727,22.0137],[81.4748,22.0075],[81.4858,21.9966],[81.4675,21.9789],[81.4775,21.9642],[81.4512,21.9504],[81.4502,21.937],[81.4626,21.9317],[81.4519,21.9268],[81.4547,21.914],[81.4387,21.9078],[81.4498,21.9025],[81.4256,21.8993],[81.4159,21.9156],[81.4076,21.8881],[81.3916,21.8815],[81.3965,21.8497],[81.3993,21.8311],[81.3993,21.8307],[81.3639,21.8317],[81.3324,21.8491],[81.32,21.8314],[81.3432,21.7681],[81.3103,21.7579],[81.2947,21.7694],[81.2549,21.7465],[81.223,21.756],[81.2299,21.7219],[81.2334,21.7183],[81.231,21.7163],[81.2237,21.7101],[81.2178,21.7048],[81.1974,21.7074],[81.1721,21.7051],[81.1714,21.7074],[81.1305,21.7163],[81.1264,21.7045],[81.1025,21.7343],[81.0599,21.7238],[81.0273,21.7415],[80.9993,21.7278],[80.9719,21.7599],[80.9529,21.7674],[80.9543,21.7865],[80.93,21.8245],[80.8774,21.8238],[80.8462,21.8356],[80.8459,21.8343],[80.8428,21.8353],[80.8393,21.8481],[80.8525,21.8543],[80.8424,21.8648],[80.8431,21.8655],[80.8525,21.873],[80.8528,21.8733],[80.8341,21.8891],[80.8331,21.8966],[80.8393,21.9189],[80.8442,21.936],[80.8459,21.9425],[80.8255,21.9583],[80.8476,21.9557],[80.8566,21.9648],[80.8826,22.0589],[80.8968,22.0645],[80.9079,22.1094],[80.9221,22.1199],[80.9571,22.1104],[80.9719,22.0852],[80.9699,22.0573],[80.9844,22.0488],[80.9889,22.0511],[81.0021,22.058],[81.0031,22.0586],[81.0038,22.0599],[81.0052,22.0625],[81.009,22.0711],[81.0014,22.0835],[81.0114,22.0957],[80.9903,22.1137],[80.9809,22.1101],[80.9778,22.1226],[80.9945,22.1357],[81.0218,22.1327],[81.0267,22.1665],[81.0166,22.1855],[81.0308,22.1875],[81.0315,22.1996],[81.0194,22.2213],[81.045,22.2406],[81.0727,22.2485],[81.0796,22.2393],[81.1188,22.2914],[81.1136,22.3242],[81.1212,22.3426],[81.1039,22.3832],[81.1046,22.3901],[81.1108,22.436],[81.1551,22.455],[81.1728,22.4878],[81.1742,22.4882],[81.1936,22.4914],[81.1939,22.4905],[81.1967,22.4832],[81.206,22.461],[81.2078,22.4567],[81.2171,22.457],[81.2414,22.4583],[81.2483,22.4587],[81.2618,22.4721],[81.2621,22.4934],[81.2812,22.5029],[81.3071,22.4819],[81.3127,22.4836],[81.3172,22.4849],[81.321,22.4862],[81.3207,22.4872],[81.3175,22.5144],[81.3283,22.5255],[81.3297,22.5252],[81.3819,22.5098],[81.3899,22.4524],[81.3944,22.4491],[81.4041,22.4426],[81.4065,22.4409],[81.4131,22.4455],[81.4245,22.4541],[81.4287,22.457],[81.4277,22.48],[81.4391,22.4823],[81.4474,22.4659],[81.4588,22.4695],[81.4467,22.4698],[81.4512,22.4865],[81.4425,22.4944],[81.4754,22.4891]]]}},{"type":"Feature","properties":{"district":"Janjgir Champa","district_hi":"जांजगीर-चांपा"},"geometry":{"type":"Polygon","coordinates":[[[82.9371,22.1229],[83.0154,22.0763],[83.0154,22.0547],[83.0323,22.0557],[83.0057,22.0288],[83.0168,22.0248],[83.0126,22.0111],[83.0216,22.0019],[83.0116,21.9865],[82.9953,21.9888],[83.0033,21.9652],[83.0909,21.9753],[83.1172,21.9311],[83.1345,21.9307],[83.1484,21.9153],[83.1868,21.9275],[83.2138,21.9075],[83.2145,21.8838],[83.1785,21.8507],[83.2207,21.837],[83.2062,21.812],[83.237,21.7904],[83.2457,21.751],[83.2664,21.7409],[83.264,21.7156],[83.3087,21.7055],[83.316,21.6828],[83.1709,21.7183],[83.0812,21.7156],[83.033,21.7432],[82.9489,21.7242],[82.9485,21.7242],[82.9278,21.716],[82.8713,21.6933],[82.7903,21.7238],[82.6954,21.7278],[82.6618,21.7094],[82.6251,21.7284],[82.6244,21.7291],[82.6199,21.7268],[82.5881,21.7163],[82.543,21.7369],[82.5413,21.7366],[82.4714,21.7271],[82.4482,21.7445],[82.4475,21.7451],[82.4464,21.7448],[82.4302,21.7465],[82.4111,21.7642],[82.3841,21.7612],[82.3831,21.7609],[82.3512,21.853],[82.3152,21.8724],[82.3083,21.8979],[82.3155,21.9035],[82.3045,21.9081],[82.3301,21.9635],[82.3207,22.0019],[82.3325,22.0193],[82.3263,22.0501],[82.3367,22.0747],[82.3342,22.1062],[82.3581,22.1363],[82.3938,22.1281],[82.4222,22.1376],[82.4222,22.138],[82.4371,22.1649],[82.4703,22.1885],[82.4727,22.1904],[82.4568,22.1983],[82.4579,22.2108],[82.4582,22.2144],[82.4599,22.2134],[82.4908,22.2462],[82.5171,22.2511],[82.5216,22.2495],[82.5462,22.2081],[82.5825,22.2304],[82.5936,22.2629],[82.596,22.2622],[82.6449,22.2386],[82.6424,22.2121],[82.6653,22.1878],[82.6383,22.1321],[82.6397,22.1147],[82.6698,22.0812],[82.6985,22.0891],[82.7221,22.0396],[82.7404,22.0399],[82.7314,22.0855],[82.757,22.0983],[82.7584,22.1176],[82.7993,22.1304],[82.7965,22.1412],[82.8225,22.154],[82.8526,22.1586],[82.8613,22.1714],[82.8921,22.1626],[82.9018,22.1383],[82.9368,22.1222],[82.9371,22.1229]]]}},{"type":"Feature","properties":{"district":"Bametara","district_hi":"बेमेतरा"},"geometry":{"type":"Polygon","coordinates":[[[81.6943,21.6009],[81.6829,21.5789],[81.6811,21.5753],[81.6666,21.5681],[81.6673,21.5494],[81.6434,21.5461],[81.6444,21.5215],[81.6282,21.5081],[81.6309,21.4746],[81.6226,21.4658],[81.6379,21.4038],[81.6306,21.3946],[81.6243,21.3881],[81.6101,21.3874],[81.6108,21.3654],[81.5921,21.3569],[81.596,21.3428],[81.5807,21.332],[81.5541,21.3333],[81.5537,21.332],[81.5509,21.332],[81.5354,21.3477],[81.4962,21.354],[81.4959,21.354],[81.4993,21.372],[81.4786,21.3841],[81.4834,21.3982],[81.4938,21.4018],[81.4997,21.4087],[81.4976,21.4133],[81.4896,21.4176],[81.4689,21.4212],[81.4685,21.4212],[81.4685,21.4087],[81.4384,21.4077],[81.4519,21.4274],[81.4498,21.4513],[81.4696,21.4717],[81.4419,21.4871],[81.4467,21.4995],[81.4644,21.4956],[81.464,21.5087],[81.3965,21.5222],[81.3892,21.5235],[81.3761,21.5159],[81.3591,21.5415],[81.356,21.5441],[81.3307,21.5412],[81.3283,21.5327],[81.3137,21.5376],[81.3013,21.5127],[81.2743,21.5136],[81.2715,21.5333],[81.2687,21.534],[81.2483,21.5336],[81.2195,21.5333],[81.2223,21.5071],[81.2213,21.5071],[81.2195,21.5071],[81.2098,21.5071],[81.2046,21.5179],[81.204,21.5202],[81.1634,21.5264],[81.1576,21.5464],[81.1389,21.5543],[81.1576,21.59],[81.1769,21.5973],[81.1752,21.6232],[81.1943,21.6346],[81.178,21.6451],[81.1825,21.6674],[81.1721,21.7051],[81.1974,21.7074],[81.2178,21.7048],[81.2237,21.7101],[81.231,21.7163],[81.2334,21.7183],[81.2299,21.7219],[81.223,21.756],[81.2549,21.7465],[81.2947,21.7694],[81.3103,21.7579],[81.3432,21.7681],[81.32,21.8314],[81.3324,21.8491],[81.3639,21.8317],[81.3993,21.8307],[81.3993,21.8311],[81.3965,21.8497],[81.3916,21.8815],[81.4076,21.8881],[81.4159,21.9156],[81.4256,21.8993],[81.4498,21.9025],[81.4387,21.9078],[81.4547,21.914],[81.4519,21.9268],[81.4626,21.9317],[81.4502,21.937],[81.4512,21.9504],[81.4775,21.9642],[81.4675,21.9789],[81.4858,21.9966],[81.4748,22.0075],[81.4727,22.0137],[81.4758,22.015],[81.5025,22.013],[81.5011,22.0035],[81.5475,22.0052],[81.5721,21.9966],[81.5797,21.9822],[81.5914,21.9934],[81.5911,22.0107],[81.5734,22.0166],[81.5814,22.0245],[81.5835,22.0235],[81.6112,22.0134],[81.6157,21.9884],[81.6479,21.9924],[81.6631,21.9845],[81.6579,21.9688],[81.6676,21.9625],[81.7057,21.9596],[81.7275,21.9435],[81.7528,21.9599],[81.7632,21.9475],[81.7729,21.954],[81.8003,21.9475],[81.7958,21.9291],[81.8245,21.9134],[81.8165,21.8838],[81.8359,21.8783],[81.838,21.8927],[81.8529,21.8976],[81.8695,21.8822],[81.8858,21.893],[81.9007,21.8835],[81.8944,21.8402],[81.9215,21.8333],[81.937,21.814],[81.8969,21.7806],[81.8685,21.7681],[81.8474,21.7592],[81.8152,21.7606],[81.8048,21.7724],[81.784,21.7628],[81.7712,21.7691],[81.7442,21.7487],[81.7348,21.7651],[81.7345,21.7651],[81.7286,21.7645],[81.7005,21.7612],[81.7002,21.7602],[81.6978,21.7484],[81.7265,21.7078],[81.7258,21.7042],[81.722,21.6871],[81.6815,21.6746],[81.6687,21.6638],[81.66,21.6566],[81.6576,21.6546],[81.6721,21.6425],[81.6939,21.6169],[81.6943,21.6035],[81.6943,21.6009]]]}},{"type":"Feature","properties":{"district":"Rajnandgaon","district_hi":"राजनांदगांव"},"geometry":{"type":"Polygon","coordinates":[[[80.992,20.4594],[80.9889,20.4568],[80.9896,20.4529],[80.9664,20.4368],[80.9311,20.4371],[80.8868,20.387],[80.8601,20.388],[80.8476,20.3483],[80.8123,20.3548],[80.8265,20.3414],[80.83,20.3083],[80.7894,20.2824],[80.7759,20.2942],[80.7503,20.2916],[80.7469,20.2755],[80.7275,20.2686],[80.7365,20.2394],[80.7147,20.1912],[80.7143,20.1902],[80.688,20.1912],[80.6544,20.2266],[80.6146,20.1853],[80.5841,20.1774],[80.5671,20.1892],[80.5689,20.1545],[80.5654,20.1466],[80.5651,20.1384],[80.5453,20.0994],[80.5522,20.1181],[80.5055,20.1443],[80.4646,20.1502],[80.4601,20.1509],[80.4553,20.1381],[80.4314,20.1361],[80.4023,20.1473],[80.3971,20.1535],[80.3888,20.165],[80.3891,20.1656],[80.4117,20.1932],[80.4217,20.2053],[80.422,20.206],[80.4047,20.2188],[80.3957,20.245],[80.4809,20.2748],[80.519,20.266],[80.5495,20.3089],[80.6104,20.3184],[80.6257,20.3319],[80.6263,20.3325],[80.6108,20.3752],[80.5914,20.3929],[80.6135,20.4348],[80.6021,20.4499],[80.6198,20.5047],[80.6153,20.5499],[80.6267,20.5637],[80.6173,20.5857],[80.6319,20.5985],[80.5806,20.6083],[80.5211,20.5804],[80.5045,20.5834],[80.4809,20.6185],[80.52,20.6565],[80.5803,20.6729],[80.5876,20.684],[80.5876,20.6844],[80.5651,20.7106],[80.5626,20.7473],[80.5516,20.7641],[80.5491,20.7959],[80.5616,20.8228],[80.5612,20.8231],[80.5616,20.8234],[80.546,20.9349],[80.4636,20.929],[80.4439,20.9939],[80.4241,21.0083],[80.4525,21.0388],[80.439,21.0966],[80.4581,21.1149],[80.4449,21.1218],[80.4643,21.1749],[80.5148,21.1828],[80.5297,21.2051],[80.5595,21.2021],[80.5876,21.2221],[80.6139,21.2264],[80.644,21.2513],[80.6613,21.291],[80.6797,21.2989],[80.6818,21.3136],[80.6606,21.3336],[80.6599,21.334],[80.6603,21.3343],[80.671,21.3382],[80.6759,21.3474],[80.6842,21.3631],[80.6991,21.391],[80.7005,21.3982],[80.706,21.4281],[80.7067,21.432],[80.7379,21.4733],[80.7275,21.4963],[80.7406,21.5392],[80.7198,21.555],[80.7288,21.5727],[80.7153,21.5851],[80.7309,21.6173],[80.7143,21.6615],[80.734,21.6946],[80.7261,21.7137],[80.7562,21.7622],[80.778,21.7546],[80.7853,21.7402],[80.8196,21.7481],[80.8168,21.7619],[80.8449,21.8291],[80.8442,21.8307],[80.8459,21.8343],[80.8462,21.8356],[80.8774,21.8238],[80.93,21.8245],[80.9543,21.7865],[80.9529,21.7674],[80.9719,21.7599],[80.9993,21.7278],[81.0273,21.7415],[81.0599,21.7238],[81.1025,21.7343],[81.1264,21.7045],[81.1305,21.7163],[81.1714,21.7074],[81.1721,21.7051],[81.1825,21.6674],[81.178,21.6451],[81.1943,21.6346],[81.1752,21.6232],[81.1769,21.5973],[81.1576,21.59],[81.1389,21.5543],[81.1576,21.5464],[81.1634,21.5264],[81.204,21.5202],[81.2046,21.5179],[81.2015,21.5205],[81.1877,21.4963],[81.1579,21.5022],[81.1593,21.4861],[81.1818,21.4825],[81.1711,21.434],[81.1846,21.4077],[81.1756,21.3999],[81.1925,21.3877],[81.188,21.3438],[81.1963,21.3359],[81.1863,21.334],[81.1742,21.2962],[81.1624,21.2939],[81.1631,21.2507],[81.1485,21.2389],[81.1641,21.2356],[81.1503,21.2271],[81.1485,21.212],[81.1988,21.2221],[81.196,21.1966],[81.2168,21.1684],[81.2085,21.1251],[81.1956,21.1211],[81.2071,21.1031],[81.2046,21.1011],[81.196,21.0949],[81.1918,21.092],[81.1908,21.0923],[81.1662,21.1031],[81.1527,21.0903],[81.1541,21.0825],[81.1558,21.0765],[81.1513,21.0743],[81.1444,21.0703],[81.1513,21.0569],[81.1205,21.0044],[81.0609,20.9926],[81.0246,20.9926],[80.9875,21.0077],[80.9536,21.0031],[80.956,20.9831],[80.939,20.9772],[80.9532,20.9697],[80.9418,20.9467],[80.9629,20.9497],[80.9657,20.9077],[80.9951,20.8834],[80.9494,20.8431],[80.9692,20.8247],[80.9751,20.829],[80.9785,20.8109],[80.9567,20.8234],[80.9252,20.7719],[80.9214,20.7824],[80.9006,20.7864],[80.9003,20.808],[80.8836,20.8037],[80.8615,20.7801],[80.8182,20.7608],[80.8196,20.745],[80.8033,20.7224],[80.8165,20.6886],[80.8591,20.6893],[80.8549,20.6709],[80.8819,20.6559],[80.9096,20.6657],[80.9186,20.6483],[80.9276,20.6677],[80.9619,20.664],[80.9529,20.6431],[80.9584,20.6303],[81.0066,20.5985],[81.0066,20.5739],[80.9851,20.5585],[80.9896,20.544],[80.9543,20.5408],[80.9609,20.5073],[80.9834,20.5008],[80.992,20.4594]]]}},{"type":"Feature","properties":{"district":"Baloda Bazar","district_hi":"बलौदा बाज़ार"},"geometry":{"type":"Polygon","coordinates":[[[82.934,21.4969],[82.9343,21.4956],[82.9205,21.4917],[82.8772,21.5563],[82.8758,21.5556],[82.8208,21.5313],[82.8253,21.5045],[82.7899,21.5104],[82.7719,21.5241],[82.7373,21.495],[82.6909,21.4851],[82.7027,21.3733],[82.6958,21.33],[82.6511,21.331],[82.6518,21.3461],[82.6286,21.3353],[82.5971,21.3399],[82.5638,21.3159],[82.5427,21.3185],[82.5299,21.3317],[82.5133,21.3166],[82.4717,21.328],[82.4599,21.3077],[82.4755,21.2972],[82.4558,21.2946],[82.4558,21.2943],[82.4513,21.2812],[82.4367,21.289],[82.4364,21.289],[82.4371,21.2903],[82.4447,21.3035],[82.445,21.3041],[82.4298,21.3077],[82.4187,21.31],[82.4177,21.3103],[82.3955,21.2959],[82.3896,21.2625],[82.3619,21.2766],[82.345,21.2638],[82.3481,21.2841],[82.3249,21.2926],[82.2989,21.2812],[82.2975,21.269],[82.2768,21.2726],[82.2774,21.3012],[82.2428,21.3156],[82.2522,21.3179],[82.256,21.3533],[82.2432,21.3648],[82.2671,21.3844],[82.275,21.3854],[82.275,21.391],[82.275,21.3976],[82.275,21.4012],[82.2733,21.4022],[82.2456,21.4189],[82.2522,21.4323],[82.2331,21.434],[82.1933,21.3792],[82.1701,21.3818],[82.1445,21.3595],[82.1441,21.3592],[82.1431,21.3599],[82.1185,21.3815],[82.1175,21.3825],[82.1175,21.3835],[82.1182,21.4126],[82.0787,21.4356],[82.0544,21.4366],[82.034,21.4556],[82.0198,21.4484],[81.9942,21.4599],[81.99,21.474],[81.954,21.4723],[81.9523,21.4887],[81.9301,21.4923],[81.935,21.5254],[81.9242,21.554],[81.9364,21.5714],[81.9208,21.5946],[81.9007,21.5999],[81.8889,21.5753],[81.8619,21.594],[81.8581,21.6094],[81.8446,21.5956],[81.7937,21.5966],[81.7854,21.6258],[81.7701,21.6087],[81.748,21.6133],[81.7417,21.6012],[81.7514,21.5832],[81.7026,21.5891],[81.6978,21.591],[81.6953,21.592],[81.695,21.5923],[81.6943,21.6009],[81.6943,21.6035],[81.6939,21.6169],[81.6721,21.6425],[81.6576,21.6546],[81.66,21.6566],[81.6687,21.6638],[81.6815,21.6746],[81.722,21.6871],[81.7258,21.7042],[81.7265,21.7078],[81.6978,21.7484],[81.7002,21.7602],[81.7005,21.7612],[81.7286,21.7645],[81.7345,21.7651],[81.7348,21.7651],[81.7442,21.7487],[81.7712,21.7691],[81.784,21.7628],[81.8048,21.7724],[81.8152,21.7606],[81.8474,21.7592],[81.8685,21.7681],[81.8969,21.7806],[81.937,21.814],[81.953,21.8442],[82.0219,21.8579],[82.0319,21.8802],[82.0357,21.8812],[82.0371,21.8832],[82.0395,21.8822],[82.0974,21.8563],[82.0995,21.8553],[82.123,21.8317],[82.1587,21.8471],[82.1791,21.8429],[82.1805,21.836],[82.1826,21.7943],[82.1926,21.776],[82.1985,21.7648],[82.2006,21.7612],[82.2889,21.7527],[82.311,21.7205],[82.3135,21.7166],[82.3187,21.7166],[82.3921,21.7124],[82.4464,21.7448],[82.4475,21.7451],[82.4482,21.7445],[82.4714,21.7271],[82.5413,21.7366],[82.543,21.7369],[82.5881,21.7163],[82.6199,21.7268],[82.6244,21.7291],[82.6251,21.7284],[82.6618,21.7094],[82.6954,21.7278],[82.7903,21.7238],[82.8713,21.6933],[82.9278,21.716],[82.9485,21.7242],[82.9489,21.7242],[82.9503,21.692],[82.97,21.6923],[82.9859,21.6484],[82.9343,21.5661],[82.9264,21.5536],[82.9229,21.5484],[82.9333,21.4966],[82.934,21.4969]]]}},{"type":"Feature","properties":{"district":"Mungeli","district_hi":"मुंगेली"},"geometry":{"type":"Polygon","coordinates":[[[81.5011,22.0035],[81.5118,22.0193],[81.5066,22.0383],[81.5208,22.0842],[81.5156,22.154],[81.5288,22.1619],[81.5333,22.2127],[81.5523,22.2409],[81.5516,22.2668],[81.5315,22.2744],[81.5388,22.2852],[81.5239,22.3078],[81.5409,22.315],[81.5544,22.3416],[81.5554,22.3439],[81.5121,22.3813],[81.5163,22.3944],[81.5163,22.3947],[81.5018,22.4],[81.4883,22.4229],[81.4914,22.4478],[81.4758,22.4557],[81.4699,22.4839],[81.4754,22.4891],[81.4817,22.4882],[81.4848,22.4878],[81.4855,22.4898],[81.4966,22.5196],[81.4969,22.5196],[81.5184,22.52],[81.5222,22.539],[81.5461,22.5275],[81.57,22.5324],[81.5627,22.5423],[81.5696,22.5508],[81.6001,22.5354],[81.6219,22.538],[81.6288,22.5633],[81.66,22.5695],[81.6579,22.5846],[81.6455,22.5846],[81.6489,22.6151],[81.6846,22.6479],[81.714,22.6488],[81.7286,22.6702],[81.7369,22.6557],[81.7282,22.6344],[81.741,22.6072],[81.7507,22.6069],[81.7469,22.5915],[81.7885,22.597],[81.7833,22.5885],[81.7989,22.5629],[81.8259,22.5777],[81.837,22.5705],[81.8321,22.5337],[81.8408,22.5082],[81.9021,22.4816],[81.9111,22.4616],[81.8979,22.4554],[81.9017,22.4426],[81.9249,22.4124],[81.9474,22.4046],[81.9765,22.36],[81.9561,22.3409],[81.9253,22.3596],[81.9353,22.339],[81.9298,22.3154],[81.9388,22.3095],[81.926,22.294],[81.9152,22.2931],[81.9138,22.3118],[81.8972,22.3045],[81.8733,22.3219],[81.8529,22.3062],[81.8519,22.2957],[81.8626,22.2911],[81.8349,22.2868],[81.8228,22.2701],[81.8124,22.2777],[81.8242,22.2931],[81.7854,22.2875],[81.7746,22.3072],[81.7639,22.2904],[81.7438,22.3127],[81.7421,22.2678],[81.7338,22.2695],[81.7331,22.2642],[81.7313,22.2534],[81.731,22.2501],[81.7317,22.2501],[81.766,22.2422],[81.794,22.2088],[81.7971,22.2049],[81.8027,22.2222],[81.8224,22.1737],[81.8539,22.1501],[81.8685,22.1212],[81.8785,22.1262],[81.8903,22.1009],[81.9035,22.1071],[81.9076,22.0796],[81.9364,22.0583],[81.9412,22.0475],[81.9485,22.0491],[81.9499,22.0478],[81.9502,22.0186],[81.9641,22.0107],[81.9547,22.0035],[81.9883,21.995],[82.0049,21.9835],[82.0108,21.9691],[82.0115,21.9661],[81.9911,21.9688],[81.9866,21.9448],[82.0028,21.9166],[82.0219,21.913],[82.0371,21.8832],[82.0357,21.8812],[82.0319,21.8802],[82.0219,21.8579],[81.953,21.8442],[81.937,21.814],[81.9215,21.8333],[81.8944,21.8402],[81.9007,21.8835],[81.8858,21.893],[81.8695,21.8822],[81.8529,21.8976],[81.838,21.8927],[81.8359,21.8783],[81.8165,21.8838],[81.8245,21.9134],[81.7958,21.9291],[81.8003,21.9475],[81.7729,21.954],[81.7632,21.9475],[81.7528,21.9599],[81.7275,21.9435],[81.7057,21.9596],[81.6676,21.9625],[81.6579,21.9688],[81.6631,21.9845],[81.6479,21.9924],[81.6157,21.9884],[81.6112,22.0134],[81.5835,22.0235],[81.5814,22.0245],[81.5734,22.0166],[81.5911,22.0107],[81.5914,21.9934],[81.5797,21.9822],[81.5721,21.9966],[81.5475,22.0052],[81.5011,22.0035]]]}},{"type":"Feature","properties":{"district":"Bijapur","district_hi":"बीजापुर"},"geometry":{"type":"Polygon","coordinates":[[[80.8525,19.3642],[80.8528,19.3646],[80.9522,19.3105],[80.9553,19.2364],[81.0246,19.2393],[81.0357,19.2285],[81.0623,19.2278],[81.0789,19.2364],[81.0738,19.2714],[81.0734,19.2737],[81.0755,19.2741],[81.1094,19.2754],[81.1292,19.2567],[81.1295,19.2564],[81.1295,19.2567],[81.1323,19.2459],[81.1146,19.236],[81.1295,19.2301],[81.1285,19.2085],[81.1451,19.1823],[81.2095,19.1836],[81.2088,19.0918],[81.2258,19.0508],[81.2112,19.0311],[81.2116,19.0193],[81.223,19.015],[81.2033,18.9947],[81.2365,18.9678],[81.2171,18.9527],[81.2188,18.9317],[81.2005,18.9386],[81.1704,18.9291],[81.1704,18.9199],[81.1863,18.914],[81.2209,18.9219],[81.2251,18.9101],[81.2143,18.8983],[81.204,18.8363],[81.188,18.8166],[81.1981,18.7481],[81.1607,18.6907],[81.1631,18.6661],[81.1787,18.652],[81.1624,18.6314],[81.1627,18.6107],[81.1489,18.5999],[81.1465,18.5688],[81.1714,18.592],[81.1936,18.596],[81.1936,18.5943],[81.1956,18.551],[81.1956,18.5504],[81.1828,18.5412],[81.1655,18.5527],[81.1707,18.5422],[81.1576,18.5314],[81.0873,18.5488],[81.0336,18.5343],[81.0222,18.4661],[80.9771,18.4192],[80.9155,18.3819],[80.9134,18.3799],[80.9158,18.3779],[80.9262,18.3769],[80.9359,18.3618],[80.9584,18.3687],[80.9806,18.3477],[81.0405,18.3418],[81.0592,18.3136],[81.0641,18.2999],[81.0647,18.2969],[81.0651,18.2959],[81.0447,18.2553],[81.0738,18.2317],[81.0741,18.1963],[81.0762,18.1923],[81.0741,18.1907],[81.0336,18.1563],[81.0083,18.1615],[81.009,18.1697],[80.9789,18.1654],[80.9789,18.1789],[80.9577,18.1769],[80.9141,18.1444],[80.8667,18.1402],[80.8528,18.2054],[80.8726,18.214],[80.866,18.2336],[80.8435,18.2359],[80.8237,18.2395],[80.8241,18.1943],[80.7991,18.1717],[80.7559,18.1707],[80.7448,18.1704],[80.7368,18.1772],[80.7372,18.2222],[80.7936,18.2599],[80.7489,18.3084],[80.7195,18.391],[80.7347,18.413],[80.7185,18.4097],[80.6991,18.4215],[80.6991,18.4222],[80.7053,18.4396],[80.6554,18.476],[80.6371,18.5048],[80.6378,18.5225],[80.5346,18.5884],[80.5148,18.6193],[80.4871,18.632],[80.4546,18.6304],[80.3881,18.5956],[80.3739,18.6114],[80.3725,18.6107],[80.3448,18.5963],[80.2991,18.693],[80.2859,18.7081],[80.2759,18.7199],[80.2721,18.7245],[80.2465,18.7635],[80.2472,18.7655],[80.2749,18.7655],[80.2752,18.7662],[80.2998,18.7944],[80.3389,18.8111],[80.3514,18.8163],[80.3514,18.8203],[80.3507,18.8298],[80.3497,18.8481],[80.3386,18.8606],[80.3355,18.8688],[80.2711,18.9422],[80.2728,18.9849],[80.2738,18.9934],[80.3033,19.0219],[80.3026,19.0242],[80.2988,19.0419],[80.2974,19.0481],[80.3296,19.0698],[80.3278,19.095],[80.3396,19.1],[80.3275,19.135],[80.3334,19.1452],[80.393,19.1872],[80.394,19.1875],[80.386,19.2098],[80.3843,19.2154],[80.3846,19.2177],[80.3919,19.239],[80.4349,19.26],[80.447,19.2659],[80.4484,19.2665],[80.4819,19.337],[80.5204,19.3475],[80.5554,19.3901],[80.5696,19.3983],[80.5779,19.398],[80.5879,19.3724],[80.6035,19.3328],[80.6128,19.3095],[80.6215,19.3082],[80.6281,19.3075],[80.6315,19.3069],[80.6541,19.3177],[80.6814,19.3285],[80.6935,19.3147],[80.6897,19.2869],[80.742,19.2869],[80.751,19.2869],[80.7527,19.2888],[80.7753,19.3144],[80.8528,19.3639],[80.8525,19.3642]]]}},{"type":"Feature","properties":{"district":"Raigarh","district_hi":"रायगढ़"},"geometry":{"type":"Polygon","coordinates":[[[83.2692,21.3779],[83.2218,21.3831],[83.218,21.3953],[83.2013,21.3995],[83.1882,21.3815],[83.1795,21.4025],[83.1428,21.3628],[83.13,21.3982],[83.1144,21.4117],[83.1227,21.4228],[83.0594,21.4359],[83.0465,21.4825],[83.0157,21.4904],[83.0147,21.472],[82.9988,21.4599],[82.9776,21.4779],[82.9659,21.4717],[82.953,21.4972],[82.934,21.4969],[82.9333,21.4966],[82.9229,21.5484],[82.9264,21.5536],[82.9343,21.5661],[82.9859,21.6484],[82.97,21.6923],[82.9503,21.692],[82.9489,21.7242],[83.033,21.7432],[83.0812,21.7156],[83.1709,21.7183],[83.316,21.6828],[83.3087,21.7055],[83.264,21.7156],[83.2664,21.7409],[83.2457,21.751],[83.237,21.7904],[83.2062,21.812],[83.2207,21.837],[83.1785,21.8507],[83.2145,21.8838],[83.2138,21.9075],[83.1868,21.9275],[83.1484,21.9153],[83.1345,21.9307],[83.1172,21.9311],[83.0909,21.9753],[83.0033,21.9652],[82.9953,21.9888],[83.0116,21.9865],[83.0216,22.0019],[83.0126,22.0111],[83.0168,22.0248],[83.0057,22.0288],[83.0323,22.0557],[83.0154,22.0547],[83.0154,22.0763],[82.9371,22.1229],[82.9368,22.1232],[82.9437,22.1475],[82.9607,22.1439],[82.9672,22.1639],[82.97,22.1642],[83.0303,22.1688],[83.0507,22.194],[83.0479,22.217],[83.0358,22.2347],[83.0299,22.239],[83.032,22.2406],[83.0611,22.2619],[83.0493,22.2806],[83.0805,22.3101],[83.0864,22.3485],[83.1092,22.3662],[83.1002,22.3823],[83.1134,22.4216],[83.0947,22.4272],[83.095,22.4606],[83.0864,22.4698],[83.086,22.4698],[83.1075,22.5187],[83.0926,22.5757],[83.0947,22.6338],[83.121,22.6531],[83.1189,22.6606],[83.1113,22.6702],[83.1103,22.6711],[83.1016,22.6826],[83.1248,22.7033],[83.1151,22.7256],[83.1522,22.7354],[83.1591,22.7734],[83.2183,22.7879],[83.2204,22.7885],[83.2183,22.7807],[83.2332,22.7833],[83.2457,22.7593],[83.2865,22.7695],[83.3156,22.7584],[83.3198,22.7662],[83.352,22.7295],[83.3724,22.7416],[83.3939,22.7347],[83.3921,22.6961],[83.388,22.6879],[83.3828,22.6898],[83.3772,22.6859],[83.3779,22.6793],[83.3835,22.657],[83.3845,22.6534],[83.3873,22.6515],[83.4091,22.6403],[83.4133,22.638],[83.4056,22.6265],[83.4036,22.6236],[83.3797,22.6187],[83.4271,22.6069],[83.4053,22.5859],[83.4004,22.5544],[83.4898,22.4921],[83.5126,22.5111],[83.5431,22.5164],[83.5677,22.5419],[83.5874,22.5396],[83.5958,22.5324],[83.5757,22.4596],[83.6325,22.4206],[83.6487,22.3914],[83.6903,22.376],[83.7377,22.3773],[83.7592,22.3259],[83.7956,22.3091],[83.8035,22.2944],[83.8032,22.2937],[83.7969,22.2862],[83.7949,22.2859],[83.7658,22.2498],[83.7575,22.2403],[83.7041,22.2465],[83.6972,22.2436],[83.6754,22.2344],[83.6498,22.2232],[83.6338,22.2094],[83.63,22.2058],[83.6273,22.2039],[83.6079,22.154],[83.6061,22.1517],[83.5629,22.1029],[83.5642,22.1016],[83.6065,22.0668],[83.6065,22.0665],[83.5899,22.0511],[83.5868,22.0491],[83.548,22.0593],[83.548,22.0589],[83.5428,22.0524],[83.5372,22.0448],[83.5372,22.0445],[83.5372,22.0425],[83.5393,22.0232],[83.5397,22.0209],[83.5556,22.0071],[83.5435,21.9943],[83.5393,21.9658],[83.5618,21.9481],[83.557,21.9353],[83.5906,21.9297],[83.6055,21.9137],[83.5777,21.8894],[83.5743,21.875],[83.5909,21.8511],[83.5795,21.8304],[83.5913,21.8248],[83.5455,21.8379],[83.5372,21.834],[83.5327,21.8297],[83.5338,21.8258],[83.5417,21.7986],[83.5417,21.7983],[83.4919,21.817],[83.4849,21.7933],[83.469,21.7874],[83.4818,21.7658],[83.4763,21.7517],[83.4908,21.7445],[83.4607,21.6976],[83.4323,21.6999],[83.4181,21.6799],[83.4867,21.6432],[83.4891,21.6304],[83.4888,21.6307],[83.4735,21.6323],[83.4659,21.6094],[83.4562,21.61],[83.4441,21.6238],[83.451,21.6507],[83.443,21.6556],[83.3828,21.6202],[83.3696,21.6002],[83.3727,21.5579],[83.3381,21.5012],[83.354,21.4481],[83.3731,21.4428],[83.3987,21.4051],[83.3966,21.3671],[83.4081,21.3585],[83.4046,21.3553],[83.3994,21.35],[83.3918,21.3425],[83.3831,21.3458],[83.379,21.3444],[83.2741,21.3769],[83.2741,21.3772],[83.272,21.3776],[83.2689,21.3785],[83.2692,21.3779]]]}},{"type":"Feature","properties":{"district":"Bilaspur","district_hi":"बिलासपुर"},"geometry":{"type":"Polygon","coordinates":[[[82.4582,22.2144],[82.4579,22.2108],[82.4568,22.1983],[82.4727,22.1904],[82.4703,22.1885],[82.4371,22.1649],[82.4222,22.138],[82.4222,22.1376],[82.3938,22.1281],[82.3581,22.1363],[82.3342,22.1062],[82.3367,22.0747],[82.3263,22.0501],[82.3325,22.0193],[82.3207,22.0019],[82.3301,21.9635],[82.3045,21.9081],[82.3155,21.9035],[82.3083,21.8979],[82.3152,21.8724],[82.3512,21.853],[82.3831,21.7609],[82.3841,21.7612],[82.4111,21.7642],[82.4302,21.7465],[82.4464,21.7448],[82.3921,21.7124],[82.3187,21.7166],[82.3135,21.7166],[82.311,21.7205],[82.2889,21.7527],[82.2006,21.7612],[82.1985,21.7648],[82.1926,21.776],[82.1826,21.7943],[82.1805,21.836],[82.1791,21.8429],[82.1587,21.8471],[82.123,21.8317],[82.0995,21.8553],[82.0974,21.8563],[82.0395,21.8822],[82.0371,21.8832],[82.0219,21.913],[82.0028,21.9166],[81.9866,21.9448],[81.9911,21.9688],[82.0115,21.9661],[82.0108,21.9691],[82.0049,21.9835],[81.9883,21.995],[81.9547,22.0035],[81.9641,22.0107],[81.9502,22.0186],[81.9499,22.0478],[81.9485,22.0491],[81.9412,22.0475],[81.9364,22.0583],[81.9076,22.0796],[81.9035,22.1071],[81.8903,22.1009],[81.8785,22.1262],[81.8685,22.1212],[81.8539,22.1501],[81.8224,22.1737],[81.8027,22.2222],[81.7971,22.2049],[81.794,22.2088],[81.766,22.2422],[81.7317,22.2501],[81.731,22.2501],[81.7313,22.2534],[81.7331,22.2642],[81.7338,22.2695],[81.7421,22.2678],[81.7438,22.3127],[81.7639,22.2904],[81.7746,22.3072],[81.7854,22.2875],[81.8242,22.2931],[81.8124,22.2777],[81.8228,22.2701],[81.8349,22.2868],[81.8626,22.2911],[81.8519,22.2957],[81.8529,22.3062],[81.8733,22.3219],[81.8972,22.3045],[81.9138,22.3118],[81.9152,22.2931],[81.926,22.294],[81.9388,22.3095],[81.9298,22.3154],[81.9353,22.339],[81.9253,22.3596],[81.9561,22.3409],[81.9765,22.36],[81.9474,22.4046],[81.9249,22.4124],[81.9017,22.4426],[81.8979,22.4554],[81.9111,22.4616],[81.9021,22.4816],[81.8408,22.5082],[81.8321,22.5337],[81.837,22.5705],[81.8259,22.5777],[81.7989,22.5629],[81.7833,22.5885],[81.7885,22.597],[81.7469,22.5915],[81.7507,22.6069],[81.741,22.6072],[81.7282,22.6344],[81.7369,22.6557],[81.7286,22.6702],[81.7289,22.6705],[81.7313,22.6741],[81.7324,22.6757],[81.7417,22.6741],[81.7521,22.6544],[81.7462,22.6488],[81.7545,22.6465],[81.7694,22.6728],[81.7521,22.7269],[81.7944,22.7666],[81.7836,22.7793],[81.7819,22.8108],[81.7615,22.8302],[81.7764,22.8518],[81.7757,22.8744],[81.8616,22.8892],[81.8695,22.8944],[81.8661,22.9158],[81.8782,22.9098],[81.919,22.9466],[81.9464,22.9567],[81.9505,22.983],[81.9215,23.041],[81.9294,23.0617],[81.9467,23.0692],[81.9422,23.079],[81.9911,23.0866],[82.0347,23.0804],[82.0731,23.1168],[82.123,23.1036],[82.1233,23.1033],[82.1739,23.0426],[82.1801,23.0341],[82.177,22.9702],[82.1999,22.9512],[82.2099,22.9489],[82.2158,22.9449],[82.2082,22.9259],[82.1341,22.8534],[82.1552,22.8387],[82.159,22.7875],[82.149,22.7416],[82.1663,22.7246],[82.1736,22.6705],[82.1971,22.6747],[82.202,22.6606],[82.2397,22.6531],[82.2335,22.5911],[82.2082,22.5964],[82.1562,22.5442],[82.1649,22.5246],[82.1379,22.4544],[82.168,22.4419],[82.1822,22.4101],[82.1649,22.3996],[82.167,22.3836],[82.1493,22.3842],[82.1535,22.3524],[82.1424,22.3341],[82.142,22.3331],[82.1476,22.3321],[82.2033,22.3118],[82.2158,22.3396],[82.2335,22.3285],[82.2681,22.3347],[82.2722,22.318],[82.2622,22.2983],[82.2882,22.2868],[82.311,22.299],[82.3256,22.3236],[82.3515,22.3275],[82.3789,22.3006],[82.4,22.3052],[82.4149,22.2809],[82.3966,22.2603],[82.4291,22.2465],[82.4364,22.2272],[82.4582,22.2144]]]}},{"type":"Feature","properties":{"district":"Sukma","district_hi":"सुकमा"},"geometry":{"type":"Polygon","coordinates":[[[81.1828,18.5412],[81.2185,18.515],[81.2227,18.5278],[81.2556,18.5238],[81.2583,18.4792],[81.2999,18.4566],[81.3054,18.4369],[81.3276,18.4389],[81.3335,18.4179],[81.3702,18.4173],[81.4096,18.3927],[81.428,18.4022],[81.4294,18.4212],[81.3934,18.4209],[81.3698,18.432],[81.383,18.4664],[81.3771,18.4887],[81.3941,18.4937],[81.4235,18.4799],[81.4432,18.4983],[81.4142,18.5143],[81.4145,18.5147],[81.4415,18.5406],[81.4304,18.5547],[81.4238,18.5553],[81.4211,18.5668],[81.4187,18.5763],[81.4183,18.5773],[81.4207,18.5799],[81.4342,18.5927],[81.446,18.5809],[81.4467,18.6061],[81.4467,18.6068],[81.4647,18.614],[81.4876,18.6235],[81.4883,18.6238],[81.5218,18.6045],[81.5437,18.6065],[81.5523,18.5835],[81.5402,18.5678],[81.5554,18.5602],[81.5599,18.5655],[81.5793,18.5996],[81.5797,18.6002],[81.5755,18.6022],[81.5471,18.615],[81.5464,18.6153],[81.5433,18.6288],[81.5423,18.6327],[81.5561,18.6579],[81.5423,18.674],[81.5454,18.6937],[81.5457,18.695],[81.5696,18.713],[81.5689,18.7396],[81.5689,18.7399],[81.5977,18.7343],[81.614,18.7507],[81.6157,18.7488],[81.6278,18.7353],[81.6285,18.7347],[81.6237,18.7088],[81.6638,18.6973],[81.6621,18.6884],[81.6572,18.6599],[81.6576,18.6596],[81.6732,18.6524],[81.6728,18.6524],[81.6562,18.6543],[81.6552,18.6543],[81.652,18.6133],[81.66,18.6074],[81.7068,18.614],[81.7653,18.5943],[81.767,18.5937],[81.7684,18.5943],[81.7868,18.6025],[81.8387,18.6265],[81.8726,18.6475],[81.874,18.6566],[81.8993,18.6609],[81.8993,18.6606],[81.8938,18.6576],[81.8948,18.6291],[81.9277,18.6199],[81.9637,18.5904],[81.9505,18.5701],[81.9107,18.5707],[81.9014,18.5488],[81.9093,18.5379],[81.8681,18.5248],[81.8546,18.4904],[81.7694,18.4189],[81.7504,18.3537],[81.659,18.3464],[81.6496,18.3369],[81.6621,18.3212],[81.5977,18.3091],[81.5644,18.2753],[81.5253,18.2582],[81.5305,18.2402],[81.507,18.1861],[81.5257,18.1533],[81.5132,18.1395],[81.5132,18.1002],[81.4806,18.0513],[81.4831,17.9769],[81.4491,17.932],[81.4446,17.8857],[81.4003,17.8936],[81.3996,17.892],[81.3944,17.8693],[81.4038,17.8529],[81.3892,17.83],[81.3892,17.829],[81.3916,17.8156],[81.3972,17.8185],[81.3934,17.7952],[81.393,17.7949],[81.3546,17.8133],[81.2652,17.811],[81.1662,17.8575],[81.0938,17.8093],[81.0855,17.7982],[81.0599,17.7877],[81.0267,17.7906],[81.0163,17.7949],[80.9965,17.849],[80.9983,17.9169],[80.9796,18.0067],[80.9657,18.0431],[80.9695,18.0477],[80.9491,18.0861],[80.9557,18.1323],[80.9789,18.1543],[80.9789,18.1654],[81.009,18.1697],[81.0083,18.1615],[81.0336,18.1563],[81.0741,18.1907],[81.0762,18.1923],[81.0741,18.1963],[81.0738,18.2317],[81.0447,18.2553],[81.0651,18.2959],[81.0647,18.2969],[81.0641,18.2999],[81.0592,18.3136],[81.0405,18.3418],[80.9806,18.3477],[80.9584,18.3687],[80.9359,18.3618],[80.9262,18.3769],[80.9158,18.3779],[80.9134,18.3799],[80.9155,18.3819],[80.9771,18.4192],[81.0222,18.4661],[81.0336,18.5343],[81.0873,18.5488],[81.1576,18.5314],[81.1707,18.5422],[81.1655,18.5527],[81.1828,18.5412]]]}},{"type":"Feature","properties":{"district":"Koriya","district_hi":"कोरिया"},"geometry":{"type":"Polygon","coordinates":[[[82.2158,22.9449],[82.2099,22.9489],[82.1999,22.9512],[82.177,22.9702],[82.1801,23.0341],[82.1739,23.0426],[82.1233,23.1033],[82.1247,23.1043],[82.1372,23.1118],[82.1396,23.1322],[82.1614,23.1433],[82.1604,23.1617],[82.1441,23.1653],[82.1538,23.2092],[82.1448,23.2273],[82.1673,23.2463],[82.1742,23.2689],[82.1929,23.2778],[82.1992,23.3138],[82.1919,23.3269],[82.1639,23.3348],[82.1459,23.3614],[82.1171,23.3555],[82.1033,23.3984],[82.0641,23.3928],[82.0558,23.3768],[82.0233,23.3869],[82.0219,23.3873],[82.024,23.4086],[82.0326,23.4099],[82.0253,23.425],[82.0094,23.4119],[81.9997,23.4217],[81.9859,23.4142],[81.9855,23.4145],[81.9852,23.4145],[81.9769,23.4237],[81.9803,23.447],[81.955,23.4673],[81.9578,23.5004],[81.9267,23.5276],[81.9208,23.5332],[81.9163,23.5338],[81.8758,23.5129],[81.8363,23.5109],[81.8207,23.5152],[81.8093,23.5493],[81.7584,23.5499],[81.7469,23.5696],[81.6995,23.522],[81.659,23.5289],[81.6624,23.5138],[81.6441,23.482],[81.6271,23.482],[81.6115,23.5125],[81.6101,23.5552],[81.5842,23.5535],[81.5766,23.5853],[81.5897,23.5961],[81.6119,23.5952],[81.6147,23.663],[81.6552,23.663],[81.6555,23.6821],[81.6839,23.6909],[81.696,23.7214],[81.6784,23.7394],[81.6818,23.7532],[81.6448,23.7703],[81.651,23.7998],[81.6458,23.8119],[81.6354,23.8345],[81.6112,23.8372],[81.6039,23.8598],[81.6216,23.8709],[81.6036,23.8847],[81.6039,23.885],[81.6098,23.904],[81.668,23.9254],[81.6874,23.9067],[81.6905,23.8847],[81.7075,23.8824],[81.7075,23.8611],[81.732,23.8568],[81.7255,23.8398],[81.8103,23.8083],[81.8193,23.808],[81.8321,23.8132],[81.8678,23.8342],[81.8858,23.8355],[81.8893,23.8368],[81.9215,23.8709],[81.9578,23.8522],[82.0077,23.8617],[82.044,23.8417],[82.0392,23.8263],[82.0818,23.8165],[82.1715,23.8181],[82.1808,23.8362],[82.2096,23.8529],[82.2116,23.8486],[82.2155,23.8411],[82.2068,23.8283],[82.2255,23.8201],[82.2314,23.8067],[82.2605,23.8214],[82.3346,23.8027],[82.3741,23.8119],[82.3934,23.8001],[82.4658,23.8119],[82.4973,23.785],[82.498,23.785],[82.498,23.7824],[82.5018,23.765],[82.5108,23.7591],[82.5295,23.7565],[82.5479,23.7542],[82.5489,23.7539],[82.5541,23.746],[82.5991,23.6788],[82.6016,23.6755],[82.6033,23.6617],[82.5746,23.6263],[82.5818,23.545],[82.5915,23.5355],[82.6417,23.5007],[82.6539,23.4584],[82.65,23.385],[82.6757,23.3702],[82.7484,23.3548],[82.7567,23.3027],[82.7467,23.2955],[82.7442,23.2686],[82.7723,23.2584],[82.6964,23.2446],[82.6642,23.2066],[82.6365,23.141],[82.6095,23.1446],[82.5766,23.1279],[82.5867,23.0987],[82.5836,23.084],[82.569,23.0754],[82.5863,23.0623],[82.5777,23.0515],[82.5953,23.0361],[82.595,23.0315],[82.6023,23.0236],[82.6061,23.024],[82.6047,23.0207],[82.6005,23.0079],[82.5981,23.0007],[82.5971,23.0003],[82.5815,22.9964],[82.5867,22.982],[82.5732,22.9613],[82.5687,22.9705],[82.5638,22.9748],[82.4554,22.9669],[82.416,22.9744],[82.4108,22.9892],[82.3844,23.0],[82.345,22.9918],[82.3263,22.9669],[82.2833,22.96],[82.2587,22.938],[82.2158,22.9449]]]}},{"type":"Feature","properties":{"district":"Jashpur","district_hi":"जशपुर"},"geometry":{"type":"Polygon","coordinates":[[[83.8032,22.2937],[83.8035,22.2944],[83.7956,22.3091],[83.7592,22.3259],[83.7377,22.3773],[83.6903,22.376],[83.6487,22.3914],[83.6325,22.4206],[83.5757,22.4596],[83.5958,22.5324],[83.5874,22.5396],[83.5677,22.5419],[83.5431,22.5164],[83.5126,22.5111],[83.4898,22.4921],[83.4004,22.5544],[83.4053,22.5859],[83.4271,22.6069],[83.3797,22.6187],[83.4036,22.6236],[83.4056,22.6265],[83.4133,22.638],[83.4091,22.6403],[83.4167,22.6429],[83.4167,22.6433],[83.4095,22.658],[83.4288,22.662],[83.4344,22.6747],[83.4347,22.6747],[83.5061,22.659],[83.5057,22.6715],[83.5507,22.6961],[83.6383,22.6597],[83.6425,22.658],[83.6512,22.6459],[83.6702,22.6259],[83.6764,22.6318],[83.6906,22.6682],[83.6903,22.6685],[83.629,22.7121],[83.6304,22.7279],[83.6567,22.7485],[83.6474,22.7603],[83.6584,22.7767],[83.646,22.8266],[83.6287,22.8259],[83.6235,22.842],[83.5951,22.8489],[83.5954,22.8692],[83.5784,22.8702],[83.5694,22.8905],[83.5334,22.9144],[83.504,22.9518],[83.504,22.9521],[83.512,22.9846],[83.5487,23.0315],[83.5248,23.059],[83.4998,23.0646],[83.5002,23.0649],[83.5258,23.1053],[83.5355,23.1204],[83.5452,23.1227],[83.559,23.1348],[83.5615,23.1436],[83.5584,23.1561],[83.5518,23.1686],[83.5549,23.1695],[83.5694,23.1748],[83.5753,23.1941],[83.5753,23.1945],[83.602,23.1912],[83.6027,23.1912],[83.6248,23.2194],[83.6401,23.2246],[83.6602,23.2289],[83.7007,23.225],[83.6986,23.2125],[83.7111,23.2105],[83.7128,23.2102],[83.7232,23.2141],[83.7263,23.2338],[83.7481,23.2437],[83.7796,23.2253],[83.7907,23.2512],[83.8267,23.2433],[83.8783,23.2122],[83.8853,23.1882],[83.9265,23.1679],[83.9261,23.1505],[83.9441,23.1541],[83.9441,23.16],[83.9673,23.1725],[83.9677,23.1905],[83.9947,23.1892],[83.9992,23.1859],[84.0116,23.1886],[84.0203,23.1879],[84.0383,23.1712],[84.0383,23.1676],[84.0376,23.1495],[84.0632,23.1135],[84.0934,23.1125],[84.1335,23.0833],[84.1252,23.0371],[84.1495,22.9656],[84.1782,22.9797],[84.1754,23.0099],[84.1858,23.0272],[84.2018,23.021],[84.2004,23.0063],[84.2191,22.9787],[84.2426,22.9833],[84.2534,22.9721],[84.2772,22.9931],[84.2838,22.9649],[84.3282,22.982],[84.3746,22.979],[84.3763,22.9744],[84.3964,22.9272],[84.377,22.9062],[84.3832,22.8935],[84.3794,22.8836],[84.3732,22.8669],[84.3725,22.8653],[84.3718,22.8653],[84.3361,22.8623],[84.3243,22.8512],[84.315,22.8007],[84.298,22.7944],[84.2914,22.7734],[84.2939,22.7728],[84.2901,22.7685],[84.2894,22.7662],[84.288,22.7662],[84.2599,22.7675],[84.2322,22.74],[84.2381,22.6918],[84.2201,22.6672],[84.2,22.6665],[84.1526,22.6367],[84.084,22.638],[84.0529,22.5957],[84.0245,22.5918],[84.0096,22.5731],[84.0089,22.5337],[84.012,22.5275],[84.0089,22.5285],[83.9971,22.5311],[83.976,22.5147],[83.9767,22.5134],[83.9777,22.5101],[83.9801,22.5023],[84.0473,22.4691],[84.0473,22.4383],[84.0134,22.3973],[84.0106,22.3714],[83.9233,22.3583],[83.8904,22.3363],[83.8641,22.3432],[83.8382,22.3245],[83.8219,22.3131],[83.8215,22.3127],[83.8233,22.3068],[83.8264,22.2934],[83.8118,22.2895],[83.8094,22.2891],[83.8032,22.2937]]]}},{"type":"Feature","properties":{"district":"Korba","district_hi":"कोरबा"},"geometry":{"type":"Polygon","coordinates":[[[82.9371,22.1229],[82.9368,22.1222],[82.9018,22.1383],[82.8921,22.1626],[82.8613,22.1714],[82.8526,22.1586],[82.8225,22.154],[82.7965,22.1412],[82.7993,22.1304],[82.7584,22.1176],[82.757,22.0983],[82.7314,22.0855],[82.7404,22.0399],[82.7221,22.0396],[82.6985,22.0891],[82.6698,22.0812],[82.6397,22.1147],[82.6383,22.1321],[82.6653,22.1878],[82.6424,22.2121],[82.6449,22.2386],[82.596,22.2622],[82.5936,22.2629],[82.5825,22.2304],[82.5462,22.2081],[82.5216,22.2495],[82.5171,22.2511],[82.4908,22.2462],[82.4599,22.2134],[82.4582,22.2144],[82.4364,22.2272],[82.4291,22.2465],[82.3966,22.2603],[82.4149,22.2809],[82.4,22.3052],[82.3789,22.3006],[82.3515,22.3275],[82.3256,22.3236],[82.311,22.299],[82.2882,22.2868],[82.2622,22.2983],[82.2722,22.318],[82.2681,22.3347],[82.2335,22.3285],[82.2158,22.3396],[82.2033,22.3118],[82.1476,22.3321],[82.142,22.3331],[82.1424,22.3341],[82.1535,22.3524],[82.1493,22.3842],[82.167,22.3836],[82.1649,22.3996],[82.1822,22.4101],[82.168,22.4419],[82.1379,22.4544],[82.1649,22.5246],[82.1562,22.5442],[82.2082,22.5964],[82.2335,22.5911],[82.2397,22.6531],[82.202,22.6606],[82.1971,22.6747],[82.1736,22.6705],[82.1663,22.7246],[82.149,22.7416],[82.159,22.7875],[82.1552,22.8387],[82.1341,22.8534],[82.2082,22.9259],[82.2158,22.9449],[82.2587,22.938],[82.2833,22.96],[82.3263,22.9669],[82.345,22.9918],[82.3844,23.0],[82.4108,22.9892],[82.416,22.9744],[82.4554,22.9669],[82.5638,22.9748],[82.5687,22.9705],[82.5732,22.9613],[82.56,22.9574],[82.5728,22.9489],[82.5728,22.9148],[82.5929,22.898],[82.5746,22.8971],[82.568,22.8672],[82.5624,22.8649],[82.5593,22.8561],[82.5711,22.8298],[82.5985,22.8325],[82.6511,22.8092],[82.7127,22.8338],[82.7577,22.7977],[82.7681,22.7895],[82.7678,22.7895],[82.7647,22.781],[82.7654,22.7803],[82.7661,22.7797],[82.8315,22.7443],[82.8318,22.7443],[82.8748,22.7466],[82.9409,22.6783],[82.9901,22.6656],[83.0136,22.6387],[83.0649,22.6692],[83.1103,22.6711],[83.1113,22.6702],[83.1189,22.6606],[83.121,22.6531],[83.0947,22.6338],[83.0926,22.5757],[83.1075,22.5187],[83.086,22.4698],[83.0864,22.4698],[83.095,22.4606],[83.0947,22.4272],[83.1134,22.4216],[83.1002,22.3823],[83.1092,22.3662],[83.0864,22.3485],[83.0805,22.3101],[83.0493,22.2806],[83.0611,22.2619],[83.032,22.2406],[83.0299,22.239],[83.0358,22.2347],[83.0479,22.217],[83.0507,22.194],[83.0303,22.1688],[82.97,22.1642],[82.9672,22.1639],[82.9607,22.1439],[82.9437,22.1475],[82.9368,22.1232],[82.9371,22.1229]]]}},{"type":"Feature","properties":{"district":"Surajpur","district_hi":"सूरजपुर"},"geometry":{"type":"Polygon","coordinates":[[[82.5732,22.9613],[82.5867,22.982],[82.5815,22.9964],[82.5971,23.0003],[82.5981,23.0007],[82.6005,23.0079],[82.6047,23.0207],[82.6061,23.024],[82.6023,23.0236],[82.595,23.0315],[82.5953,23.0361],[82.5777,23.0515],[82.5863,23.0623],[82.569,23.0754],[82.5836,23.084],[82.5867,23.0987],[82.5766,23.1279],[82.6095,23.1446],[82.6365,23.141],[82.6642,23.2066],[82.6964,23.2446],[82.7723,23.2584],[82.7442,23.2686],[82.7467,23.2955],[82.7567,23.3027],[82.7484,23.3548],[82.6757,23.3702],[82.65,23.385],[82.6539,23.4584],[82.6417,23.5007],[82.5915,23.5355],[82.5818,23.545],[82.5746,23.6263],[82.6033,23.6617],[82.6016,23.6755],[82.5991,23.6788],[82.5541,23.746],[82.5489,23.7539],[82.5479,23.7542],[82.5295,23.7565],[82.5108,23.7591],[82.5018,23.765],[82.498,23.7824],[82.498,23.785],[82.5243,23.7837],[82.5309,23.7886],[82.5514,23.7906],[82.533,23.8221],[82.5888,23.8214],[82.6352,23.8378],[82.6469,23.8591],[82.6604,23.8552],[82.6684,23.8719],[82.6521,23.8916],[82.6615,23.9077],[82.6843,23.9103],[82.693,23.9191],[82.6954,23.9136],[82.6926,23.905],[82.7048,23.8909],[82.7345,23.8919],[82.7432,23.8811],[82.7712,23.8772],[82.782,23.8178],[82.8173,23.8158],[82.845,23.7673],[82.863,23.7981],[82.916,23.8014],[82.9184,23.7939],[82.9025,23.785],[82.9087,23.7739],[82.9943,23.7676],[82.9991,23.7919],[83.013,23.8034],[83.0268,23.7991],[83.0355,23.7788],[83.0736,23.7824],[83.0646,23.7699],[83.0684,23.7549],[83.0815,23.7506],[83.0929,23.7293],[83.1324,23.7096],[83.1636,23.7027],[83.2062,23.7227],[83.2103,23.6994],[83.1979,23.6853],[83.2096,23.6542],[83.202,23.6122],[83.2117,23.6093],[83.2003,23.5952],[83.2107,23.5866],[83.201,23.5568],[83.2287,23.5617],[83.2273,23.5781],[83.2792,23.5775],[83.2692,23.5509],[83.237,23.5417],[83.2387,23.5155],[83.3035,23.5115],[83.3329,23.5237],[83.3423,23.5152],[83.334,23.5007],[83.3049,23.504],[83.3025,23.4873],[83.3108,23.4683],[83.3489,23.4699],[83.3672,23.4204],[83.3644,23.4092],[83.3502,23.4106],[83.3419,23.424],[83.3045,23.4296],[83.3063,23.4017],[83.3315,23.3974],[83.3267,23.3742],[83.3066,23.3892],[83.3014,23.3771],[83.2363,23.4017],[83.2318,23.4033],[83.2086,23.3787],[83.2076,23.3774],[83.2069,23.3771],[83.2034,23.322],[83.2145,23.3001],[83.21,23.2676],[83.1979,23.2699],[83.2086,23.2456],[83.246,23.2315],[83.2467,23.2312],[83.2429,23.22],[83.2152,23.2223],[83.1923,23.205],[83.1767,23.2177],[83.1781,23.2315],[83.1639,23.2151],[83.138,23.2141],[83.1331,23.1771],[83.1594,23.1659],[83.149,23.1584],[83.1601,23.1499],[83.1518,23.1089],[83.1283,23.1086],[83.1161,23.1377],[83.1009,23.1289],[83.0275,23.1266],[83.0317,23.1],[83.0123,23.0938],[82.9988,23.0712],[82.9738,23.0676],[82.9565,23.0958],[82.9413,23.0886],[82.9229,23.1154],[82.8637,23.1092],[82.8519,23.0669],[82.8945,23.0682],[82.9198,23.0813],[82.9247,23.0472],[82.8987,23.0367],[82.899,23.0256],[82.8834,23.0305],[82.8308,23.0154],[82.8336,23.0033],[82.8523,23.002],[82.8523,22.9882],[82.8523,22.9876],[82.8218,22.9407],[82.7986,22.942],[82.7927,22.9328],[82.7955,22.8862],[82.7886,22.8705],[82.7671,22.8748],[82.7723,22.8633],[82.7557,22.8436],[82.7647,22.8325],[82.7577,22.7977],[82.7127,22.8338],[82.6511,22.8092],[82.5985,22.8325],[82.5711,22.8298],[82.5593,22.8561],[82.5624,22.8649],[82.568,22.8672],[82.5746,22.8971],[82.5929,22.898],[82.5728,22.9148],[82.5728,22.9489],[82.56,22.9574],[82.5732,22.9613]]]}},{"type":"Feature","properties":{"district":"Surguja","district_hi":"सरगुजा"},"geometry":{"type":"Polygon","coordinates":[[[83.4091,22.6403],[83.3873,22.6515],[83.3845,22.6534],[83.3835,22.657],[83.3779,22.6793],[83.3772,22.6859],[83.3828,22.6898],[83.388,22.6879],[83.3921,22.6961],[83.3939,22.7347],[83.3724,22.7416],[83.352,22.7295],[83.3198,22.7662],[83.3156,22.7584],[83.2865,22.7695],[83.2457,22.7593],[83.2332,22.7833],[83.2183,22.7807],[83.2204,22.7885],[83.2183,22.7879],[83.1591,22.7734],[83.1522,22.7354],[83.1151,22.7256],[83.1248,22.7033],[83.1016,22.6826],[83.1103,22.6711],[83.0649,22.6692],[83.0136,22.6387],[82.9901,22.6656],[82.9409,22.6783],[82.8748,22.7466],[82.8318,22.7443],[82.8315,22.7443],[82.7661,22.7797],[82.7654,22.7803],[82.7647,22.781],[82.7678,22.7895],[82.7681,22.7895],[82.7577,22.7977],[82.7647,22.8325],[82.7557,22.8436],[82.7723,22.8633],[82.7671,22.8748],[82.7886,22.8705],[82.7955,22.8862],[82.7927,22.9328],[82.7986,22.942],[82.8218,22.9407],[82.8523,22.9876],[82.8523,22.9882],[82.8523,23.002],[82.8336,23.0033],[82.8308,23.0154],[82.8834,23.0305],[82.899,23.0256],[82.8987,23.0367],[82.9247,23.0472],[82.9198,23.0813],[82.8945,23.0682],[82.8519,23.0669],[82.8637,23.1092],[82.9229,23.1154],[82.9413,23.0886],[82.9565,23.0958],[82.9738,23.0676],[82.9988,23.0712],[83.0123,23.0938],[83.0317,23.1],[83.0275,23.1266],[83.1009,23.1289],[83.1161,23.1377],[83.1283,23.1086],[83.1518,23.1089],[83.1601,23.1499],[83.149,23.1584],[83.1594,23.1659],[83.1331,23.1771],[83.138,23.2141],[83.1639,23.2151],[83.1781,23.2315],[83.1767,23.2177],[83.1923,23.205],[83.2152,23.2223],[83.2429,23.22],[83.2467,23.2312],[83.246,23.2315],[83.247,23.2361],[83.264,23.2335],[83.3298,23.1794],[83.354,23.1728],[83.3682,23.2155],[83.353,23.2204],[83.3852,23.2482],[83.3648,23.2617],[83.3928,23.2699],[83.4261,23.2545],[83.477,23.2584],[83.4797,23.2486],[83.5206,23.2446],[83.5165,23.2348],[83.5341,23.2217],[83.5313,23.2014],[83.5455,23.205],[83.5549,23.1695],[83.5518,23.1686],[83.5584,23.1561],[83.5615,23.1436],[83.559,23.1348],[83.5452,23.1227],[83.5355,23.1204],[83.5258,23.1053],[83.5002,23.0649],[83.4998,23.0646],[83.5248,23.059],[83.5487,23.0315],[83.512,22.9846],[83.504,22.9521],[83.504,22.9518],[83.5334,22.9144],[83.5694,22.8905],[83.5784,22.8702],[83.5954,22.8692],[83.5951,22.8489],[83.6235,22.842],[83.6287,22.8259],[83.646,22.8266],[83.6584,22.7767],[83.6474,22.7603],[83.6567,22.7485],[83.6304,22.7279],[83.629,22.7121],[83.6903,22.6685],[83.6906,22.6682],[83.6764,22.6318],[83.6702,22.6259],[83.6512,22.6459],[83.6425,22.658],[83.6383,22.6597],[83.5507,22.6961],[83.5057,22.6715],[83.5061,22.659],[83.4347,22.6747],[83.4344,22.6747],[83.4288,22.662],[83.4095,22.658],[83.4167,22.6433],[83.4167,22.6429],[83.4091,22.6403]]]}},{"type":"Feature","properties":{"district":"Balrampur","district_hi":"बलरामपुर"},"geometry":{"type":"Polygon","coordinates":[[[84.0383,23.1712],[84.0203,23.1879],[84.0116,23.1886],[83.9992,23.1859],[83.9947,23.1892],[83.9677,23.1905],[83.9673,23.1725],[83.9441,23.16],[83.9441,23.1541],[83.9261,23.1505],[83.9265,23.1679],[83.8853,23.1882],[83.8783,23.2122],[83.8267,23.2433],[83.7907,23.2512],[83.7796,23.2253],[83.7481,23.2437],[83.7263,23.2338],[83.7232,23.2141],[83.7128,23.2102],[83.7111,23.2105],[83.6986,23.2125],[83.7007,23.225],[83.6602,23.2289],[83.6401,23.2246],[83.6248,23.2194],[83.6027,23.1912],[83.602,23.1912],[83.5753,23.1945],[83.5753,23.1941],[83.5694,23.1748],[83.5549,23.1695],[83.5455,23.205],[83.5313,23.2014],[83.5341,23.2217],[83.5165,23.2348],[83.5206,23.2446],[83.4797,23.2486],[83.477,23.2584],[83.4261,23.2545],[83.3928,23.2699],[83.3648,23.2617],[83.3852,23.2482],[83.353,23.2204],[83.3682,23.2155],[83.354,23.1728],[83.3298,23.1794],[83.264,23.2335],[83.247,23.2361],[83.246,23.2315],[83.2086,23.2456],[83.1979,23.2699],[83.21,23.2676],[83.2145,23.3001],[83.2034,23.322],[83.2069,23.3771],[83.2076,23.3774],[83.2086,23.3787],[83.2318,23.4033],[83.2363,23.4017],[83.3014,23.3771],[83.3066,23.3892],[83.3267,23.3742],[83.3315,23.3974],[83.3063,23.4017],[83.3045,23.4296],[83.3419,23.424],[83.3502,23.4106],[83.3644,23.4092],[83.3672,23.4204],[83.3489,23.4699],[83.3108,23.4683],[83.3025,23.4873],[83.3049,23.504],[83.334,23.5007],[83.3423,23.5152],[83.3329,23.5237],[83.3035,23.5115],[83.2387,23.5155],[83.237,23.5417],[83.2692,23.5509],[83.2792,23.5775],[83.2273,23.5781],[83.2287,23.5617],[83.201,23.5568],[83.2107,23.5866],[83.2003,23.5952],[83.2117,23.6093],[83.202,23.6122],[83.2096,23.6542],[83.1979,23.6853],[83.2103,23.6994],[83.2062,23.7227],[83.1636,23.7027],[83.1324,23.7096],[83.0929,23.7293],[83.0815,23.7506],[83.0684,23.7549],[83.0646,23.7699],[83.0736,23.7824],[83.0355,23.7788],[83.0268,23.7991],[83.013,23.8034],[82.9991,23.7919],[82.9943,23.7676],[82.9087,23.7739],[82.9025,23.785],[82.9184,23.7939],[82.916,23.8014],[82.863,23.7981],[82.845,23.7673],[82.8173,23.8158],[82.782,23.8178],[82.7712,23.8772],[82.7432,23.8811],[82.7345,23.8919],[82.7048,23.8909],[82.6926,23.905],[82.6954,23.9136],[82.693,23.9191],[82.6989,23.925],[82.7522,23.9198],[82.7543,23.9342],[82.7834,23.9404],[82.7889,23.9447],[82.8017,23.9618],[82.8097,23.9618],[82.8121,23.9621],[82.8125,23.9598],[82.8318,23.9575],[82.8848,23.909],[82.9271,23.8922],[82.9479,23.8716],[83.0417,23.8788],[83.067,23.8752],[83.0881,23.8719],[83.0912,23.8716],[83.1414,23.885],[83.1594,23.9073],[83.2079,23.9214],[83.2235,23.9867],[83.2425,23.9972],[83.2425,24.0116],[83.2792,24.0182],[83.282,24.0496],[83.3215,24.106],[83.327,24.1024],[83.3302,24.1021],[83.3876,24.1001],[83.4067,24.0805],[83.4316,24.086],[83.4514,24.0427],[83.5158,24.0273],[83.5237,24.0113],[83.5154,23.9808],[83.5473,23.9375],[83.5535,23.8981],[83.5857,23.8863],[83.5712,23.8621],[83.6595,23.8493],[83.6643,23.8276],[83.7052,23.8208],[83.7215,23.7716],[83.7377,23.7604],[83.746,23.7194],[83.7228,23.686],[83.7609,23.6516],[83.7519,23.6388],[83.7751,23.6221],[83.7751,23.6099],[83.8008,23.602],[83.8073,23.5876],[83.8153,23.5961],[83.9375,23.5689],[83.932,23.6204],[84.0165,23.6345],[84.0151,23.6325],[84.0099,23.6257],[84.03,23.6001],[84.0279,23.5456],[84.0148,23.5037],[83.9711,23.467],[83.9815,23.4224],[83.9625,23.3853],[83.9732,23.3656],[84.0068,23.3551],[84.0231,23.3781],[84.0487,23.3748],[84.0511,23.3745],[84.0539,23.3525],[84.0743,23.3335],[84.0747,23.3332],[84.074,23.3322],[84.066,23.2978],[84.0674,23.2941],[84.0535,23.2473],[84.0632,23.2059],[84.0383,23.1712]]]}}]}