{"type":"FeatureCollection","features":[{"type":"Feature","properties":{"district":"Delhi","district_hi":"दिल्ली"},"geometry":{"type":"Polygon","coordinates":[[[77.228,28.7699],[77.2355,28.7609],[77.2563,28.7563],[77.2607,28.7342],[77.2765,28.7355],[77.2908,28.7225],[77.2895,28.7089],[77.2895,28.7076],[77.2913,28.7078],[77.2983,28.7087],[77.331,28.7131],[77.3232,28.6986],[77.3328,28.6819],[77.3235,28.6766],[77.3162,28.6413],[77.3424,28.622],[77.3422,28.6097],[77.3404,28.6088],[77.3134,28.5965],[77.2978,28.5671],[77.297,28.566],[77.2988,28.5645],[77.3474,28.5206],[77.337,28.5055],[77.3141,28.4837],[77.2903,28.4965],[77.2537,28.4828],[77.2433,28.4789],[77.2412,28.4745],[77.2329,28.4578],[77.2462,28.4528],[77.2467,28.4512],[77.2488,28.4297],[77.2306,28.4159],[77.2238,28.4128],[77.2062,28.41],[77.1844,28.4104],[77.1764,28.4049],[77.1745,28.4047],[77.166,28.4258],[77.1634,28.4269],[77.1237,28.4453],[77.111,28.4714],[77.1188,28.4888],[77.1206,28.4962],[77.0972,28.509],[77.0913,28.5123],[77.0806,28.518],[77.0466,28.5166],[77.0072,28.5412],[77.0072,28.541],[77.0004,28.532],[77.016,28.5217],[77.0103,28.5147],[76.9781,28.5213],[76.9498,28.5046],[76.9081,28.5138],[76.8847,28.503],[76.8795,28.5048],[76.887,28.5206],[76.8453,28.5502],[76.8396,28.5825],[76.8642,28.5858],[76.8883,28.6319],[76.9062,28.6238],[76.9203,28.6314],[76.9345,28.6183],[76.9348,28.6187],[76.9371,28.6211],[76.9436,28.6281],[76.9428,28.6295],[76.9249,28.6499],[76.935,28.6674],[76.9535,28.6672],[76.9535,28.6674],[76.9719,28.6975],[76.9483,28.7129],[76.96,28.7328],[76.9446,28.7541],[76.9558,28.7673],[76.9537,28.791],[76.9537,28.7912],[76.9532,28.7912],[76.9421,28.7985],[76.9517,28.818],[76.9677,28.8125],[76.9662,28.8255],[76.9667,28.8272],[76.9797,28.8213],[76.9799,28.8215],[76.9802,28.8215],[76.9942,28.8386],[76.9971,28.8391],[77.0399,28.8318],[77.0578,28.8678],[77.0746,28.8676],[77.0827,28.8836],[77.1208,28.8584],[77.1403,28.8621],[77.1424,28.8388],[77.1437,28.8386],[77.1551,28.8371],[77.1572,28.8366],[77.1572,28.8369],[77.1753,28.8584],[77.2161,28.8527],[77.2176,28.8496],[77.2226,28.8314],[77.2189,28.8083],[77.2015,28.8123],[77.2026,28.7932],[77.2078,28.7917],[77.2342,28.7838],[77.2218,28.7774],[77.2277,28.7704],[77.228,28.7699]]]}}]}