{"type":"FeatureCollection","features":[{"type":"Feature","properties":{"district":"Dadra and Nagar Haveli","district_hi":"दादरा और नगर हवेली"},"geometry":{"type":"MultiPolygon","coordinates":[[[[72.7326,19.4672],[72.7369,19.4659],[72.7329,19.4592],[72.7326,19.4672]]],[[[72.9629,20.3048],[72.953,20.315],[72.9617,20.3322],[72.9804,20.3242],[72.982,20.3211],[72.974,20.303],[72.9707,20.2976],[72.9629,20.3048]]],[[[72.9627,20.2086],[72.9632,20.2086],[72.9594,20.2274],[72.958,20.2341],[72.9264,20.251],[72.9137,20.2713],[72.932,20.2947],[72.9719,20.2702],[72.9721,20.2709],[72.9813,20.2898],[73.0101,20.2912],[73.0077,20.3124],[73.0171,20.309],[73.0162,20.2936],[73.0346,20.2914],[73.0426,20.3251],[73.0777,20.3228],[73.0968,20.3596],[73.1119,20.3369],[73.1015,20.3028],[73.1515,20.3173],[73.1661,20.3095],[73.1671,20.2885],[73.1581,20.2802],[73.1456,20.2865],[73.1425,20.2738],[73.098,20.2392],[73.098,20.2276],[73.0706,20.2318],[73.0655,20.2276],[73.0622,20.2249],[73.0603,20.2234],[73.052,20.2062],[73.0494,20.2006],[73.0492,20.2002],[73.0598,20.1939],[73.0643,20.16],[73.0645,20.1587],[73.0739,20.1555],[73.0796,20.1732],[73.1159,20.1522],[73.1194,20.168],[73.1421,20.1772],[73.1352,20.1993],[73.1369,20.2046],[73.1574,20.1984],[73.1685,20.2082],[73.1781,20.1926],[73.192,20.1973],[73.218,20.1859],[73.2083,20.1667],[73.2008,20.1631],[73.1899,20.1642],[73.1897,20.1576],[73.188,20.129],[73.188,20.1286],[73.2107,20.1205],[73.2107,20.0857],[73.1892,20.0773],[73.1923,20.0496],[73.1661,20.0547],[73.1371,20.086],[73.1121,20.0741],[73.1036,20.0895],[73.0643,20.0984],[73.0558,20.0989],[73.0556,20.0955],[73.0527,20.0645],[73.044,20.0661],[73.0013,20.1116],[73.0082,20.127],[73.0103,20.1317],[73.0115,20.1346],[72.9983,20.1428],[72.9919,20.1174],[72.9888,20.1165],[72.9754,20.115],[72.9665,20.1239],[72.9646,20.127],[72.9775,20.1794],[72.9617,20.1848],[72.9617,20.1874],[72.9627,20.2086]],[[72.9877,20.2155],[72.9933,20.2155],[73.0016,20.2158],[73.0039,20.2249],[73.0053,20.2305],[73.0058,20.2318],[73.0023,20.2321],[72.9839,20.2336],[72.9794,20.2341],[72.9794,20.2296],[72.9749,20.2256],[72.9794,20.222],[72.9794,20.2155],[72.9877,20.2155]]]]}},{"type":"Feature","properties":{"district":"Daman","district_hi":"दमन"},"geometry":{"type":"Polygon","coordinates":[[[72.8865,20.4622],[72.8955,20.4442],[72.875,20.4455],[72.8573,20.4188],[72.899,20.4154],[72.9005,20.4121],[72.8828,20.3978],[72.896,20.3793],[72.896,20.3788],[72.8564,20.373],[72.8361,20.3732],[72.829,20.3688],[72.8212,20.3677],[72.8366,20.4533],[72.8552,20.4674],[72.8865,20.4622]]]}},{"type":"Feature","properties":{"district":"Diu","district_hi":"दीव"},"geometry":{"type":"MultiPolygon","coordinates":[[[[70.9201,20.7426],[70.9215,20.742],[70.9307,20.7368],[70.9385,20.7324],[70.9604,20.7366],[70.9807,20.7226],[70.981,20.7228],[70.9963,20.7386],[70.9996,20.7417],[71.0074,20.7373],[70.9876,20.7226],[70.997,20.7134],[70.9769,20.702],[70.9291,20.7121],[70.8994,20.6996],[70.8761,20.7092],[70.885,20.7257],[70.9157,20.7328],[70.9201,20.7426]]],[[[71.1521,20.7591],[71.1514,20.7634],[71.1537,20.76],[71.1521,20.7591]]]]}}]}