{"type":"FeatureCollection","features":[{"type":"Feature","properties":{"district":"Jhajjar","district_hi":"झज्जर"},"geometry":{"type":"Polygon","coordinates":[[[76.8835,28.809],[76.8914,28.7979],[76.8939,28.7979],[76.9095,28.7982],[76.9318,28.7984],[76.9421,28.7984],[76.9531,28.7914],[76.9538,28.7911],[76.9559,28.7673],[76.9446,28.7541],[76.9599,28.7327],[76.9483,28.7127],[76.9718,28.6976],[76.9534,28.6676],[76.9534,28.6673],[76.9351,28.6676],[76.925,28.65],[76.9428,28.6295],[76.9437,28.6281],[76.9373,28.6211],[76.9348,28.6187],[76.9345,28.6184],[76.9202,28.6314],[76.9061,28.6238],[76.8884,28.6319],[76.8643,28.5857],[76.8395,28.5824],[76.8453,28.5503],[76.8872,28.5205],[76.8795,28.5049],[76.8847,28.503],[76.8737,28.4981],[76.8242,28.5046],[76.8108,28.4751],[76.7928,28.4648],[76.7696,28.4781],[76.7595,28.4597],[76.7418,28.4703],[76.7042,28.4927],[76.7177,28.4367],[76.7079,28.4002],[76.7351,28.3751],[76.7195,28.3551],[76.6865,28.3705],[76.677,28.3748],[76.6688,28.3786],[76.666,28.38],[76.6511,28.3986],[76.6275,28.424],[76.6184,28.4278],[76.5836,28.437],[76.5607,28.4046],[76.5524,28.4075],[76.5622,28.4292],[76.5136,28.4365],[76.4541,28.4181],[76.4397,28.4243],[76.4406,28.4562],[76.4012,28.4719],[76.3701,28.4708],[76.3646,28.4551],[76.316,28.4667],[76.3041,28.4694],[76.2928,28.4689],[76.2916,28.4724],[76.2852,28.474],[76.2873,28.4827],[76.2913,28.4986],[76.327,28.4959],[76.3423,28.5608],[76.334,28.5824],[76.3426,28.58],[76.3569,28.6168],[76.3731,28.5997],[76.4012,28.5954],[76.4015,28.5954],[76.4095,28.5511],[76.4211,28.5511],[76.4327,28.5984],[76.4327,28.5995],[76.4483,28.5984],[76.4654,28.6141],[76.4379,28.6411],[76.4663,28.6527],[76.4806,28.6803],[76.4339,28.6973],[76.4223,28.7008],[76.422,28.7017],[76.4153,28.7235],[76.4556,28.7363],[76.4709,28.7411],[76.5231,28.7376],[76.5301,28.7511],[76.5784,28.7349],[76.5894,28.7476],[76.5946,28.7541],[76.604,28.7922],[76.6266,28.7892],[76.6453,28.8041],[76.6327,28.8263],[76.6315,28.8282],[76.6407,28.836],[76.644,28.839],[76.6447,28.8398],[76.6462,28.8368],[76.6697,28.8133],[76.6706,28.796],[76.7088,28.7871],[76.7082,28.7687],[76.6929,28.7636],[76.6868,28.7436],[76.6993,28.7357],[76.7085,28.736],[76.7155,28.7587],[76.7406,28.7568],[76.7571,28.7692],[76.7794,28.743],[76.834,28.8103],[76.8499,28.8076],[76.8695,28.8238],[76.8835,28.809]]]}},{"type":"Feature","properties":{"district":"Gurugram","district_hi":"गुरुग्राम"},"geometry":{"type":"Polygon","coordinates":[[[76.6688,28.3786],[76.677,28.3748],[76.6865,28.3705],[76.7195,28.3551],[76.7351,28.3751],[76.7079,28.4002],[76.7177,28.4367],[76.7042,28.4927],[76.7418,28.4703],[76.7595,28.4597],[76.7696,28.4781],[76.7928,28.4648],[76.8108,28.4751],[76.8242,28.5046],[76.8737,28.4981],[76.8847,28.503],[76.9079,28.5138],[76.9498,28.5046],[76.9782,28.5213],[77.0103,28.5146],[77.0161,28.5216],[77.0005,28.5322],[77.0072,28.5411],[77.0466,28.5167],[77.0805,28.5181],[77.0912,28.5122],[77.097,28.5092],[77.1208,28.4962],[77.119,28.4886],[77.1107,28.4713],[77.1239,28.4454],[77.1633,28.427],[77.166,28.4256],[77.1746,28.4048],[77.1605,28.3943],[77.1538,28.3894],[77.1563,28.3178],[77.2042,28.294],[77.2216,28.2856],[77.2256,28.2835],[77.2241,28.2662],[77.2152,28.2578],[77.1954,28.2451],[77.1911,28.2348],[77.2008,28.2164],[77.1911,28.2086],[77.1715,28.1991],[77.1385,28.2251],[77.1367,28.2245],[77.1202,28.218],[77.1028,28.2275],[77.0943,28.2194],[77.0814,28.2299],[77.0717,28.2143],[77.0616,28.2167],[77.0561,28.244],[77.0213,28.2483],[77.0106,28.3056],[76.9996,28.3254],[76.9785,28.3343],[76.9522,28.3132],[76.933,28.3245],[76.9162,28.2991],[76.9055,28.3013],[76.9064,28.2997],[76.918,28.2772],[76.9134,28.2637],[76.9082,28.2599],[76.8963,28.2532],[76.8762,28.2629],[76.8578,28.2297],[76.8517,28.2353],[76.8469,28.2399],[76.8123,28.2407],[76.8111,28.2543],[76.7965,28.2562],[76.7806,28.224],[76.7534,28.2486],[76.7109,28.2648],[76.6779,28.264],[76.6856,28.3137],[76.6731,28.317],[76.6663,28.3032],[76.6508,28.3075],[76.6636,28.3578],[76.6673,28.3719],[76.6688,28.3786]]]}},{"type":"Feature","properties":{"district":"Faridabad","district_hi":"फरीदाबाद"},"geometry":{"type":"Polygon","coordinates":[[[77.2241,28.2662],[77.2256,28.2835],[77.2216,28.2856],[77.2042,28.294],[77.1563,28.3178],[77.1538,28.3894],[77.1605,28.3943],[77.1746,28.4048],[77.1764,28.4051],[77.1844,28.4105],[77.206,28.41],[77.2238,28.4129],[77.2308,28.4159],[77.2488,28.4297],[77.2467,28.4513],[77.2461,28.453],[77.2329,28.4578],[77.2412,28.4746],[77.2433,28.4789],[77.2537,28.4827],[77.2903,28.4965],[77.3142,28.4835],[77.3371,28.5054],[77.3475,28.5205],[77.3511,28.5019],[77.3517,28.5],[77.3523,28.5],[77.3716,28.4984],[77.3804,28.4703],[77.4082,28.4673],[77.4,28.4557],[77.4336,28.4548],[77.4354,28.4311],[77.4626,28.4243],[77.4635,28.4151],[77.4776,28.4192],[77.4834,28.4086],[77.4733,28.397],[77.5048,28.37],[77.4962,28.3491],[77.4712,28.3348],[77.5072,28.3056],[77.5035,28.2802],[77.4907,28.2713],[77.4925,28.2521],[77.5506,28.2424],[77.5212,28.2245],[77.5353,28.2102],[77.5283,28.1991],[77.5023,28.2051],[77.5008,28.2053],[77.5005,28.2088],[77.4709,28.2156],[77.4562,28.2053],[77.4342,28.214],[77.4159,28.2005],[77.4082,28.2143],[77.3798,28.2213],[77.3728,28.2359],[77.345,28.2351],[77.3224,28.2602],[77.3221,28.2602],[77.3084,28.2553],[77.258,28.2721],[77.257,28.2724],[77.2555,28.258],[77.2354,28.2697],[77.2344,28.2699],[77.2323,28.2686],[77.2241,28.2662]]]}},{"type":"Feature","properties":{"district":"Mahendragarh","district_hi":"महेंद्रगढ़"},"geometry":{"type":"Polygon","coordinates":[[[75.8927,28.3894],[75.8982,28.4094],[75.9028,28.4256],[75.9049,28.4327],[75.9834,28.4448],[76.0136,28.434],[76.0176,28.3859],[76.082,28.3927],[76.1098,28.4486],[76.1108,28.4502],[76.1486,28.4516],[76.155,28.4578],[76.1596,28.4624],[76.1654,28.4316],[76.1862,28.4367],[76.1889,28.4432],[76.2119,28.4432],[76.2198,28.4678],[76.2445,28.4589],[76.2473,28.4378],[76.2849,28.43],[76.2879,28.4294],[76.28,28.4056],[76.3017,28.4005],[76.3044,28.3786],[76.3191,28.37],[76.331,28.3643],[76.3548,28.3656],[76.363,28.3389],[76.3676,28.3354],[76.3676,28.3237],[76.3673,28.3235],[76.3673,28.3227],[76.3475,28.3072],[76.3527,28.2856],[76.3429,28.2729],[76.3502,28.2607],[76.3417,28.2243],[76.327,28.2237],[76.3206,28.2064],[76.3126,28.2048],[76.3068,28.1972],[76.3117,28.178],[76.2922,28.1791],[76.2809,28.1656],[76.2806,28.1656],[76.3047,28.1594],[76.2977,28.1491],[76.3209,28.1486],[76.36,28.125],[76.3365,28.1026],[76.3093,28.1083],[76.3013,28.0977],[76.3017,28.0977],[76.3013,28.0977],[76.3548,28.0685],[76.3414,28.0299],[76.3191,28.0156],[76.2922,28.0258],[76.2934,28.0491],[76.261,28.0675],[76.243,28.0645],[76.2381,28.0496],[76.1798,28.0542],[76.196,28.0304],[76.2167,28.0356],[76.1969,28.0156],[76.177,28.0215],[76.1602,27.9977],[76.1636,27.9734],[76.1865,27.9656],[76.1682,27.9034],[76.2012,27.8926],[76.1938,27.8596],[76.2115,27.845],[76.2088,27.8401],[76.2253,27.8336],[76.2253,27.8334],[76.2174,27.8169],[76.1996,27.8215],[76.1764,27.7993],[76.1538,27.8198],[76.1321,27.8244],[76.1355,27.8393],[76.1233,27.8509],[76.0888,27.8604],[76.0857,27.8447],[76.0762,27.8417],[76.075,27.8439],[76.0607,27.8482],[76.0481,27.835],[75.9871,27.8417],[75.9715,27.8526],[75.9843,27.8826],[75.9754,27.8936],[75.9874,27.9042],[75.937,27.9174],[75.9327,27.9282],[75.9324,27.9301],[75.947,27.9458],[75.9727,27.9326],[75.9819,27.9653],[75.9999,27.9772],[75.9657,27.9837],[75.9666,28.0002],[75.9898,27.9947],[75.9956,28.0069],[75.9712,28.0161],[75.9745,28.0248],[75.9938,28.038],[75.995,28.0385],[76.0164,28.0304],[76.017,28.0526],[76.0084,28.0583],[76.0252,28.0542],[76.0408,28.074],[76.0231,28.0861],[76.0075,28.0588],[75.9843,28.0472],[75.9748,28.051],[75.9883,28.0664],[75.9834,28.0813],[75.9385,28.088],[75.9458,28.1072],[75.9767,28.1248],[75.999,28.1229],[76.0075,28.1532],[76.017,28.1502],[76.0316,28.1678],[76.0707,28.1651],[76.0652,28.1415],[76.0808,28.1415],[76.0949,28.1415],[76.0924,28.1469],[76.0888,28.1559],[76.072,28.1942],[76.0472,28.198],[76.0561,28.2202],[76.0161,28.237],[76.0265,28.2751],[75.9861,28.2932],[75.9724,28.3186],[75.958,28.3137],[75.955,28.3337],[75.933,28.3367],[75.9183,28.3721],[75.9006,28.3719],[75.8963,28.39],[75.8927,28.3894]]]}},{"type":"Feature","properties":{"district":"Rewari","district_hi":"रेवाड़ी"},"geometry":{"type":"Polygon","coordinates":[[[76.2928,28.4689],[76.3041,28.4694],[76.316,28.4667],[76.3646,28.4551],[76.3701,28.4708],[76.4012,28.4719],[76.4406,28.4562],[76.4397,28.4243],[76.4541,28.4181],[76.5136,28.4365],[76.5622,28.4292],[76.5524,28.4075],[76.5607,28.4046],[76.5836,28.437],[76.6184,28.4278],[76.6275,28.424],[76.6511,28.3986],[76.666,28.38],[76.6688,28.3786],[76.6673,28.3719],[76.6636,28.3578],[76.6508,28.3075],[76.6663,28.3032],[76.6731,28.317],[76.6856,28.3137],[76.6779,28.264],[76.7109,28.2648],[76.7534,28.2486],[76.7806,28.224],[76.7965,28.2562],[76.8111,28.2543],[76.8123,28.2407],[76.8469,28.2399],[76.8517,28.2353],[76.8578,28.2297],[76.8588,28.2289],[76.8566,28.2272],[76.853,28.221],[76.8502,28.2213],[76.8313,28.2091],[76.8084,28.211],[76.8123,28.191],[76.7925,28.1842],[76.8007,28.1624],[76.7949,28.1483],[76.7626,28.1426],[76.7436,28.121],[76.7158,28.1277],[76.6874,28.0877],[76.6572,28.0894],[76.6544,28.0348],[76.6682,28.0139],[76.5888,27.998],[76.5674,27.9737],[76.5515,27.9666],[76.5426,27.9674],[76.5387,27.9745],[76.5439,28.0342],[76.5292,28.0404],[76.51,28.0296],[76.4974,28.0434],[76.4547,28.0423],[76.4614,28.0585],[76.4895,28.0529],[76.5014,28.0602],[76.448,28.0891],[76.4635,28.1091],[76.4993,28.0996],[76.5017,28.1188],[76.4898,28.1253],[76.4919,28.1299],[76.4803,28.1307],[76.4754,28.1332],[76.4733,28.1396],[76.4703,28.148],[76.4693,28.1513],[76.4483,28.1456],[76.4199,28.1426],[76.3997,28.145],[76.3908,28.1394],[76.3716,28.1375],[76.3566,28.1437],[76.3579,28.161],[76.3453,28.1694],[76.3249,28.1732],[76.3117,28.178],[76.3068,28.1972],[76.3126,28.2048],[76.3206,28.2064],[76.327,28.2237],[76.3417,28.2243],[76.3502,28.2607],[76.3429,28.2729],[76.3527,28.2856],[76.3475,28.3072],[76.3673,28.3227],[76.3673,28.3235],[76.3676,28.3237],[76.3676,28.3354],[76.363,28.3389],[76.3548,28.3656],[76.331,28.3643],[76.3191,28.37],[76.3044,28.3786],[76.3017,28.4005],[76.28,28.4056],[76.2879,28.4294],[76.2849,28.43],[76.2919,28.4635],[76.2928,28.4689]]]}},{"type":"Feature","properties":{"district":"Nuh","district_hi":"नूंह"},"geometry":{"type":"Polygon","coordinates":[[[76.8578,28.2297],[76.8762,28.2629],[76.8963,28.2532],[76.9082,28.2599],[76.9134,28.2637],[76.918,28.2772],[76.9064,28.2997],[76.9055,28.3013],[76.9162,28.2991],[76.933,28.3245],[76.9522,28.3132],[76.9785,28.3343],[76.9996,28.3254],[77.0106,28.3056],[77.0213,28.2483],[77.0561,28.244],[77.0616,28.2167],[77.0717,28.2143],[77.0814,28.2299],[77.0943,28.2194],[77.1028,28.2275],[77.1202,28.218],[77.1367,28.2245],[77.1385,28.2251],[77.1715,28.1991],[77.1911,28.2086],[77.1914,28.2088],[77.192,28.2078],[77.1984,28.1964],[77.1926,28.1837],[77.1724,28.1894],[77.1663,28.1691],[77.1211,28.1156],[77.1428,28.0999],[77.133,28.0723],[77.148,28.0556],[77.1388,28.0415],[77.1492,28.0234],[77.1352,28.0002],[77.152,27.9956],[77.1443,27.9637],[77.1584,27.9485],[77.1816,27.9412],[77.1874,27.9515],[77.206,27.9393],[77.2341,27.8961],[77.2659,27.8788],[77.283,27.8717],[77.2925,27.8891],[77.312,27.8839],[77.3352,27.8469],[77.3444,27.8496],[77.3343,27.8355],[77.3328,27.8334],[77.2964,27.8253],[77.283,27.7993],[77.2687,27.815],[77.2451,27.7882],[77.2402,27.7866],[77.2326,27.7974],[77.2106,27.802],[77.2027,27.8234],[77.2021,27.8247],[77.1914,27.8098],[77.1987,27.7996],[77.177,27.7863],[77.1691,27.7917],[77.1895,27.8098],[77.1599,27.8171],[77.1596,27.8171],[77.1593,27.8077],[77.1575,27.7877],[77.1352,27.7761],[77.123,27.7934],[77.1086,27.7863],[77.0747,27.8144],[77.0454,27.8215],[77.0264,27.7793],[77.0561,27.7712],[77.0594,27.7609],[77.0762,27.7663],[77.0857,27.7382],[77.0597,27.7266],[77.0365,27.7488],[77.0197,27.7458],[77.0115,27.7317],[77.0002,27.7369],[76.9782,27.6541],[76.9721,27.6574],[76.9431,27.6739],[76.9428,27.6733],[76.9327,27.6563],[76.9137,27.6549],[76.8982,27.6777],[76.9058,27.6863],[76.8933,27.6974],[76.8976,27.6979],[76.9244,27.6998],[76.8942,27.7179],[76.8924,27.7323],[76.9189,27.8044],[76.9101,27.8153],[76.9134,27.832],[76.9357,27.829],[76.9421,27.8428],[76.9376,27.8966],[76.9507,27.8958],[76.9516,27.9182],[76.9315,27.9226],[76.9379,27.9829],[76.9308,27.9937],[76.9706,28.1386],[76.9483,28.1423],[76.951,28.1499],[76.9321,28.1532],[76.8924,28.1837],[76.9067,28.2002],[76.8728,28.2059],[76.875,28.2178],[76.853,28.221],[76.8566,28.2272],[76.8588,28.2289],[76.8578,28.2297]]]}},{"type":"Feature","properties":{"district":"Palwal","district_hi":"पलवल"},"geometry":{"type":"Polygon","coordinates":[[[77.1911,28.2086],[77.2008,28.2164],[77.1911,28.2348],[77.1954,28.2451],[77.2152,28.2578],[77.2241,28.2662],[77.2323,28.2686],[77.2344,28.2699],[77.2354,28.2697],[77.2555,28.258],[77.257,28.2724],[77.258,28.2721],[77.3084,28.2553],[77.3221,28.2602],[77.3224,28.2602],[77.345,28.2351],[77.3728,28.2359],[77.3798,28.2213],[77.4082,28.2143],[77.4159,28.2005],[77.4342,28.214],[77.4562,28.2053],[77.4709,28.2156],[77.5005,28.2088],[77.5008,28.2053],[77.4974,28.2061],[77.4983,28.1845],[77.5029,28.1853],[77.5087,28.1861],[77.5332,28.1897],[77.5457,28.1875],[77.5469,28.1848],[77.5414,28.1705],[77.538,28.1667],[77.502,28.1613],[77.5041,28.1456],[77.4913,28.1367],[77.5124,28.1248],[77.4993,28.0948],[77.4825,28.1069],[77.4822,28.1069],[77.4797,28.1002],[77.4748,28.0869],[77.4745,28.0861],[77.4754,28.0861],[77.4764,28.085],[77.4757,28.085],[77.5011,28.0585],[77.4837,28.0404],[77.5127,28.0321],[77.5084,28.0229],[77.5423,27.9893],[77.5194,27.9729],[77.517,27.9712],[77.5188,27.9623],[77.5445,27.9585],[77.5448,27.9558],[77.5347,27.9353],[77.5298,27.9264],[77.5167,27.9334],[77.5017,27.9255],[77.4922,27.9385],[77.4751,27.9293],[77.4776,27.8934],[77.466,27.8815],[77.458,27.875],[77.4574,27.8747],[77.426,27.8866],[77.4202,27.8904],[77.4192,27.8893],[77.4095,27.8742],[77.4208,27.8544],[77.4171,27.8544],[77.3652,27.8555],[77.349,27.8558],[77.3444,27.8496],[77.3352,27.8469],[77.312,27.8839],[77.2925,27.8891],[77.283,27.8717],[77.2659,27.8788],[77.2341,27.8961],[77.206,27.9393],[77.1874,27.9515],[77.1816,27.9412],[77.1584,27.9485],[77.1443,27.9637],[77.152,27.9956],[77.1352,28.0002],[77.1492,28.0234],[77.1388,28.0415],[77.148,28.0556],[77.133,28.0723],[77.1428,28.0999],[77.1211,28.1156],[77.1663,28.1691],[77.1724,28.1894],[77.1926,28.1837],[77.1984,28.1964],[77.192,28.2078],[77.1914,28.2088],[77.1911,28.2086]]]}},{"type":"Feature","properties":{"district":"Charkhi Dadri","district_hi":"चरखी दादरी"},"geometry":{"type":"Polygon","coordinates":[[[76.422,28.7017],[76.4223,28.7008],[76.4339,28.6973],[76.4806,28.6803],[76.4663,28.6527],[76.4379,28.6411],[76.4654,28.6141],[76.4483,28.5984],[76.4327,28.5995],[76.4327,28.5984],[76.4211,28.5511],[76.4095,28.5511],[76.4015,28.5954],[76.4012,28.5954],[76.3731,28.5997],[76.3569,28.6168],[76.3426,28.58],[76.334,28.5824],[76.3423,28.5608],[76.327,28.4959],[76.2913,28.4986],[76.2873,28.4827],[76.2852,28.474],[76.2916,28.4724],[76.2928,28.4689],[76.2919,28.4635],[76.2849,28.43],[76.2473,28.4378],[76.2445,28.4589],[76.2198,28.4678],[76.2119,28.4432],[76.1889,28.4432],[76.1862,28.4367],[76.1654,28.4316],[76.1596,28.4624],[76.155,28.4578],[76.1486,28.4516],[76.1108,28.4502],[76.1098,28.4486],[76.082,28.3927],[76.0176,28.3859],[76.0136,28.434],[75.9834,28.4448],[75.9049,28.4327],[75.911,28.4543],[75.9095,28.4559],[75.8802,28.4889],[75.9336,28.4792],[75.9364,28.4951],[75.8988,28.5008],[75.8997,28.5154],[75.8966,28.5151],[75.8808,28.514],[75.878,28.4905],[75.8169,28.5116],[75.8197,28.5222],[75.8295,28.5486],[75.8499,28.5668],[75.8478,28.587],[75.8536,28.59],[75.8954,28.6081],[75.9562,28.6046],[76.0729,28.6676],[76.1056,28.6546],[76.0973,28.6808],[76.1211,28.6741],[76.1227,28.6514],[76.1327,28.6484],[76.1355,28.6657],[76.1242,28.6816],[76.1337,28.6873],[76.1776,28.6684],[76.1905,28.6827],[76.2326,28.6773],[76.2308,28.696],[76.2442,28.7057],[76.2381,28.7227],[76.2555,28.7411],[76.272,28.7425],[76.2778,28.7795],[76.2922,28.7852],[76.2922,28.8073],[76.3264,28.8122],[76.3856,28.7827],[76.374,28.7414],[76.3976,28.733],[76.3814,28.7081],[76.3795,28.7052],[76.3908,28.6954],[76.4061,28.6825],[76.4199,28.7025],[76.422,28.7017]]]}},{"type":"Feature","properties":{"district":"Yamunanagar","district_hi":"यमुनानगर"},"geometry":{"type":"Polygon","coordinates":[[[77.2085,30.4882],[77.2106,30.4647],[77.2115,30.4655],[77.2265,30.4804],[77.2638,30.4812],[77.2763,30.4653],[77.2769,30.4642],[77.2772,30.4642],[77.2955,30.4666],[77.3209,30.4458],[77.3542,30.4582],[77.3643,30.4326],[77.3872,30.4401],[77.4073,30.4271],[77.3979,30.4163],[77.4046,30.4088],[77.4565,30.4558],[77.4589,30.4328],[77.4223,30.4098],[77.4434,30.3955],[77.4895,30.4107],[77.5026,30.4047],[77.5066,30.4274],[77.5231,30.4436],[77.5506,30.395],[77.5533,30.3936],[77.5692,30.3844],[77.5811,30.3777],[77.5805,30.3793],[77.6031,30.369],[77.604,30.3682],[77.5784,30.3298],[77.5836,30.3074],[77.5384,30.2785],[77.5307,30.2525],[77.4773,30.1825],[77.4559,30.1628],[77.4281,30.1628],[77.4272,30.1576],[77.4235,30.1309],[77.4024,30.1117],[77.403,30.1114],[77.4226,30.1036],[77.4147,30.0971],[77.3789,30.0914],[77.3343,30.0538],[77.3029,30.0554],[77.2778,30.0419],[77.276,29.9965],[77.247,29.9768],[77.2265,29.94],[77.2012,29.9384],[77.1932,29.9422],[77.1859,29.9511],[77.1706,29.9703],[77.1706,29.9706],[77.1682,29.97],[77.1349,29.9668],[77.1349,29.9795],[77.1199,29.9919],[77.1181,29.9935],[77.1117,30.0092],[77.0964,30.0322],[77.0848,30.0392],[77.0689,30.0741],[77.0655,30.0814],[77.0652,30.0819],[77.0668,30.1033],[77.0854,30.1122],[77.0781,30.119],[77.0649,30.1263],[77.0692,30.1509],[77.0704,30.163],[77.0717,30.163],[77.097,30.1593],[77.1083,30.1817],[77.0781,30.1974],[77.079,30.2141],[77.0927,30.2252],[77.13,30.229],[77.1492,30.2114],[77.1614,30.2312],[77.159,30.2341],[77.1318,30.2431],[77.1327,30.2712],[77.1376,30.2809],[77.1395,30.2852],[77.141,30.2887],[77.1645,30.2963],[77.1669,30.3093],[77.1902,30.3141],[77.1779,30.3239],[77.174,30.3393],[77.1621,30.3577],[77.1605,30.3571],[77.1614,30.3582],[77.1633,30.3604],[77.1694,30.3682],[77.1782,30.3642],[77.1844,30.3809],[77.1697,30.4317],[77.1676,30.439],[77.1721,30.455],[77.2012,30.4815],[77.2085,30.4882]]]}},{"type":"Feature","properties":{"district":"Kurukshetra","district_hi":"कुरुक्षेत्र"},"geometry":{"type":"Polygon","coordinates":[[[77.0649,30.1263],[77.0781,30.119],[77.0854,30.1122],[77.0668,30.1033],[77.0652,30.0819],[77.0655,30.0814],[77.0689,30.0741],[77.0848,30.0392],[77.0964,30.0322],[77.1117,30.0092],[77.1181,29.9935],[77.1199,29.9919],[77.1184,29.9933],[77.1175,29.9876],[77.0985,29.9522],[77.0973,29.9508],[77.0536,29.946],[77.0335,29.9552],[77.0225,29.947],[76.9834,29.9587],[76.9492,29.9319],[76.9556,29.9141],[76.9312,29.926],[76.9208,29.9143],[76.9,29.92],[76.8811,29.8805],[76.8578,29.8773],[76.8334,29.9022],[76.8227,29.8941],[76.8099,29.9019],[76.7955,29.88],[76.7549,29.8668],[76.7372,29.8759],[76.7354,29.877],[76.7326,29.8727],[76.7299,29.8708],[76.6972,29.8943],[76.6841,29.9227],[76.6605,29.9122],[76.5885,29.9203],[76.5662,29.9033],[76.5613,29.9095],[76.5219,29.896],[76.466,29.913],[76.4867,29.956],[76.4672,29.9735],[76.4565,29.9638],[76.4391,29.9725],[76.4327,29.9949],[76.4425,30.0071],[76.4217,30.0308],[76.4678,30.0984],[76.4675,30.099],[76.4828,30.0968],[76.5048,30.0928],[76.5118,30.0719],[76.5463,30.076],[76.5768,30.1017],[76.5991,30.0838],[76.5946,30.0719],[76.6156,30.0746],[76.644,30.1028],[76.6352,30.1119],[76.6447,30.1279],[76.6385,30.1463],[76.6422,30.1498],[76.6422,30.1501],[76.6428,30.1503],[76.6468,30.1525],[76.6801,30.1806],[76.6834,30.1868],[76.6874,30.1871],[76.7635,30.192],[76.7848,30.2149],[76.8172,30.2179],[76.823,30.2512],[76.8233,30.2514],[76.8233,30.2517],[76.8239,30.2514],[76.8429,30.2458],[76.8508,30.2549],[76.8676,30.2436],[76.8594,30.2322],[76.8902,30.2122],[76.8835,30.199],[76.9034,30.1898],[76.925,30.2055],[76.9608,30.1933],[76.9409,30.1733],[76.9409,30.1714],[76.9617,30.1525],[76.9907,30.1679],[77.0649,30.1263]]]}},{"type":"Feature","properties":{"district":"Kaithal","district_hi":"कैथल"},"geometry":{"type":"Polygon","coordinates":[[[76.4675,30.099],[76.4678,30.0984],[76.4217,30.0308],[76.4425,30.0071],[76.4327,29.9949],[76.4391,29.9725],[76.4565,29.9638],[76.4672,29.9735],[76.4867,29.956],[76.466,29.913],[76.5219,29.896],[76.5613,29.9095],[76.5662,29.9033],[76.5885,29.9203],[76.6605,29.9122],[76.6841,29.9227],[76.6972,29.8943],[76.7299,29.8708],[76.7308,29.8703],[76.7045,29.8289],[76.7137,29.8084],[76.6834,29.7665],[76.6975,29.7513],[76.6896,29.7019],[76.7125,29.6951],[76.7033,29.6678],[76.6834,29.6775],[76.6563,29.6713],[76.6034,29.6278],[76.5634,29.63],[76.5399,29.6135],[76.5219,29.6148],[76.5497,29.5908],[76.5301,29.571],[76.5261,29.5367],[76.5072,29.5202],[76.5029,29.5161],[76.4984,29.5191],[76.4858,29.5405],[76.4849,29.5421],[76.4806,29.5434],[76.462,29.5483],[76.4602,29.5489],[76.4391,29.5291],[76.4302,29.5451],[76.3768,29.528],[76.374,29.5278],[76.349,29.5553],[76.3585,29.5689],[76.3508,29.5799],[76.2977,29.5899],[76.2907,29.578],[76.301,29.5575],[76.2732,29.5507],[76.2696,29.5599],[76.2684,29.5724],[76.2635,29.5759],[76.2381,29.5932],[76.2338,29.6194],[76.1935,29.641],[76.2024,29.6643],[76.192,29.6797],[76.1682,29.6892],[76.1834,29.7197],[76.1801,29.737],[76.1978,29.7475],[76.1963,29.764],[76.217,29.7954],[76.2189,29.8184],[76.214,29.8211],[76.2128,29.8335],[76.2146,29.8392],[76.2149,29.8397],[76.2149,29.8395],[76.2204,29.8378],[76.2219,29.8465],[76.225,29.8495],[76.2338,29.8522],[76.2442,29.8549],[76.2445,29.8551],[76.2455,29.8635],[76.2467,29.8754],[76.2467,29.8759],[76.2109,29.8914],[76.1935,29.8857],[76.1856,29.8924],[76.1877,29.9206],[76.1718,29.9262],[76.2057,29.9743],[76.21,30.0052],[76.2329,30.016],[76.2131,30.0227],[76.2137,30.0317],[76.2534,30.089],[76.2381,30.1055],[76.2167,30.1101],[76.2247,30.1271],[76.2076,30.1565],[76.2345,30.1449],[76.2537,30.1217],[76.2855,30.1063],[76.2965,30.1144],[76.3218,30.0952],[76.3441,30.1009],[76.3603,30.1203],[76.3334,30.1382],[76.3505,30.1468],[76.3621,30.1201],[76.4,30.1168],[76.3911,30.1352],[76.4101,30.1452],[76.3872,30.1706],[76.4202,30.192],[76.4211,30.192],[76.4406,30.166],[76.4284,30.1509],[76.4287,30.1503],[76.4302,30.1479],[76.4385,30.133],[76.4397,30.133],[76.4599,30.1295],[76.4626,30.1044],[76.4629,30.1006],[76.4666,30.1],[76.4675,30.099]]]}},{"type":"Feature","properties":{"district":"Sirsa","district_hi":"सिरसा"},"geometry":{"type":"Polygon","coordinates":[[[75.3029,29.5597],[75.3038,29.5497],[75.2949,29.5337],[75.3023,29.5243],[75.2739,29.5094],[75.2876,29.4937],[75.2809,29.4737],[75.3011,29.4394],[75.2855,29.4229],[75.2351,29.4188],[75.2201,29.3977],[75.2277,29.3799],[75.2439,29.3758],[75.2516,29.3664],[75.2617,29.3539],[75.2647,29.3504],[75.2565,29.3375],[75.2558,29.3369],[75.2558,29.3366],[75.2259,29.3258],[75.2409,29.2972],[75.2412,29.2969],[75.2397,29.2596],[75.2384,29.2301],[75.21,29.2347],[75.188,29.2683],[75.1685,29.2588],[75.1743,29.2512],[75.1627,29.2439],[75.1242,29.2399],[75.1196,29.2228],[75.0821,29.228],[75.05,29.2861],[75.0197,29.2864],[74.9987,29.2707],[74.9611,29.2807],[74.9483,29.3015],[74.9608,29.3202],[74.9397,29.3399],[74.9382,29.3621],[74.8505,29.4037],[74.8203,29.3972],[74.7876,29.3615],[74.7623,29.3545],[74.7391,29.3542],[74.7195,29.3699],[74.6581,29.3721],[74.6544,29.3329],[74.5992,29.3275],[74.6028,29.365],[74.5778,29.3886],[74.5665,29.4204],[74.5366,29.4245],[74.5384,29.4567],[74.5414,29.4634],[74.5845,29.4586],[74.601,29.501],[74.6218,29.5224],[74.623,29.531],[74.575,29.5643],[74.5814,29.6272],[74.5912,29.6394],[74.5854,29.6546],[74.616,29.7521],[74.5873,29.767],[74.576,29.7484],[74.5625,29.7557],[74.5341,29.7405],[74.48,29.7451],[74.4761,29.7602],[74.4749,29.7727],[74.4849,29.8149],[74.5078,29.833],[74.539,29.8405],[74.561,29.8697],[74.5436,29.9014],[74.51,29.9081],[74.5265,29.9411],[74.5317,29.9492],[74.5967,29.9122],[74.6541,29.9057],[74.6468,29.9114],[74.6517,29.9265],[74.6819,29.9433],[74.7052,29.9749],[74.7067,29.9768],[74.7314,29.9614],[74.7794,29.9719],[74.8114,29.9925],[74.8121,29.9922],[74.8243,29.9857],[74.8209,29.9708],[74.8383,29.9711],[74.8554,29.9562],[74.8881,29.967],[74.9034,29.9522],[74.8982,29.9414],[74.9266,29.9503],[74.9495,29.9062],[74.9788,29.8941],[74.9971,29.8673],[75.0225,29.8662],[75.0469,29.8851],[75.0698,29.877],[75.0869,29.9154],[75.0934,29.9141],[75.0967,29.9133],[75.0989,29.9127],[75.0995,29.9111],[75.1147,29.8787],[75.09,29.8541],[75.1187,29.8319],[75.119,29.8316],[75.1016,29.8216],[75.1007,29.807],[75.1352,29.8073],[75.1511,29.7757],[75.1667,29.7846],[75.159,29.8013],[75.1654,29.8257],[75.1657,29.8259],[75.1679,29.8276],[75.1911,29.8443],[75.1905,29.8427],[75.2106,29.8324],[75.2085,29.7932],[75.2262,29.7892],[75.2406,29.7521],[75.2412,29.7505],[75.2262,29.7289],[75.2091,29.737],[75.2061,29.7335],[75.2012,29.7235],[75.2067,29.6875],[75.1685,29.6667],[75.1877,29.6518],[75.1832,29.6283],[75.2354,29.6032],[75.2216,29.5802],[75.2384,29.5589],[75.2354,29.5421],[75.2733,29.5499],[75.2812,29.5616],[75.3029,29.5597]]]}},{"type":"Feature","properties":{"district":"Karnal","district_hi":"करनाल"},"geometry":{"type":"Polygon","coordinates":[[[77.1199,29.9919],[77.1349,29.9795],[77.1349,29.9668],[77.1682,29.97],[77.1706,29.9706],[77.1706,29.9703],[77.1859,29.9511],[77.1932,29.9422],[77.2012,29.9384],[77.2265,29.94],[77.2262,29.9395],[77.2247,29.9368],[77.1859,29.9076],[77.2021,29.8689],[77.1782,29.8459],[77.1731,29.8049],[77.1682,29.7989],[77.1465,29.7719],[77.122,29.767],[77.1208,29.7605],[77.1208,29.7592],[77.1199,29.7554],[77.1392,29.7384],[77.1327,29.7224],[77.1349,29.7205],[77.1343,29.7183],[77.1538,29.6962],[77.1495,29.6883],[77.1511,29.6881],[77.1492,29.6864],[77.1425,29.6805],[77.1333,29.6489],[77.1315,29.6418],[77.1062,29.6324],[77.1095,29.5975],[77.0872,29.5886],[77.1269,29.5594],[77.1083,29.5478],[77.0967,29.5218],[77.1318,29.4851],[77.1318,29.4848],[77.1318,29.4845],[77.1309,29.484],[77.1202,29.4724],[77.068,29.441],[77.0658,29.4418],[77.0484,29.4491],[77.0487,29.4664],[77.0377,29.4518],[77.0078,29.4461],[76.9278,29.4826],[76.9156,29.4824],[76.9073,29.4675],[76.8811,29.4921],[76.8557,29.4899],[76.8181,29.5143],[76.7922,29.4678],[76.7913,29.4659],[76.7754,29.4745],[76.7607,29.4629],[76.7626,29.4659],[76.7546,29.4688],[76.7479,29.4715],[76.7372,29.4645],[76.7073,29.4867],[76.7048,29.4886],[76.6853,29.4786],[76.6547,29.4913],[76.633,29.4694],[76.608,29.4805],[76.6077,29.4807],[76.5842,29.4648],[76.531,29.4629],[76.5271,29.4696],[76.5271,29.481],[76.5011,29.5148],[76.5029,29.5161],[76.5072,29.5202],[76.5261,29.5367],[76.5301,29.571],[76.5497,29.5908],[76.5219,29.6148],[76.5399,29.6135],[76.5634,29.63],[76.6034,29.6278],[76.6563,29.6713],[76.6834,29.6775],[76.7033,29.6678],[76.7125,29.6951],[76.6896,29.7019],[76.6975,29.7513],[76.6834,29.7665],[76.7137,29.8084],[76.7045,29.8289],[76.7308,29.8703],[76.7299,29.8708],[76.7326,29.8727],[76.7354,29.877],[76.7372,29.8759],[76.7549,29.8668],[76.7955,29.88],[76.8099,29.9019],[76.8227,29.8941],[76.8334,29.9022],[76.8578,29.8773],[76.8811,29.8805],[76.9,29.92],[76.9208,29.9143],[76.9312,29.926],[76.9556,29.9141],[76.9492,29.9319],[76.9834,29.9587],[77.0225,29.947],[77.0335,29.9552],[77.0536,29.946],[77.0973,29.9508],[77.0985,29.9522],[77.1175,29.9876],[77.1184,29.9933],[77.1199,29.9919]]]}},{"type":"Feature","properties":{"district":"Jind","district_hi":"जींद"},"geometry":{"type":"Polygon","coordinates":[[[76.2149,29.8397],[76.2146,29.8392],[76.2128,29.8335],[76.214,29.8211],[76.2189,29.8184],[76.217,29.7954],[76.1963,29.764],[76.1978,29.7475],[76.1801,29.737],[76.1834,29.7197],[76.1682,29.6892],[76.192,29.6797],[76.2024,29.6643],[76.1935,29.641],[76.2338,29.6194],[76.2381,29.5932],[76.2635,29.5759],[76.2684,29.5724],[76.2696,29.5599],[76.2732,29.5507],[76.301,29.5575],[76.2907,29.578],[76.2977,29.5899],[76.3508,29.5799],[76.3585,29.5689],[76.349,29.5553],[76.374,29.5278],[76.3768,29.528],[76.4302,29.5451],[76.4391,29.5291],[76.4602,29.5489],[76.462,29.5483],[76.4806,29.5434],[76.4849,29.5421],[76.4858,29.5405],[76.4984,29.5191],[76.5029,29.5161],[76.5011,29.5148],[76.5271,29.481],[76.5271,29.4696],[76.531,29.4629],[76.5842,29.4648],[76.6077,29.4807],[76.608,29.4805],[76.633,29.4694],[76.6547,29.4913],[76.6853,29.4786],[76.7048,29.4886],[76.7073,29.4867],[76.7372,29.4645],[76.7479,29.4715],[76.7546,29.4688],[76.7626,29.4659],[76.7607,29.4629],[76.7311,29.4126],[76.7406,29.4067],[76.7345,29.3883],[76.656,29.3694],[76.6502,29.3669],[76.6483,29.3383],[76.6318,29.3148],[76.6416,29.3053],[76.6382,29.3002],[76.6401,29.2961],[76.677,29.2804],[76.6789,29.2647],[76.6547,29.2664],[76.6535,29.2664],[76.6108,29.2891],[76.5973,29.2801],[76.561,29.281],[76.5542,29.2566],[76.5683,29.2264],[76.5597,29.2088],[76.5341,29.2139],[76.5252,29.2318],[76.4745,29.238],[76.4956,29.1782],[76.5121,29.1631],[76.4895,29.1369],[76.4776,29.0923],[76.4751,29.0896],[76.4733,29.0831],[76.4437,29.0555],[76.4028,29.0758],[76.3795,29.0658],[76.3502,29.0834],[76.3013,29.0861],[76.3017,29.0866],[76.3181,29.1163],[76.3178,29.1166],[76.3181,29.1171],[76.3053,29.1269],[76.3001,29.1882],[76.2806,29.2088],[76.2256,29.2188],[76.228,29.2388],[76.2112,29.2483],[76.1868,29.2861],[76.2094,29.3193],[76.1776,29.3407],[76.2067,29.3645],[76.203,29.3958],[76.1914,29.4102],[76.1911,29.4104],[76.1572,29.4202],[76.1566,29.4194],[76.1318,29.3902],[76.1126,29.4061],[76.1123,29.4064],[76.1111,29.4061],[76.0915,29.4086],[76.0781,29.4388],[76.0769,29.4413],[76.0769,29.4415],[76.0762,29.4413],[76.0329,29.4272],[76.0258,29.4248],[76.0179,29.4388],[75.9959,29.4472],[76.0136,29.4807],[75.933,29.4991],[75.9608,29.5489],[75.9635,29.554],[75.9623,29.5553],[75.9638,29.5626],[75.9641,29.5629],[75.9614,29.5916],[75.9486,29.5937],[75.9565,29.627],[75.9412,29.6416],[75.9513,29.6702],[75.9336,29.6846],[75.9473,29.7294],[75.9843,29.727],[76.0262,29.7559],[76.0359,29.744],[76.0405,29.7451],[76.0463,29.7465],[76.0484,29.747],[76.0509,29.7519],[76.0665,29.7713],[76.0827,29.7811],[76.0842,29.7932],[76.0964,29.8086],[76.0985,29.8103],[76.1163,29.7967],[76.1196,29.7924],[76.1208,29.7935],[76.1456,29.8192],[76.1737,29.8178],[76.1773,29.8222],[76.1978,29.8449],[76.199,29.8443],[76.2149,29.8397]]]}},{"type":"Feature","properties":{"district":"Fatehabad","district_hi":"फतेहाबाद"},"geometry":{"type":"Polygon","coordinates":[[[75.2397,29.2596],[75.2412,29.2969],[75.2409,29.2972],[75.2259,29.3258],[75.2558,29.3366],[75.2558,29.3369],[75.2565,29.3375],[75.2647,29.3504],[75.2617,29.3539],[75.2516,29.3664],[75.2439,29.3758],[75.2277,29.3799],[75.2201,29.3977],[75.2351,29.4188],[75.2855,29.4229],[75.3011,29.4394],[75.2809,29.4737],[75.2876,29.4937],[75.2739,29.5094],[75.3023,29.5243],[75.2949,29.5337],[75.3038,29.5497],[75.3029,29.5597],[75.3038,29.561],[75.32,29.5875],[75.2898,29.6083],[75.2894,29.6086],[75.2949,29.6232],[75.2959,29.6251],[75.3179,29.6335],[75.3295,29.6627],[75.3331,29.6732],[75.3334,29.6729],[75.36,29.6627],[75.3456,29.6959],[75.3728,29.7132],[75.3924,29.7132],[75.3884,29.73],[75.3884,29.7302],[75.4049,29.7389],[75.4131,29.7675],[75.4141,29.77],[75.4168,29.7708],[75.4541,29.7821],[75.4605,29.8049],[75.4614,29.8078],[75.5173,29.7765],[75.5185,29.7757],[75.5188,29.7757],[75.5231,29.7584],[75.5381,29.7732],[75.5622,29.7703],[75.5799,29.7394],[75.6053,29.7519],[75.6248,29.7478],[75.626,29.7484],[75.6352,29.7724],[75.6419,29.7743],[75.6453,29.7751],[75.6465,29.7754],[75.6636,29.7759],[75.6773,29.7765],[75.6777,29.7765],[75.7012,29.754],[75.7036,29.7538],[75.7207,29.8135],[75.7561,29.8051],[75.7565,29.8054],[75.7568,29.8051],[75.7791,29.8222],[75.7794,29.8224],[75.8114,29.8062],[75.8157,29.8043],[75.8276,29.8105],[75.8353,29.8124],[75.8371,29.7943],[75.8667,29.7665],[75.8701,29.7494],[75.8988,29.7462],[75.9064,29.754],[75.9388,29.7308],[75.9461,29.7302],[75.9473,29.7294],[75.9336,29.6846],[75.9513,29.6702],[75.9412,29.6416],[75.9565,29.627],[75.9486,29.5937],[75.9614,29.5916],[75.9641,29.5629],[75.9638,29.5626],[75.9394,29.5775],[75.9364,29.5805],[75.9357,29.5797],[75.9165,29.554],[75.8945,29.5578],[75.8942,29.5364],[75.8768,29.5378],[75.8719,29.5559],[75.8582,29.5505],[75.8545,29.5259],[75.8398,29.5099],[75.8053,29.5216],[75.762,29.5067],[75.7519,29.4802],[75.7809,29.4375],[75.7717,29.415],[75.7381,29.3964],[75.7241,29.405],[75.7308,29.4175],[75.7103,29.4305],[75.6309,29.4167],[75.616,29.4031],[75.6153,29.3715],[75.5955,29.3607],[75.605,29.3445],[75.5903,29.3369],[75.5821,29.3575],[75.5808,29.3575],[75.5298,29.3626],[75.5164,29.398],[75.4981,29.395],[75.4965,29.3942],[75.4852,29.3886],[75.4761,29.3837],[75.473,29.3783],[75.4715,29.375],[75.4675,29.3667],[75.4739,29.3588],[75.4498,29.3531],[75.4388,29.3699],[75.4278,29.3685],[75.4159,29.3461],[75.4006,29.3418],[75.3985,29.3177],[75.3573,29.3085],[75.3554,29.308],[75.346,29.2831],[75.323,29.2896],[75.3069,29.2747],[75.2882,29.2734],[75.2839,29.2488],[75.2452,29.2501],[75.2397,29.2596]]]}},{"type":"Feature","properties":{"district":"Hisar","district_hi":"हिसार"},"geometry":{"type":"Polygon","coordinates":[[[75.9638,29.5626],[75.9623,29.5553],[75.9635,29.554],[75.9608,29.5489],[75.933,29.4991],[76.0136,29.4807],[75.9959,29.4472],[76.0179,29.4388],[76.0258,29.4248],[76.0329,29.4272],[76.0762,29.4413],[76.0769,29.4415],[76.0769,29.4413],[76.0781,29.4388],[76.0915,29.4086],[76.1111,29.4061],[76.1123,29.4064],[76.1126,29.4061],[76.1318,29.3902],[76.1566,29.4194],[76.1572,29.4202],[76.1911,29.4104],[76.1914,29.4102],[76.203,29.3958],[76.2067,29.3645],[76.1776,29.3407],[76.2094,29.3193],[76.1868,29.2861],[76.2112,29.2483],[76.228,29.2388],[76.2256,29.2188],[76.2806,29.2088],[76.3001,29.1882],[76.3053,29.1269],[76.3181,29.1171],[76.3178,29.1166],[76.3181,29.1163],[76.3017,29.0866],[76.3013,29.0866],[76.283,29.0642],[76.2448,29.0609],[76.2464,29.0044],[76.2445,29.0028],[76.2293,28.9893],[76.2277,28.9901],[76.2097,29.0001],[76.2073,29.0033],[76.1963,29.019],[76.2067,29.0298],[76.1908,29.0509],[76.137,29.0455],[76.1315,29.0352],[76.093,29.0436],[76.0762,29.0317],[76.0659,29.0244],[76.0646,29.0236],[76.0509,29.0339],[76.0457,29.0379],[76.0451,29.0382],[76.0442,29.0661],[76.0118,29.0604],[75.984,29.0812],[75.9678,29.0631],[75.9791,28.9955],[75.9794,28.9952],[75.9611,29.0023],[75.9104,29.0206],[75.8957,28.986],[75.8857,28.9882],[75.8533,28.9525],[75.8588,28.9366],[75.8585,28.9358],[75.8557,28.932],[75.8475,28.9209],[75.842,28.9176],[75.8349,28.9133],[75.8322,28.9114],[75.7946,28.9241],[75.7891,28.9222],[75.7705,28.9006],[75.769,28.8987],[75.7653,28.899],[75.6914,28.9098],[75.6822,28.9109],[75.6624,28.9382],[75.648,28.9376],[75.6306,28.9779],[75.6092,28.986],[75.5848,28.9831],[75.5481,28.9663],[75.5274,28.9704],[75.5271,28.9706],[75.5274,28.9709],[75.5219,29.0039],[75.5167,29.005],[75.5011,29.0082],[75.4727,29.0144],[75.4458,29.0082],[75.4519,29.0393],[75.4419,29.0574],[75.3912,29.0628],[75.4,29.1153],[75.4058,29.1201],[75.4012,29.1228],[75.3759,29.1382],[75.3713,29.1409],[75.3716,29.1412],[75.3786,29.1423],[75.3814,29.1688],[75.4067,29.1699],[75.4144,29.1842],[75.4086,29.2131],[75.3967,29.2174],[75.4119,29.2428],[75.4089,29.251],[75.4073,29.2555],[75.4055,29.2604],[75.3759,29.2553],[75.3508,29.2253],[75.3282,29.2353],[75.346,29.2831],[75.3554,29.308],[75.3573,29.3085],[75.3985,29.3177],[75.4006,29.3418],[75.4159,29.3461],[75.4278,29.3685],[75.4388,29.3699],[75.4498,29.3531],[75.4739,29.3588],[75.4675,29.3667],[75.4715,29.375],[75.473,29.3783],[75.4761,29.3837],[75.4852,29.3886],[75.4965,29.3942],[75.4981,29.395],[75.5164,29.398],[75.5298,29.3626],[75.5808,29.3575],[75.5821,29.3575],[75.5903,29.3369],[75.605,29.3445],[75.5955,29.3607],[75.6153,29.3715],[75.616,29.4031],[75.6309,29.4167],[75.7103,29.4305],[75.7308,29.4175],[75.7241,29.405],[75.7381,29.3964],[75.7717,29.415],[75.7809,29.4375],[75.7519,29.4802],[75.762,29.5067],[75.8053,29.5216],[75.8398,29.5099],[75.8545,29.5259],[75.8582,29.5505],[75.8719,29.5559],[75.8768,29.5378],[75.8942,29.5364],[75.8945,29.5578],[75.9165,29.554],[75.9357,29.5797],[75.9364,29.5805],[75.9394,29.5775],[75.9638,29.5626]]]}},{"type":"Feature","properties":{"district":"Panipat","district_hi":"पानीपत"},"geometry":{"type":"Polygon","coordinates":[[[76.7607,29.4629],[76.7754,29.4745],[76.7913,29.4659],[76.7922,29.4678],[76.8181,29.5143],[76.8557,29.4899],[76.8811,29.4921],[76.9073,29.4675],[76.9156,29.4824],[76.9278,29.4826],[77.0078,29.4461],[77.0377,29.4518],[77.0487,29.4664],[77.0484,29.4491],[77.0658,29.4418],[77.068,29.441],[77.1202,29.4724],[77.1309,29.484],[77.1318,29.4845],[77.1321,29.4848],[77.1321,29.4842],[77.1233,29.4553],[77.1239,29.4551],[77.1263,29.4526],[77.1462,29.4359],[77.1483,29.4342],[77.144,29.4296],[77.1333,29.401],[77.1575,29.3875],[77.1266,29.3721],[77.1254,29.361],[77.1279,29.3496],[77.1508,29.3377],[77.1599,29.3331],[77.1611,29.3323],[77.1584,29.3029],[77.155,29.2972],[77.155,29.2969],[77.1538,29.2972],[77.1443,29.278],[77.1392,29.2672],[77.1388,29.2664],[77.1498,29.2328],[77.1315,29.2174],[77.1428,29.1909],[77.1431,29.1672],[77.1431,29.1669],[77.0973,29.1617],[77.0784,29.1796],[77.0597,29.1728],[77.0503,29.1845],[77.0289,29.1777],[76.9822,29.1885],[76.918,29.2193],[76.8756,29.192],[76.8111,29.2177],[76.7931,29.2507],[76.7961,29.2726],[76.7794,29.282],[76.7155,29.251],[76.7088,29.261],[76.7015,29.2618],[76.677,29.2804],[76.6401,29.2961],[76.6382,29.3002],[76.6416,29.3053],[76.6318,29.3148],[76.6483,29.3383],[76.6502,29.3669],[76.656,29.3694],[76.7345,29.3883],[76.7406,29.4067],[76.7311,29.4126],[76.7607,29.4629]]]}},{"type":"Feature","properties":{"district":"Sonipat","district_hi":"सोनीपत"},"geometry":{"type":"Polygon","coordinates":[[[76.9421,28.7984],[76.9318,28.7984],[76.9095,28.7982],[76.8939,28.7979],[76.8914,28.7979],[76.8835,28.809],[76.8472,28.8609],[76.8093,28.8676],[76.8258,28.9012],[76.8191,28.9312],[76.7891,28.9255],[76.7717,28.9382],[76.7751,28.9485],[76.7598,28.9655],[76.7424,28.9614],[76.7259,28.9717],[76.7366,29.0074],[76.7164,29.0239],[76.6526,29.0552],[76.5671,29.0588],[76.539,29.0979],[76.51,29.0771],[76.4776,29.0923],[76.4895,29.1369],[76.5121,29.1631],[76.4956,29.1782],[76.4745,29.238],[76.5252,29.2318],[76.5341,29.2139],[76.5597,29.2088],[76.5683,29.2264],[76.5542,29.2566],[76.561,29.281],[76.5973,29.2801],[76.6108,29.2891],[76.6535,29.2664],[76.6547,29.2664],[76.6789,29.2647],[76.677,29.2804],[76.7015,29.2618],[76.7088,29.261],[76.7155,29.251],[76.7794,29.282],[76.7961,29.2726],[76.7931,29.2507],[76.8111,29.2177],[76.8756,29.192],[76.918,29.2193],[76.9822,29.1885],[77.0289,29.1777],[77.0503,29.1845],[77.0597,29.1728],[77.0784,29.1796],[77.0973,29.1617],[77.1431,29.1669],[77.1434,29.1669],[77.1358,29.142],[77.1489,29.1174],[77.1489,29.1169],[77.134,29.0952],[77.1468,29.0806],[77.1639,29.0796],[77.1669,29.0339],[77.1892,29.0277],[77.2024,28.9871],[77.1969,28.9398],[77.2079,28.9336],[77.2256,28.9236],[77.2323,28.9198],[77.2317,28.9149],[77.228,28.8811],[77.1975,28.886],[77.1892,28.8679],[77.2149,28.8552],[77.2161,28.8528],[77.1755,28.8584],[77.1572,28.8368],[77.155,28.8371],[77.1437,28.8387],[77.1425,28.839],[77.1404,28.862],[77.1208,28.8584],[77.0826,28.8836],[77.0747,28.8676],[77.0579,28.8679],[77.0399,28.8319],[76.9971,28.8392],[76.9941,28.8387],[76.9803,28.8214],[76.98,28.8217],[76.9797,28.8211],[76.9669,28.8271],[76.966,28.8255],[76.9678,28.8125],[76.9516,28.8179],[76.9421,28.7984]]]}},{"type":"Feature","properties":{"district":"Bhiwani","district_hi":"भिवानी"},"geometry":{"type":"Polygon","coordinates":[[[75.9049,28.4327],[75.9028,28.4256],[75.8982,28.4094],[75.8927,28.3894],[75.8728,28.3865],[75.8557,28.3897],[75.8191,28.41],[75.8188,28.4097],[75.7827,28.4019],[75.7769,28.4005],[75.7668,28.4143],[75.7885,28.4335],[75.7882,28.4535],[75.7357,28.4689],[75.7393,28.4848],[75.7021,28.4919],[75.6706,28.5186],[75.6688,28.5249],[75.6709,28.5313],[75.6667,28.533],[75.6334,28.5443],[75.6221,28.6016],[75.6218,28.6019],[75.5616,28.6133],[75.5607,28.636],[75.5411,28.6606],[75.5399,28.7249],[75.5304,28.7381],[75.543,28.7503],[75.5304,28.7473],[75.5036,28.7825],[75.5204,28.8341],[75.4984,28.849],[75.4965,28.8963],[75.4742,28.926],[75.4773,28.9347],[75.5057,28.936],[75.5087,28.9414],[75.5115,28.942],[75.5112,28.9455],[75.5231,28.9668],[75.5262,28.9698],[75.5271,28.9706],[75.5274,28.9704],[75.5481,28.9663],[75.5848,28.9831],[75.6092,28.986],[75.6306,28.9779],[75.648,28.9376],[75.6624,28.9382],[75.6822,28.9109],[75.6914,28.9098],[75.7653,28.899],[75.769,28.8987],[75.7705,28.9006],[75.7891,28.9222],[75.7946,28.9241],[75.8322,28.9114],[75.8349,28.9133],[75.842,28.9176],[75.8475,28.9209],[75.8557,28.932],[75.8585,28.9358],[75.8588,28.9366],[75.8533,28.9525],[75.8857,28.9882],[75.8957,28.986],[75.9104,29.0206],[75.9611,29.0023],[75.9794,28.9952],[75.9791,28.9955],[75.9678,29.0631],[75.984,29.0812],[76.0118,29.0604],[76.0442,29.0661],[76.0451,29.0382],[76.0457,29.0379],[76.0509,29.0339],[76.0646,29.0236],[76.0659,29.0244],[76.0762,29.0317],[76.093,29.0436],[76.1315,29.0352],[76.137,29.0455],[76.1908,29.0509],[76.2067,29.0298],[76.1963,29.019],[76.2073,29.0033],[76.2097,29.0001],[76.2277,28.9901],[76.2287,28.9895],[76.2268,28.9852],[76.2125,28.9552],[76.2439,28.9414],[76.2357,28.9114],[76.3527,28.8952],[76.3652,28.8787],[76.334,28.8133],[76.3264,28.8122],[76.2922,28.8073],[76.2922,28.7852],[76.2778,28.7795],[76.272,28.7425],[76.2555,28.7411],[76.2381,28.7227],[76.2442,28.7057],[76.2308,28.696],[76.2326,28.6773],[76.1905,28.6827],[76.1776,28.6684],[76.1337,28.6873],[76.1242,28.6816],[76.1355,28.6657],[76.1327,28.6484],[76.1227,28.6514],[76.1211,28.6741],[76.0973,28.6808],[76.1056,28.6546],[76.0729,28.6676],[75.9562,28.6046],[75.8954,28.6081],[75.8536,28.59],[75.8478,28.587],[75.8499,28.5668],[75.8295,28.5486],[75.8197,28.5222],[75.8169,28.5116],[75.878,28.4905],[75.8808,28.514],[75.8966,28.5151],[75.8997,28.5154],[75.8988,28.5008],[75.9364,28.4951],[75.9336,28.4792],[75.8802,28.4889],[75.9095,28.4559],[75.911,28.4543],[75.9049,28.4327]]]}},{"type":"Feature","properties":{"district":"Rohtak","district_hi":"रोहतक"},"geometry":{"type":"Polygon","coordinates":[[[76.8835,28.809],[76.8695,28.8238],[76.8499,28.8076],[76.834,28.8103],[76.7794,28.743],[76.7571,28.7692],[76.7406,28.7568],[76.7155,28.7587],[76.7085,28.736],[76.6993,28.7357],[76.6868,28.7436],[76.6929,28.7636],[76.7082,28.7687],[76.7088,28.7871],[76.6706,28.796],[76.6697,28.8133],[76.6462,28.8368],[76.6447,28.8398],[76.644,28.839],[76.6407,28.836],[76.6315,28.8282],[76.6327,28.8263],[76.6453,28.8041],[76.6266,28.7892],[76.604,28.7922],[76.5946,28.7541],[76.5894,28.7476],[76.5784,28.7349],[76.5301,28.7511],[76.5231,28.7376],[76.4709,28.7411],[76.4556,28.7363],[76.4153,28.7235],[76.422,28.7017],[76.4199,28.7025],[76.4061,28.6825],[76.3908,28.6954],[76.3795,28.7052],[76.3814,28.7081],[76.3976,28.733],[76.374,28.7414],[76.3856,28.7827],[76.3264,28.8122],[76.334,28.8133],[76.3652,28.8787],[76.3527,28.8952],[76.2357,28.9114],[76.2439,28.9414],[76.2125,28.9552],[76.2268,28.9852],[76.2287,28.9895],[76.2277,28.9901],[76.2293,28.9893],[76.2445,29.0028],[76.2464,29.0044],[76.2448,29.0609],[76.283,29.0642],[76.3013,29.0866],[76.3017,29.0866],[76.3013,29.0861],[76.3502,29.0834],[76.3795,29.0658],[76.4028,29.0758],[76.4437,29.0555],[76.4733,29.0831],[76.4751,29.0896],[76.4776,29.0923],[76.51,29.0771],[76.539,29.0979],[76.5671,29.0588],[76.6526,29.0552],[76.7164,29.0239],[76.7366,29.0074],[76.7259,28.9717],[76.7424,28.9614],[76.7598,28.9655],[76.7751,28.9485],[76.7717,28.9382],[76.7891,28.9255],[76.8191,28.9312],[76.8258,28.9012],[76.8093,28.8676],[76.8472,28.8609],[76.8835,28.809]]]}},{"type":"Feature","properties":{"district":"Panchkula","district_hi":"पंचकूला"},"geometry":{"type":"MultiPolygon","coordinates":[[[[76.9113,30.4253],[76.9076,30.4255],[76.8985,30.4258],[76.9064,30.4358],[76.8866,30.4296],[76.8979,30.4455],[76.9055,30.4436],[76.9159,30.4393],[76.9104,30.4301],[76.9098,30.4296],[76.9098,30.4293],[76.9113,30.4253]]],[[[77.123,30.5634],[77.1217,30.5647],[77.1141,30.5542],[77.0872,30.5593],[77.0869,30.5588],[77.0759,30.5434],[77.042,30.5537],[77.0417,30.552],[77.0381,30.5393],[77.0521,30.5247],[77.0136,30.5061],[77.0133,30.4899],[76.9928,30.4758],[76.9699,30.4826],[76.9559,30.4677],[76.9373,30.472],[76.9208,30.4604],[76.9226,30.4482],[76.9073,30.4588],[76.9107,30.4636],[76.9122,30.4658],[76.9018,30.4839],[76.9312,30.5009],[76.9321,30.5223],[76.889,30.5491],[76.9049,30.5431],[76.9162,30.5537],[76.9089,30.5647],[76.9198,30.5853],[76.9098,30.592],[76.9202,30.5934],[76.926,30.6102],[76.9134,30.6115],[76.9101,30.6261],[76.8954,30.6291],[76.885,30.6453],[76.8713,30.6421],[76.8765,30.6804],[76.852,30.6588],[76.8456,30.6688],[76.8322,30.665],[76.8279,30.6804],[76.8273,30.6821],[76.827,30.6818],[76.8252,30.6883],[76.8475,30.7159],[76.8481,30.7275],[76.8475,30.7307],[76.8316,30.7396],[76.838,30.7548],[76.838,30.755],[76.8569,30.7948],[76.8453,30.8072],[76.8465,30.834],[76.8139,30.8432],[76.8148,30.8524],[76.7842,30.8778],[76.7766,30.9045],[76.7766,30.9043],[76.8224,30.9286],[76.841,30.8918],[76.8444,30.8894],[76.8695,30.8732],[76.9168,30.9008],[76.9174,30.8835],[76.9363,30.8745],[76.9513,30.8505],[76.9428,30.8175],[76.9684,30.8253],[77.0026,30.8064],[77.0112,30.8107],[77.0185,30.7802],[77.0011,30.7699],[77.0185,30.7653],[77.0237,30.7478],[77.0243,30.7486],[77.0277,30.7396],[77.0298,30.7337],[77.0478,30.738],[77.0506,30.7486],[77.0695,30.7377],[77.0973,30.7383],[77.1202,30.7204],[77.1673,30.684],[77.1633,30.651],[77.1767,30.6364],[77.1724,30.6012],[77.123,30.5634]]]]}},{"type":"Feature","properties":{"district":"Ambala","district_hi":"अंबाला"},"geometry":{"type":"MultiPolygon","coordinates":[[[[76.6385,30.1463],[76.6447,30.1279],[76.6352,30.1119],[76.644,30.1028],[76.6156,30.0746],[76.5946,30.0719],[76.5991,30.0838],[76.5768,30.1017],[76.5396,30.1082],[76.5457,30.1249],[76.5762,30.1101],[76.5994,30.1125],[76.6385,30.1463]]],[[[77.2085,30.4882],[77.2012,30.4815],[77.1721,30.455],[77.1676,30.439],[77.1697,30.4317],[77.1844,30.3809],[77.1782,30.3642],[77.1694,30.3682],[77.1633,30.3604],[77.1614,30.3582],[77.1605,30.3571],[77.1621,30.3577],[77.174,30.3393],[77.1779,30.3239],[77.1902,30.3141],[77.1669,30.3093],[77.1645,30.2963],[77.141,30.2887],[77.1395,30.2852],[77.1376,30.2809],[77.1327,30.2712],[77.1318,30.2431],[77.159,30.2341],[77.1614,30.2312],[77.1492,30.2114],[77.13,30.229],[77.0927,30.2252],[77.079,30.2141],[77.0781,30.1974],[77.1083,30.1817],[77.097,30.1593],[77.0717,30.163],[77.0704,30.163],[77.0692,30.1509],[77.0649,30.1263],[76.9907,30.1679],[76.9617,30.1525],[76.9409,30.1714],[76.9409,30.1733],[76.9608,30.1933],[76.925,30.2055],[76.9034,30.1898],[76.8835,30.199],[76.8902,30.2122],[76.8594,30.2322],[76.8676,30.2436],[76.8508,30.2549],[76.8429,30.2458],[76.8239,30.2514],[76.8233,30.2517],[76.8233,30.2514],[76.823,30.2512],[76.8172,30.2179],[76.7848,30.2149],[76.7635,30.192],[76.6874,30.1871],[76.6834,30.1868],[76.6801,30.1806],[76.6468,30.1525],[76.6428,30.1503],[76.6334,30.1671],[76.5998,30.1847],[76.6141,30.2044],[76.6364,30.1966],[76.6447,30.1874],[76.6288,30.1784],[76.6413,30.1695],[76.6556,30.1844],[76.6532,30.2012],[76.6156,30.209],[76.6272,30.2241],[76.5961,30.2374],[76.6037,30.2493],[76.6022,30.2504],[76.6004,30.252],[76.5961,30.2558],[76.5924,30.2533],[76.5854,30.2485],[76.5524,30.2255],[76.5503,30.2255],[76.5619,30.2414],[76.5597,30.2633],[76.5839,30.2704],[76.593,30.2617],[76.6144,30.2725],[76.6233,30.2647],[76.6355,30.2895],[76.6819,30.3112],[76.6886,30.3274],[76.7109,30.3258],[76.7488,30.3523],[76.7454,30.3679],[76.7198,30.3633],[76.7311,30.3798],[76.7189,30.3801],[76.717,30.3828],[76.7143,30.4007],[76.7143,30.402],[76.7198,30.4039],[76.7384,30.4107],[76.7396,30.4112],[76.7387,30.4128],[76.7412,30.4263],[76.7482,30.4293],[76.7772,30.4412],[76.7876,30.4336],[76.7772,30.4247],[76.7897,30.415],[76.8233,30.4115],[76.8469,30.4382],[76.856,30.4177],[76.8832,30.4088],[76.8808,30.3939],[76.8979,30.3823],[76.8902,30.3696],[76.9055,30.362],[76.9061,30.3623],[76.9379,30.3934],[76.9113,30.3998],[76.9137,30.4182],[76.9113,30.4253],[76.9098,30.4293],[76.9098,30.4296],[76.9104,30.4301],[76.9159,30.4393],[76.9055,30.4436],[76.8979,30.4455],[76.9037,30.4539],[76.907,30.4588],[76.9073,30.4588],[76.9226,30.4482],[76.9208,30.4604],[76.9373,30.472],[76.9559,30.4677],[76.9699,30.4826],[76.9928,30.4758],[77.0133,30.4899],[77.0136,30.5061],[77.0521,30.5247],[77.0381,30.5393],[77.0417,30.552],[77.042,30.5537],[77.0759,30.5434],[77.0869,30.5588],[77.0872,30.5593],[77.1141,30.5542],[77.1217,30.5647],[77.123,30.5634],[77.1227,30.5634],[77.1242,30.5612],[77.1352,30.5455],[77.1407,30.5437],[77.1929,30.5255],[77.207,30.5058],[77.2085,30.4882]]]]}}]}