{"type":"FeatureCollection","features":[{"type":"Feature","properties":{"district":"Lahaul and Spiti","district_hi":"लाहुल और स्पीति"},"geometry":{"type":"Polygon","coordinates":[[[78.6729,32.0785],[78.674,32.0756],[78.6718,32.0753],[78.6563,32.074],[78.6555,32.074],[78.645,32.0607],[78.6276,32.0672],[78.6132,32.0493],[78.5925,32.0678],[78.5079,32.0477],[78.449,32.06],[78.432,31.9779],[78.4584,31.9581],[78.4547,31.938],[78.4196,31.9348],[78.3999,31.9536],[78.3641,31.9598],[78.3407,31.9315],[78.201,31.9325],[78.1809,31.916],[78.1885,31.8728],[78.1885,31.8725],[78.1877,31.8718],[78.1802,31.866],[78.1749,31.8644],[78.1662,31.8615],[78.1617,31.8602],[78.1251,31.8683],[78.0892,31.8572],[78.0824,31.8462],[78.0964,31.8355],[78.0964,31.8352],[78.0952,31.8319],[78.0813,31.7885],[78.0805,31.7868],[78.0564,31.7836],[78.0292,31.7606],[78.0273,31.7589],[77.9971,31.7813],[77.9518,31.7881],[77.9506,31.7885],[77.9386,31.7534],[77.9374,31.7508],[77.931,31.7511],[77.9136,31.7515],[77.9084,31.7518],[77.9065,31.7531],[77.8993,31.755],[77.8634,31.7816],[77.8691,31.7826],[77.8476,31.8024],[77.8495,31.8329],[77.8381,31.8543],[77.8687,31.8864],[77.8045,31.9007],[77.7668,31.9432],[77.7981,31.987],[77.7724,32.0065],[77.7906,32.0188],[77.7638,32.0428],[77.7539,32.0753],[77.7441,32.0896],[77.743,32.0909],[77.6882,32.1016],[77.6524,32.1431],[77.572,32.1846],[77.5663,32.2044],[77.5467,32.2197],[77.5316,32.1953],[77.4693,32.2242],[77.4647,32.194],[77.4209,32.1898],[77.4039,32.2106],[77.3813,32.2122],[77.3541,32.2297],[77.345,32.2469],[77.3481,32.2605],[77.3435,32.282],[77.3322,32.3066],[77.3179,32.3225],[77.2427,32.3754],[77.2273,32.3702],[77.2001,32.3858],[77.1952,32.3984],[77.1521,32.4147],[77.1517,32.4147],[77.0868,32.3962],[77.0819,32.3945],[77.074,32.3984],[77.0736,32.3984],[77.0774,32.4176],[77.0777,32.4186],[77.0649,32.4186],[77.0551,32.4338],[76.9803,32.404],[76.9475,32.4033],[76.9471,32.427],[76.9086,32.4176],[76.9165,32.4351],[76.8988,32.4484],[76.9112,32.4646],[76.9105,32.4646],[76.8659,32.4637],[76.8599,32.4909],[76.8795,32.5126],[76.8671,32.5337],[76.8422,32.5243],[76.8278,32.5383],[76.7995,32.5315],[76.7946,32.5467],[76.7674,32.5451],[76.7515,32.5565],[76.7149,32.5383],[76.6998,32.5451],[76.6923,32.5649],[76.6749,32.5636],[76.6515,32.5827],[76.6292,32.5743],[76.6349,32.6051],[76.605,32.6045],[76.5949,32.6366],[76.5514,32.6567],[76.531,32.6564],[76.5227,32.6684],[76.4669,32.6522],[76.4442,32.658],[76.4435,32.6583],[76.4469,32.6742],[76.4257,32.6882],[76.4314,32.7086],[76.4027,32.7281],[76.4023,32.7284],[76.3898,32.7836],[76.3774,32.7975],[76.3793,32.8199],[76.4427,32.8559],[76.474,32.8209],[76.4699,32.8063],[76.4914,32.8021],[76.5767,32.8241],[76.6103,32.8517],[76.679,32.8465],[76.7108,32.8842],[76.7164,32.9179],[76.7334,32.9299],[76.7602,32.925],[76.7859,32.9523],[76.7704,32.9909],[76.7806,33.0172],[76.7655,33.0188],[76.7421,33.097],[76.7402,33.1045],[76.7451,33.1181],[76.7504,33.1606],[76.7478,33.1797],[76.7478,33.1807],[76.7474,33.1843],[76.7549,33.1937],[76.7749,33.2307],[76.7731,33.2424],[76.7719,33.2514],[76.7927,33.2566],[76.7946,33.2553],[76.8203,33.2362],[76.8308,33.2492],[76.8429,33.2466],[76.8433,33.2466],[76.8255,33.2154],[76.8342,33.205],[76.8176,33.194],[76.8169,33.1596],[76.8444,33.1376],[76.8554,33.1142],[76.8852,33.1217],[76.9094,33.0941],[76.9056,33.0788],[76.9331,33.0285],[76.9717,33.0003],[76.9924,33.0019],[77.0102,32.989],[77.049,32.999],[77.086,32.9724],[77.111,32.9753],[77.1163,32.9847],[77.1499,32.9782],[77.1491,32.9562],[77.1608,32.9529],[77.1638,32.937],[77.157,32.9117],[77.1702,32.9108],[77.1884,32.9289],[77.1989,32.9091],[77.2435,32.8926],[77.2371,32.8809],[77.2544,32.8637],[77.2741,32.8738],[77.276,32.8722],[77.3013,32.8498],[77.3228,32.8504],[77.3345,32.8258],[77.3386,32.817],[77.3473,32.8186],[77.373,32.8235],[77.373,32.8238],[77.3745,32.8546],[77.4055,32.8832],[77.4447,32.8796],[77.4523,32.8644],[77.4689,32.8585],[77.5014,32.8858],[77.5127,32.8773],[77.5391,32.8868],[77.5957,32.9273],[77.6022,32.9429],[77.6735,32.9611],[77.6826,32.9886],[77.7132,32.9825],[77.7196,32.9688],[77.7407,32.9692],[77.8109,32.9069],[77.7894,32.8906],[77.7811,32.8657],[77.826,32.8361],[77.8393,32.842],[77.8691,32.8271],[77.888,32.7988],[77.8842,32.7878],[77.9038,32.7719],[77.9257,32.7719],[77.9344,32.7258],[77.9185,32.6908],[77.9461,32.6616],[77.9707,32.6551],[77.9703,32.6467],[78.016,32.6197],[78.0469,32.645],[78.0613,32.6262],[78.0873,32.6243],[78.099,32.6304],[78.0926,32.6476],[78.1107,32.6625],[78.1473,32.6541],[78.1428,32.6817],[78.2195,32.6648],[78.2459,32.672],[78.2531,32.6911],[78.3123,32.7093],[78.304,32.7343],[78.3565,32.7576],[78.3878,32.757],[78.3943,32.7158],[78.3795,32.6684],[78.3875,32.6343],[78.4052,32.6194],[78.3478,32.5811],[78.3127,32.5736],[78.3154,32.5253],[78.2946,32.5042],[78.3263,32.4721],[78.3984,32.5256],[78.4105,32.5247],[78.4214,32.5104],[78.4611,32.4938],[78.4543,32.4523],[78.4822,32.4413],[78.4943,32.4218],[78.5347,32.4143],[78.5075,32.3692],[78.48,32.3481],[78.4819,32.2797],[78.4547,32.2424],[78.5551,32.2456],[78.6087,32.2145],[78.6091,32.1781],[78.5902,32.1535],[78.6148,32.1158],[78.6635,32.1025],[78.6729,32.0785]]]}},{"type":"Feature","properties":{"district":"Chamba","district_hi":"चंबा"},"geometry":{"type":"Polygon","coordinates":[[[76.7478,33.1797],[76.7504,33.1606],[76.7451,33.1181],[76.7402,33.1045],[76.7421,33.097],[76.7655,33.0188],[76.7806,33.0172],[76.7704,32.9909],[76.7859,32.9523],[76.7602,32.925],[76.7334,32.9299],[76.7164,32.9179],[76.7108,32.8842],[76.679,32.8465],[76.6103,32.8517],[76.5767,32.8241],[76.4914,32.8021],[76.4699,32.8063],[76.474,32.8209],[76.4427,32.8559],[76.3793,32.8199],[76.3774,32.7975],[76.3898,32.7836],[76.4023,32.7284],[76.4027,32.7281],[76.4314,32.7086],[76.4257,32.6882],[76.4469,32.6742],[76.4435,32.6583],[76.4442,32.658],[76.4669,32.6522],[76.5227,32.6684],[76.531,32.6564],[76.5514,32.6567],[76.5949,32.6366],[76.605,32.6045],[76.6349,32.6051],[76.6292,32.5743],[76.6515,32.5827],[76.6749,32.5636],[76.6923,32.5649],[76.6998,32.5451],[76.7149,32.5383],[76.7515,32.5565],[76.7674,32.5451],[76.7946,32.5467],[76.7995,32.5315],[76.8278,32.5383],[76.8422,32.5243],[76.8671,32.5337],[76.8795,32.5126],[76.8599,32.4909],[76.8659,32.4637],[76.8663,32.4627],[76.8199,32.4293],[76.7833,32.4023],[76.7833,32.4017],[76.7863,32.3722],[76.778,32.3631],[76.7768,32.3615],[76.7515,32.3582],[76.7851,32.3141],[76.7693,32.3073],[76.7791,32.2625],[76.7663,32.2502],[76.7753,32.2459],[76.7636,32.2086],[76.7353,32.1862],[76.7085,32.1999],[76.6666,32.1759],[76.6662,32.1755],[76.6122,32.1966],[76.5865,32.2229],[76.4997,32.2323],[76.4846,32.2502],[76.4631,32.2472],[76.4446,32.2638],[76.428,32.2609],[76.3963,32.2888],[76.3596,32.3215],[76.3551,32.3254],[76.2947,32.3374],[76.2822,32.3709],[76.2622,32.3738],[76.249,32.3942],[76.2218,32.3949],[76.1984,32.3679],[76.1675,32.3543],[76.1754,32.34],[76.1618,32.2998],[76.1905,32.2618],[76.1833,32.2349],[76.1811,32.2252],[76.1803,32.2226],[76.1769,32.2229],[76.175,32.2232],[76.1701,32.2236],[76.1701,32.2369],[76.1441,32.2236],[76.1233,32.2307],[76.124,32.256],[76.0923,32.2706],[76.0315,32.2687],[76.0312,32.269],[76.0164,32.2907],[76.0225,32.3342],[75.9711,32.3929],[75.9334,32.3916],[75.9326,32.3936],[75.9323,32.3942],[75.9017,32.4526],[75.8439,32.5039],[75.8364,32.5107],[75.836,32.511],[75.8333,32.5133],[75.839,32.5182],[75.876,32.5506],[75.8692,32.5636],[75.8809,32.5707],[75.8809,32.5863],[75.902,32.5928],[75.9187,32.633],[75.93,32.6314],[75.9368,32.6479],[75.9183,32.6447],[75.9092,32.6593],[75.89,32.6535],[75.8892,32.6531],[75.9243,32.7476],[75.8907,32.7829],[75.8839,32.8121],[75.8235,32.854],[75.8012,32.8855],[75.8012,32.8858],[75.802,32.8861],[75.8499,32.9299],[75.9247,32.9062],[75.9538,32.8734],[76.0319,32.9166],[76.044,32.9367],[76.0882,32.9562],[76.1116,32.988],[76.1123,33.0065],[76.1731,33.0133],[76.1829,33.0208],[76.2215,33.0211],[76.2475,33.0217],[76.2785,33.0379],[76.2962,33.0607],[76.2917,33.1032],[76.4102,33.1866],[76.4869,33.1794],[76.5696,33.2096],[76.6028,33.2063],[76.6186,33.1742],[76.6462,33.1622],[76.7153,33.1814],[76.747,33.1791],[76.7474,33.1797],[76.7478,33.1797]]]}},{"type":"Feature","properties":{"district":"Kangra","district_hi":"कांगड़ा"},"geometry":{"type":"Polygon","coordinates":[[[76.8659,32.4637],[76.9105,32.4646],[76.9112,32.4646],[76.8988,32.4484],[76.9165,32.4351],[76.9086,32.4176],[76.9471,32.427],[76.9475,32.4033],[76.9803,32.404],[77.0551,32.4338],[77.0649,32.4186],[77.0777,32.4186],[77.0774,32.4176],[77.0736,32.3984],[77.074,32.3984],[77.0596,32.3806],[77.0415,32.3423],[77.0698,32.3345],[77.0517,32.3079],[77.0332,32.2813],[77.0279,32.2654],[77.0283,32.2589],[77.0487,32.2177],[76.9977,32.1937],[76.9788,32.1324],[76.9849,32.1103],[76.9422,32.1136],[76.9422,32.1126],[76.9354,32.0623],[76.8576,32.0506],[76.8422,32.0389],[76.8021,32.0633],[76.8018,32.0704],[76.7878,32.0688],[76.7712,32.0636],[76.7312,32.0269],[76.7055,32.0367],[76.7051,32.0435],[76.6991,32.0474],[76.6836,32.0474],[76.6696,32.0402],[76.6666,32.0363],[76.6628,32.0133],[76.6874,31.9724],[76.696,31.9338],[76.673,31.9053],[76.6802,31.8709],[76.6556,31.8683],[76.6481,31.8718],[76.6387,31.8718],[76.639,31.8735],[76.596,31.8923],[76.5635,31.8877],[76.5571,31.8864],[76.5197,31.8426],[76.4669,31.829],[76.4752,31.8092],[76.457,31.8177],[76.4638,31.8047],[76.4442,31.7998],[76.4408,31.8115],[76.4352,31.7946],[76.4352,31.794],[76.4129,31.794],[76.4125,31.7862],[76.4129,31.7829],[76.4125,31.7833],[76.3963,31.7946],[76.3706,31.7726],[76.3547,31.792],[76.3249,31.7781],[76.2996,31.78],[76.3,31.7794],[76.3064,31.7631],[76.3189,31.7313],[76.3151,31.7255],[76.3128,31.7223],[76.3057,31.7116],[76.2898,31.6879],[76.2887,31.6859],[76.2879,31.6869],[76.2052,31.7677],[76.1814,31.7638],[76.1841,31.779],[76.1475,31.8001],[76.1101,31.7953],[76.1082,31.8225],[76.0897,31.8193],[76.0829,31.8407],[76.0682,31.8397],[76.0678,31.8397],[76.0425,31.8618],[76.018,31.866],[76.0142,31.8663],[75.9942,31.8517],[75.9919,31.8501],[75.9598,31.8569],[75.9104,31.95],[75.8684,31.9727],[75.8111,31.988],[75.8009,31.9935],[75.7986,31.9945],[75.7797,32.0049],[75.7507,32.0376],[75.7235,32.0331],[75.6615,32.0753],[75.6551,32.0772],[75.6506,32.0769],[75.6008,32.0707],[75.5947,32.0701],[75.5977,32.0821],[75.6008,32.0931],[75.6064,32.0944],[75.6147,32.0964],[75.6253,32.1181],[75.6612,32.1369],[75.6729,32.1587],[75.6638,32.1622],[75.6672,32.1775],[75.6589,32.1775],[75.6559,32.1973],[75.6242,32.1905],[75.6264,32.2154],[75.6389,32.2219],[75.6366,32.2313],[75.6178,32.2365],[75.6385,32.2521],[75.7707,32.2888],[75.7978,32.3248],[75.8152,32.3303],[75.8111,32.3485],[75.8443,32.3559],[75.8473,32.3738],[75.8737,32.3955],[75.8741,32.3958],[75.9323,32.3942],[75.9326,32.3936],[75.9334,32.3916],[75.9711,32.3929],[76.0225,32.3342],[76.0164,32.2907],[76.0312,32.269],[76.0315,32.2687],[76.0923,32.2706],[76.124,32.256],[76.1233,32.2307],[76.1441,32.2236],[76.1701,32.2369],[76.1701,32.2236],[76.175,32.2232],[76.1769,32.2229],[76.1803,32.2226],[76.1811,32.2252],[76.1833,32.2349],[76.1905,32.2618],[76.1618,32.2998],[76.1754,32.34],[76.1675,32.3543],[76.1984,32.3679],[76.2218,32.3949],[76.249,32.3942],[76.2622,32.3738],[76.2822,32.3709],[76.2947,32.3374],[76.3551,32.3254],[76.3596,32.3215],[76.3963,32.2888],[76.428,32.2609],[76.4446,32.2638],[76.4631,32.2472],[76.4846,32.2502],[76.4997,32.2323],[76.5865,32.2229],[76.6122,32.1966],[76.6662,32.1755],[76.6666,32.1759],[76.7085,32.1999],[76.7353,32.1862],[76.7636,32.2086],[76.7753,32.2459],[76.7663,32.2502],[76.7791,32.2625],[76.7693,32.3073],[76.7851,32.3141],[76.7515,32.3582],[76.7768,32.3615],[76.778,32.3631],[76.7863,32.3722],[76.7833,32.4017],[76.7833,32.4023],[76.8199,32.4293],[76.8663,32.4627],[76.8659,32.4637]]]}},{"type":"Feature","properties":{"district":"Kullu","district_hi":"कुल्लू"},"geometry":{"type":"Polygon","coordinates":[[[77.074,32.3984],[77.0819,32.3945],[77.0868,32.3962],[77.1517,32.4147],[77.1521,32.4147],[77.1952,32.3984],[77.2001,32.3858],[77.2273,32.3702],[77.2427,32.3754],[77.3179,32.3225],[77.3322,32.3066],[77.3435,32.282],[77.3481,32.2605],[77.345,32.2469],[77.3541,32.2297],[77.3813,32.2122],[77.4039,32.2106],[77.4209,32.1898],[77.4647,32.194],[77.4693,32.2242],[77.5316,32.1953],[77.5467,32.2197],[77.5663,32.2044],[77.572,32.1846],[77.6524,32.1431],[77.6882,32.1016],[77.743,32.0909],[77.7441,32.0896],[77.7539,32.0753],[77.7638,32.0428],[77.7906,32.0188],[77.7724,32.0065],[77.7981,31.987],[77.7668,31.9432],[77.8045,31.9007],[77.8687,31.8864],[77.8381,31.8543],[77.8495,31.8329],[77.8476,31.8024],[77.8691,31.7826],[77.8634,31.7816],[77.8608,31.7836],[77.8604,31.781],[77.8544,31.7563],[77.854,31.7547],[77.8075,31.7612],[77.786,31.7524],[77.7641,31.7618],[77.7498,31.7485],[77.7479,31.7138],[77.7426,31.7129],[77.678,31.7031],[77.646,31.6626],[77.6626,31.6337],[77.6456,31.6152],[77.6486,31.5831],[77.6988,31.5422],[77.7071,31.5016],[77.6694,31.4627],[77.6278,31.4513],[77.621,31.4267],[77.6335,31.401],[77.629,31.39],[77.5961,31.3991],[77.5538,31.3903],[77.5172,31.3482],[77.4881,31.3553],[77.4292,31.3404],[77.3983,31.3615],[77.3828,31.3602],[77.3828,31.3605],[77.3858,31.4082],[77.3854,31.4121],[77.3292,31.4559],[77.316,31.5328],[77.299,31.5519],[77.3028,31.6681],[77.2571,31.7099],[77.2137,31.7255],[77.188,31.819],[77.1733,31.8235],[77.1778,31.8417],[77.0978,31.8387],[77.0819,31.8271],[77.0774,31.8371],[77.0577,31.8378],[77.0589,31.8595],[76.9747,31.9812],[76.9724,32.0159],[76.9388,32.0425],[76.9388,32.0428],[76.9384,32.0428],[76.9384,32.0438],[76.9354,32.0623],[76.9422,32.1126],[76.9422,32.1136],[76.9849,32.1103],[76.9788,32.1324],[76.9977,32.1937],[77.0487,32.2177],[77.0283,32.2589],[77.0279,32.2654],[77.0332,32.2813],[77.0517,32.3079],[77.0698,32.3345],[77.0415,32.3423],[77.0596,32.3806],[77.074,32.3984]]]}},{"type":"Feature","properties":{"district":"Mandi","district_hi":"मंडी"},"geometry":{"type":"Polygon","coordinates":[[[76.6387,31.8718],[76.6481,31.8718],[76.6556,31.8683],[76.6802,31.8709],[76.673,31.9053],[76.696,31.9338],[76.6874,31.9724],[76.6628,32.0133],[76.6666,32.0363],[76.6696,32.0402],[76.6836,32.0474],[76.6991,32.0474],[76.7051,32.0435],[76.7055,32.0367],[76.7312,32.0269],[76.7712,32.0636],[76.7878,32.0688],[76.8018,32.0704],[76.8021,32.0633],[76.8422,32.0389],[76.8576,32.0506],[76.9354,32.0623],[76.9384,32.0438],[76.9384,32.0428],[76.9388,32.0428],[76.9388,32.0425],[76.9724,32.0159],[76.9747,31.9812],[77.0589,31.8595],[77.0577,31.8378],[77.0774,31.8371],[77.0819,31.8271],[77.0978,31.8387],[77.1778,31.8417],[77.1733,31.8235],[77.188,31.819],[77.2137,31.7255],[77.2571,31.7099],[77.3028,31.6681],[77.299,31.5519],[77.316,31.5328],[77.3292,31.4559],[77.3854,31.4121],[77.3858,31.4082],[77.3828,31.3605],[77.3707,31.3595],[77.3658,31.3556],[77.3526,31.3439],[77.3447,31.3371],[77.3337,31.2943],[77.3054,31.2683],[77.2812,31.2638],[77.2684,31.2726],[77.2454,31.2511],[77.2197,31.2612],[77.1993,31.2421],[77.1903,31.2537],[77.1548,31.2307],[77.14,31.2297],[77.1287,31.2301],[77.1253,31.2479],[77.1238,31.2479],[77.1238,31.2489],[77.0864,31.2492],[77.074,31.258],[77.0528,31.2651],[77.0305,31.2729],[76.9418,31.3329],[76.943,31.3443],[76.9207,31.365],[76.8761,31.3508],[76.8754,31.3508],[76.8637,31.378],[76.8814,31.3842],[76.8758,31.4134],[76.8021,31.4208],[76.8021,31.4212],[76.8018,31.4215],[76.7991,31.4439],[76.7923,31.4507],[76.798,31.453],[76.7957,31.475],[76.7821,31.4799],[76.7836,31.5013],[76.7697,31.5146],[76.7659,31.5179],[76.7308,31.5166],[76.7372,31.524],[76.7225,31.5406],[76.7232,31.5406],[76.7225,31.5409],[76.7315,31.5419],[76.7312,31.5617],[76.727,31.5626],[76.7308,31.5805],[76.7308,31.5814],[76.7145,31.6288],[76.7145,31.6295],[76.7183,31.6434],[76.724,31.6648],[76.721,31.6665],[76.6926,31.683],[76.687,31.6862],[76.69,31.695],[76.6889,31.6996],[76.6707,31.72],[76.6723,31.7346],[76.6383,31.7466],[76.6228,31.7907],[76.6205,31.7985],[76.6379,31.8718],[76.6387,31.8718]]]}},{"type":"Feature","properties":{"district":"Kinnaur","district_hi":"किन्नौर"},"geometry":{"type":"Polygon","coordinates":[[[77.8634,31.7816],[77.8993,31.755],[77.9065,31.7531],[77.9084,31.7518],[77.9136,31.7515],[77.931,31.7511],[77.9374,31.7508],[77.9386,31.7534],[77.9506,31.7885],[77.9518,31.7881],[77.9971,31.7813],[78.0273,31.7589],[78.0292,31.7606],[78.0564,31.7836],[78.0805,31.7868],[78.0813,31.7885],[78.0952,31.8319],[78.0964,31.8352],[78.0964,31.8355],[78.0824,31.8462],[78.0892,31.8572],[78.1251,31.8683],[78.1617,31.8602],[78.1662,31.8615],[78.1749,31.8644],[78.1802,31.866],[78.1877,31.8718],[78.1885,31.8725],[78.1885,31.8728],[78.1809,31.916],[78.201,31.9325],[78.3407,31.9315],[78.3641,31.9598],[78.3999,31.9536],[78.4196,31.9348],[78.4547,31.938],[78.4584,31.9581],[78.432,31.9779],[78.449,32.06],[78.5079,32.0477],[78.5925,32.0678],[78.6132,32.0493],[78.6276,32.0672],[78.645,32.0607],[78.6555,32.074],[78.6563,32.074],[78.6718,32.0753],[78.674,32.0756],[78.6729,32.0785],[78.6767,32.0876],[78.7057,32.0665],[78.7344,32.0042],[78.7813,31.9932],[78.7737,31.9744],[78.7813,31.9653],[78.7658,31.9546],[78.7714,31.9289],[78.7416,31.9014],[78.7499,31.8738],[78.745,31.8394],[78.7027,31.8073],[78.7057,31.7739],[78.7258,31.7583],[78.7295,31.733],[78.7541,31.6953],[78.7503,31.6814],[78.7639,31.6746],[78.7986,31.6824],[78.8016,31.648],[78.8409,31.623],[78.8469,31.6084],[78.7756,31.5438],[78.7612,31.549],[78.7348,31.536],[78.7224,31.513],[78.725,31.4838],[78.7586,31.4825],[78.7786,31.4513],[78.7979,31.4436],[78.7609,31.4007],[78.7495,31.366],[78.7692,31.3504],[78.7692,31.3245],[78.7914,31.3047],[78.853,31.2953],[78.8515,31.3108],[78.8617,31.3164],[78.876,31.3031],[78.8813,31.2842],[78.8821,31.281],[78.8858,31.269],[78.8862,31.2687],[78.916,31.2486],[78.9277,31.22],[78.9289,31.2171],[78.9478,31.2168],[78.944,31.2067],[78.9576,31.1866],[78.9859,31.1739],[78.9874,31.1434],[79.0089,31.11],[78.9508,31.098],[78.9206,31.1107],[78.9085,31.099],[78.8855,31.0987],[78.8311,31.1408],[78.825,31.1635],[78.8107,31.172],[78.8175,31.1898],[78.8099,31.1983],[78.765,31.1859],[78.6718,31.197],[78.6582,31.1853],[78.6472,31.2148],[78.6095,31.2294],[78.5781,31.2252],[78.5517,31.1999],[78.4837,31.1989],[78.4566,31.2398],[78.4558,31.2411],[78.4483,31.246],[78.4354,31.2537],[78.4343,31.2547],[78.4071,31.2424],[78.3962,31.2752],[78.3962,31.2755],[78.3863,31.2716],[78.3743,31.2826],[78.3705,31.2865],[78.3395,31.2794],[78.3289,31.2784],[78.3112,31.2833],[78.3112,31.2829],[78.3044,31.2859],[78.2942,31.2904],[78.2942,31.2911],[78.3021,31.3154],[78.2916,31.3261],[78.2576,31.3267],[78.2376,31.3417],[78.2115,31.3242],[78.1624,31.3443],[78.1504,31.3608],[78.1632,31.3832],[78.1017,31.4192],[78.0545,31.4176],[78.022,31.3991],[77.971,31.402],[77.9657,31.4023],[77.9608,31.4082],[77.9344,31.4234],[77.9269,31.4231],[77.8978,31.4445],[77.8974,31.4449],[77.8967,31.4455],[77.8812,31.4698],[77.8812,31.49],[77.8683,31.5013],[77.8589,31.5094],[77.8396,31.5058],[77.8381,31.5805],[77.8121,31.6097],[77.8234,31.6347],[77.8128,31.6626],[77.7928,31.6742],[77.7721,31.7054],[77.7479,31.7135],[77.7479,31.7138],[77.7498,31.7485],[77.7641,31.7618],[77.786,31.7524],[77.8075,31.7612],[77.854,31.7547],[77.8544,31.7563],[77.8604,31.781],[77.8608,31.7836],[77.8634,31.7816]]]}},{"type":"Feature","properties":{"district":"Una","district_hi":"ऊना"},"geometry":{"type":"Polygon","coordinates":[[[75.9598,31.8569],[75.9919,31.8501],[75.9942,31.8517],[76.0142,31.8663],[76.018,31.866],[76.0425,31.8618],[76.0678,31.8397],[76.0682,31.8397],[76.0829,31.8407],[76.0897,31.8193],[76.1082,31.8225],[76.1101,31.7953],[76.1475,31.8001],[76.1841,31.779],[76.1814,31.7638],[76.2052,31.7677],[76.2879,31.6869],[76.2887,31.6859],[76.2898,31.6879],[76.3057,31.7116],[76.3128,31.7223],[76.3185,31.7135],[76.3645,31.6421],[76.3993,31.61],[76.4008,31.6084],[76.408,31.5918],[76.4503,31.5026],[76.4631,31.4877],[76.4616,31.487],[76.4506,31.4818],[76.4718,31.4552],[76.4623,31.4439],[76.4793,31.4419],[76.4699,31.4377],[76.4725,31.4202],[76.4253,31.4079],[76.3963,31.4244],[76.3955,31.4221],[76.3921,31.4127],[76.3906,31.4085],[76.3747,31.4358],[76.3679,31.404],[76.3309,31.4014],[76.3294,31.3787],[76.3415,31.378],[76.3423,31.3547],[76.3544,31.3449],[76.3075,31.3426],[76.3226,31.3216],[76.2902,31.307],[76.2894,31.307],[76.2754,31.3011],[76.269,31.3131],[76.2003,31.3024],[76.1807,31.3063],[76.1799,31.307],[76.1788,31.3404],[76.1524,31.3521],[76.149,31.3563],[76.1475,31.3748],[76.1478,31.3787],[76.1686,31.3962],[76.1686,31.4098],[76.1331,31.452],[76.1308,31.4711],[76.1169,31.4831],[76.1207,31.4977],[76.0561,31.5857],[76.0553,31.6058],[76.0463,31.6032],[76.0176,31.6321],[76.0183,31.6489],[76.0089,31.6535],[75.9602,31.7813],[75.9368,31.8154],[75.9677,31.8235],[75.9787,31.8131],[75.9821,31.8154],[75.984,31.8164],[75.9866,31.818],[75.981,31.8219],[75.9598,31.8569]]]}},{"type":"Feature","properties":{"district":"Shimla","district_hi":"शिमला"},"geometry":{"type":"Polygon","coordinates":[[[77.3828,31.3605],[77.3828,31.3602],[77.3983,31.3615],[77.4292,31.3404],[77.4881,31.3553],[77.5172,31.3482],[77.5538,31.3903],[77.5961,31.3991],[77.629,31.39],[77.6335,31.401],[77.621,31.4267],[77.6278,31.4513],[77.6694,31.4627],[77.7071,31.5016],[77.6988,31.5422],[77.6486,31.5831],[77.6456,31.6152],[77.6626,31.6337],[77.646,31.6626],[77.678,31.7031],[77.7426,31.7129],[77.7479,31.7138],[77.7479,31.7135],[77.7721,31.7054],[77.7928,31.6742],[77.8128,31.6626],[77.8234,31.6347],[77.8121,31.6097],[77.8381,31.5805],[77.8396,31.5058],[77.8589,31.5094],[77.8683,31.5013],[77.8812,31.49],[77.8812,31.4698],[77.8967,31.4455],[77.8974,31.4449],[77.8978,31.4445],[77.9269,31.4231],[77.9344,31.4234],[77.9608,31.4082],[77.9657,31.4023],[77.971,31.402],[78.022,31.3991],[78.0545,31.4176],[78.1017,31.4192],[78.1632,31.3832],[78.1504,31.3608],[78.1624,31.3443],[78.2115,31.3242],[78.2376,31.3417],[78.2576,31.3267],[78.2916,31.3261],[78.3021,31.3154],[78.2942,31.2911],[78.2942,31.2904],[78.3044,31.2859],[78.3112,31.2829],[78.3108,31.2826],[78.3063,31.2599],[78.2829,31.2664],[78.2463,31.2307],[78.2202,31.234],[78.2047,31.2206],[78.1949,31.2216],[78.1602,31.2255],[78.1035,31.1856],[78.0428,31.1785],[78.0303,31.1509],[78.0009,31.1619],[77.9846,31.1571],[77.9673,31.1736],[77.925,31.1506],[77.8985,31.1502],[77.8906,31.1217],[77.8638,31.1087],[77.8513,31.0733],[77.8381,31.0727],[77.8242,31.0555],[77.8113,31.0591],[77.8294,31.0295],[77.8298,31.0289],[77.8162,31.0308],[77.8075,31.0162],[77.8249,31.0097],[77.8317,30.9942],[77.8143,30.9617],[77.8378,30.9533],[77.817,30.9539],[77.814,30.9539],[77.786,30.9676],[77.7721,30.9741],[77.7592,30.9627],[77.7494,30.9526],[77.7626,30.9183],[77.8132,30.9218],[77.8151,30.9043],[77.8015,30.8933],[77.8057,30.8534],[77.7792,30.8605],[77.7736,30.8777],[77.7581,30.8767],[77.7441,30.8465],[77.7611,30.8261],[77.7037,30.7641],[77.6588,30.807],[77.6241,30.8099],[77.6003,30.7794],[77.5467,30.7742],[77.5485,30.8005],[77.5297,30.7998],[77.521,30.7859],[77.4923,30.7953],[77.4915,30.8427],[77.4787,30.8647],[77.4515,30.8631],[77.4353,30.8751],[77.4379,30.8894],[77.4179,30.929],[77.4432,30.9449],[77.4394,30.9793],[77.3794,31.0208],[77.3696,31.0055],[77.3364,30.9984],[77.3013,30.9676],[77.2982,30.953],[77.2665,30.941],[77.2473,30.9176],[77.2469,30.9189],[77.2393,30.9397],[77.2495,30.9478],[77.2042,30.9676],[77.2114,30.9874],[77.1974,31.0029],[77.171,31.0117],[77.1642,30.9997],[77.1189,31.0315],[77.1019,31.0295],[77.0668,31.048],[77.0879,31.0662],[77.0808,31.0818],[77.0551,31.0847],[77.0358,31.0672],[77.0241,31.085],[77.054,31.0999],[77.0483,31.1142],[76.9977,31.1032],[76.9924,31.1084],[76.992,31.1087],[76.989,31.1116],[77.0117,31.1142],[77.0102,31.1347],[77.0355,31.1522],[77.0332,31.1785],[77.0015,31.196],[77.0211,31.2213],[77.0034,31.2453],[77.0305,31.2729],[77.0528,31.2651],[77.074,31.258],[77.0864,31.2492],[77.1238,31.2489],[77.1238,31.2479],[77.1253,31.2479],[77.1287,31.2301],[77.14,31.2297],[77.1548,31.2307],[77.1903,31.2537],[77.1993,31.2421],[77.2197,31.2612],[77.2454,31.2511],[77.2684,31.2726],[77.2812,31.2638],[77.3054,31.2683],[77.3337,31.2943],[77.3447,31.3371],[77.3526,31.3439],[77.3658,31.3556],[77.3707,31.3595],[77.3828,31.3605]]]}},{"type":"Feature","properties":{"district":"Solan","district_hi":"सोलन"},"geometry":{"type":"Polygon","coordinates":[[[76.8761,31.3508],[76.9207,31.365],[76.943,31.3443],[76.9418,31.3329],[77.0305,31.2729],[77.0034,31.2453],[77.0211,31.2213],[77.0015,31.196],[77.0332,31.1785],[77.0355,31.1522],[77.0102,31.1347],[77.0117,31.1142],[76.989,31.1116],[76.992,31.1087],[76.9924,31.1084],[76.9977,31.1032],[77.0483,31.1142],[77.054,31.0999],[77.0241,31.085],[77.0358,31.0672],[77.0551,31.0847],[77.0808,31.0818],[77.0879,31.0662],[77.0668,31.048],[77.1019,31.0295],[77.1189,31.0315],[77.1642,30.9997],[77.171,31.0117],[77.1974,31.0029],[77.2114,30.9874],[77.2042,30.9676],[77.2495,30.9478],[77.2393,30.9397],[77.2469,30.9189],[77.2454,30.9176],[77.2318,30.9017],[77.231,30.9011],[77.2155,30.902],[77.2152,30.9017],[77.2057,30.8887],[77.2137,30.8787],[77.1831,30.8605],[77.1872,30.8508],[77.1691,30.842],[77.1536,30.8566],[77.1147,30.8511],[77.1049,30.8332],[77.0879,30.8303],[77.0834,30.792],[77.0272,30.7538],[77.0234,30.7512],[77.0241,30.7486],[77.0238,30.7476],[77.0185,30.7654],[77.0011,30.77],[77.0185,30.78],[77.0113,30.8109],[77.0026,30.8063],[76.9683,30.8255],[76.9426,30.8173],[76.9513,30.8504],[76.9365,30.8748],[76.9173,30.8835],[76.9169,30.9007],[76.8697,30.8732],[76.8444,30.8894],[76.841,30.8916],[76.8225,30.9286],[76.7768,30.9043],[76.7765,30.9046],[76.7704,30.9101],[76.747,30.9332],[76.7376,30.9397],[76.7327,30.9377],[76.7353,30.9449],[76.71,30.9695],[76.7096,30.9698],[76.6734,30.9689],[76.6247,30.9987],[76.6292,31.0234],[76.6111,31.0458],[76.6228,31.0552],[76.6179,31.0782],[76.6387,31.1081],[76.636,31.1165],[76.602,31.1236],[76.6122,31.1483],[76.6017,31.1532],[76.6092,31.1733],[76.6001,31.1785],[76.6454,31.209],[76.6908,31.2158],[76.7327,31.2408],[76.7787,31.2155],[76.7931,31.2262],[76.8388,31.231],[76.8395,31.231],[76.872,31.22],[76.8754,31.2203],[76.8659,31.2456],[76.8724,31.2622],[76.8946,31.2654],[76.8916,31.2742],[76.9131,31.2833],[76.9279,31.304],[76.8773,31.3274],[76.8784,31.329],[76.8829,31.3355],[76.8735,31.3488],[76.8765,31.3498],[76.8761,31.3508]]]}},{"type":"Feature","properties":{"district":"Sirmaur","district_hi":"सिरमौर"},"geometry":{"type":"Polygon","coordinates":[[[77.2469,30.9189],[77.2473,30.9176],[77.2665,30.941],[77.2982,30.953],[77.3013,30.9676],[77.3364,30.9984],[77.3696,31.0055],[77.3794,31.0208],[77.4394,30.9793],[77.4432,30.9449],[77.4179,30.929],[77.4379,30.8894],[77.4353,30.8751],[77.4515,30.8631],[77.4787,30.8647],[77.4915,30.8427],[77.4923,30.7953],[77.521,30.7859],[77.5297,30.7998],[77.5485,30.8005],[77.5467,30.7742],[77.6003,30.7794],[77.6241,30.8099],[77.6588,30.807],[77.7037,30.7641],[77.7026,30.746],[77.7067,30.7447],[77.7173,30.7408],[77.7264,30.7379],[77.743,30.7229],[77.7543,30.7087],[77.7558,30.7067],[77.7475,30.6798],[77.7913,30.6593],[77.7811,30.6467],[77.7958,30.6146],[77.7709,30.6165],[77.7717,30.597],[77.746,30.6038],[77.7434,30.5935],[77.743,30.5931],[77.7739,30.5578],[77.8177,30.561],[77.8268,30.5283],[77.8238,30.5218],[77.8162,30.5059],[77.7211,30.4731],[77.6901,30.4481],[77.6524,30.4481],[77.6433,30.4319],[77.5961,30.4273],[77.595,30.4267],[77.5889,30.4228],[77.5731,30.4124],[77.5731,30.4118],[77.5742,30.4046],[77.5746,30.4007],[77.575,30.4007],[77.5806,30.3793],[77.581,30.3777],[77.5693,30.3845],[77.5531,30.3936],[77.5504,30.3949],[77.5233,30.4436],[77.5066,30.4277],[77.5025,30.4046],[77.4893,30.4105],[77.4432,30.3955],[77.4224,30.4098],[77.4591,30.4329],[77.4564,30.4556],[77.4047,30.4085],[77.3979,30.4163],[77.4073,30.427],[77.387,30.44],[77.3643,30.4325],[77.3541,30.4582],[77.3209,30.4458],[77.2956,30.4666],[77.2771,30.4643],[77.2767,30.4643],[77.2763,30.4653],[77.2639,30.4812],[77.2265,30.4806],[77.2118,30.4656],[77.2106,30.4647],[77.2084,30.488],[77.2069,30.5059],[77.1929,30.5257],[77.1404,30.5435],[77.1351,30.5454],[77.1242,30.5613],[77.1227,30.5633],[77.123,30.5633],[77.1721,30.6013],[77.1767,30.6363],[77.1634,30.6509],[77.1672,30.684],[77.1204,30.7203],[77.0974,30.7382],[77.0698,30.7375],[77.0506,30.7486],[77.0479,30.7382],[77.0298,30.7336],[77.0275,30.7395],[77.0241,30.7486],[77.0234,30.7512],[77.0272,30.7538],[77.0834,30.792],[77.0879,30.8303],[77.1049,30.8332],[77.1147,30.8511],[77.1536,30.8566],[77.1691,30.842],[77.1872,30.8508],[77.1831,30.8605],[77.2137,30.8787],[77.2057,30.8887],[77.2152,30.9017],[77.2155,30.902],[77.231,30.9011],[77.2318,30.9017],[77.2454,30.9176],[77.2469,30.9189]]]}},{"type":"Feature","properties":{"district":"Hamirpur","district_hi":"हमीरपुर"},"geometry":{"type":"Polygon","coordinates":[[[76.3128,31.7223],[76.3151,31.7255],[76.3189,31.7313],[76.3064,31.7631],[76.3,31.7794],[76.2996,31.78],[76.3249,31.7781],[76.3547,31.792],[76.3706,31.7726],[76.3963,31.7946],[76.4125,31.7833],[76.4129,31.7829],[76.4125,31.7862],[76.4129,31.794],[76.4352,31.794],[76.4352,31.7946],[76.4408,31.8115],[76.4442,31.7998],[76.4638,31.8047],[76.457,31.8177],[76.4752,31.8092],[76.4669,31.829],[76.5197,31.8426],[76.5571,31.8864],[76.5635,31.8877],[76.596,31.8923],[76.639,31.8735],[76.6387,31.8718],[76.6379,31.8718],[76.6205,31.7985],[76.6228,31.7907],[76.6383,31.7466],[76.6723,31.7346],[76.6707,31.72],[76.6889,31.6996],[76.69,31.695],[76.687,31.6862],[76.6926,31.683],[76.721,31.6665],[76.724,31.6648],[76.7183,31.6434],[76.7145,31.6295],[76.7145,31.6288],[76.7308,31.5814],[76.7191,31.5883],[76.7066,31.5954],[76.7062,31.5951],[76.6617,31.5776],[76.647,31.584],[76.6198,31.5746],[76.6073,31.4776],[76.6258,31.4426],[76.6122,31.4299],[76.6137,31.4218],[76.6111,31.4173],[76.562,31.4286],[76.531,31.4633],[76.5235,31.4643],[76.5148,31.4653],[76.4797,31.4692],[76.4616,31.487],[76.4631,31.4877],[76.4503,31.5026],[76.408,31.5918],[76.4008,31.6084],[76.3993,31.61],[76.3645,31.6421],[76.3185,31.7135],[76.3128,31.7223]]]}},{"type":"Feature","properties":{"district":"Bilaspur","district_hi":"बिलासपुर"},"geometry":{"type":"Polygon","coordinates":[[[76.7308,31.5814],[76.7308,31.5805],[76.727,31.5626],[76.7312,31.5617],[76.7315,31.5419],[76.7225,31.5409],[76.7232,31.5406],[76.7225,31.5406],[76.7372,31.524],[76.7308,31.5166],[76.7659,31.5179],[76.7697,31.5146],[76.7836,31.5013],[76.7821,31.4799],[76.7957,31.475],[76.798,31.453],[76.7923,31.4507],[76.7991,31.4439],[76.8018,31.4215],[76.8021,31.4212],[76.8021,31.4208],[76.8758,31.4134],[76.8814,31.3842],[76.8637,31.378],[76.8754,31.3508],[76.8761,31.3508],[76.8765,31.3498],[76.8735,31.3488],[76.8829,31.3355],[76.8784,31.329],[76.8773,31.3274],[76.9279,31.304],[76.9131,31.2833],[76.8916,31.2742],[76.8946,31.2654],[76.8724,31.2622],[76.8659,31.2456],[76.8754,31.2203],[76.872,31.22],[76.8395,31.231],[76.8388,31.231],[76.7931,31.2262],[76.7787,31.2155],[76.7327,31.2408],[76.6908,31.2158],[76.6454,31.209],[76.6345,31.2177],[76.6417,31.2226],[76.6277,31.2265],[76.5933,31.2116],[76.5884,31.2229],[76.6122,31.2479],[76.5877,31.2742],[76.5862,31.2735],[76.5492,31.2528],[76.5514,31.2787],[76.5428,31.2826],[76.5394,31.2612],[76.5239,31.2583],[76.5273,31.2771],[76.4974,31.2706],[76.4797,31.3083],[76.4397,31.2791],[76.4638,31.3014],[76.4318,31.3267],[76.3925,31.3897],[76.4034,31.3968],[76.3921,31.4127],[76.3955,31.4221],[76.3963,31.4244],[76.4253,31.4079],[76.4725,31.4202],[76.4699,31.4377],[76.4793,31.4419],[76.4623,31.4439],[76.4718,31.4552],[76.4506,31.4818],[76.4616,31.487],[76.4797,31.4692],[76.5148,31.4653],[76.5235,31.4643],[76.531,31.4633],[76.562,31.4286],[76.6111,31.4173],[76.6137,31.4218],[76.6122,31.4299],[76.6258,31.4426],[76.6073,31.4776],[76.6198,31.5746],[76.647,31.584],[76.6617,31.5776],[76.7062,31.5951],[76.7066,31.5954],[76.7191,31.5883],[76.7308,31.5814]]]}}]}