{"type":"FeatureCollection","features":[{"type":"Feature","properties":{"district":"Kupwara","district_hi":"कुपवाड़ा"},"geometry":{"type":"Polygon","coordinates":[[[74.5953,34.6982],[74.549,34.6184],[74.5476,34.5541],[74.4811,34.5148],[74.4855,34.5016],[74.4761,34.4859],[74.449,34.4879],[74.4628,34.4638],[74.4446,34.4514],[74.4392,34.4333],[74.3958,34.4341],[74.3811,34.4157],[74.3732,34.3783],[74.3471,34.3466],[74.3062,34.3306],[74.2988,34.3398],[74.2604,34.3426],[74.1831,34.3197],[74.1644,34.2876],[74.1501,34.2836],[74.1407,34.2435],[74.1156,34.2406],[74.0639,34.2631],[74.0225,34.2447],[73.9885,34.2595],[73.9836,34.2728],[73.9466,34.274],[73.9432,34.3061],[73.926,34.3041],[73.922,34.3129],[73.9378,34.3326],[73.9068,34.3494],[73.8624,34.3233],[73.8073,34.3466],[73.7895,34.3358],[73.7605,34.3526],[73.7565,34.3807],[73.8092,34.4257],[73.8417,34.4241],[73.893,34.4502],[73.8885,34.4819],[73.8974,34.5052],[73.9659,34.5778],[73.9614,34.5967],[73.9452,34.5979],[73.9388,34.6103],[73.9388,34.6324],[73.9777,34.6858],[74.0048,34.6822],[74.0309,34.6918],[74.0663,34.6794],[74.1067,34.687],[74.1097,34.6633],[74.1368,34.6489],[74.1579,34.683],[74.2835,34.7472],[74.3195,34.7865],[74.3372,34.7821],[74.5525,34.7725],[74.5934,34.7568],[74.6007,34.7348],[74.5953,34.6982]]]}},{"type":"Feature","properties":{"district":"Bandipora","district_hi":"बांदीपोरा"},"geometry":{"type":"Polygon","coordinates":[[[75.3125,34.3667],[75.2745,34.3639],[75.2578,34.3779],[75.2371,34.3703],[75.1982,34.3868],[75.1918,34.3595],[75.1489,34.3446],[75.0849,34.3803],[75.0642,34.406],[75.0258,34.4197],[75.0165,34.4357],[74.9608,34.4458],[74.9406,34.4638],[74.8997,34.4482],[74.8913,34.4329],[74.8923,34.412],[74.9091,34.4012],[74.8928,34.3751],[74.8672,34.3691],[74.8396,34.3462],[74.7889,34.3414],[74.7667,34.3141],[74.7441,34.3145],[74.7199,34.3458],[74.6559,34.3639],[74.6663,34.3225],[74.6603,34.2784],[74.6466,34.2812],[74.6446,34.2679],[74.6603,34.2599],[74.6534,34.2459],[74.6594,34.227],[74.7037,34.1853],[74.6781,34.1748],[74.6613,34.1861],[74.6362,34.1768],[74.6362,34.1961],[74.5732,34.1877],[74.5697,34.2029],[74.5958,34.2314],[74.5717,34.2366],[74.5535,34.2226],[74.5559,34.2338],[74.5165,34.2972],[74.5421,34.402],[74.4963,34.4458],[74.4717,34.4253],[74.4392,34.4241],[74.4446,34.4514],[74.4628,34.4638],[74.4481,34.4867],[74.4761,34.4859],[74.4855,34.5016],[74.4811,34.5148],[74.5476,34.5541],[74.549,34.6184],[74.5953,34.6982],[74.6007,34.7388],[74.6515,34.6974],[74.7332,34.6713],[74.8332,34.6633],[74.849,34.6746],[74.8643,34.6625],[74.9253,34.6633],[75.0209,34.626],[75.0613,34.6264],[75.078,34.6384],[75.1317,34.6465],[75.2391,34.628],[75.2558,34.6059],[75.3011,34.5891],[75.3573,34.5301],[75.3199,34.4345],[75.3721,34.4064],[75.3292,34.3575],[75.3125,34.3667]]]}},{"type":"Feature","properties":{"district":"Baramulla","district_hi":"बारामूला"},"geometry":{"type":"Polygon","coordinates":[[[74.5535,34.2226],[74.5717,34.2366],[74.5963,34.2294],[74.5712,34.2053],[74.5722,34.1885],[74.6362,34.1961],[74.6362,34.1768],[74.6613,34.1861],[74.7022,34.1708],[74.7076,34.1539],[74.6963,34.1435],[74.7052,34.1331],[74.6899,34.1395],[74.617,34.1146],[74.5653,34.0689],[74.5515,34.0676],[74.5411,34.048],[74.4944,34.0564],[74.4924,34.0432],[74.5116,34.0335],[74.4751,34.005],[74.4855,33.9593],[74.4594,33.934],[74.4274,33.9219],[74.4249,33.9091],[74.4101,33.9063],[74.3855,33.9444],[74.3156,33.9553],[74.3023,33.9922],[74.2707,33.9846],[74.2456,34.0215],[74.219,34.0303],[74.1772,34.0247],[74.1269,34.046],[74.0964,34.0195],[74.0442,34.0191],[74.0274,34.0014],[74.0018,34.0191],[73.954,34.0167],[73.9018,34.0492],[73.8944,34.0725],[73.9068,34.1062],[73.9274,34.1074],[73.9324,34.1411],[73.9659,34.1539],[74.0077,34.1909],[74.0018,34.2025],[74.0102,34.2222],[73.9885,34.2595],[74.0264,34.2443],[74.0639,34.2631],[74.1156,34.2406],[74.1407,34.2435],[74.1501,34.2836],[74.1644,34.2876],[74.1831,34.3197],[74.2604,34.3426],[74.2988,34.3398],[74.3062,34.3306],[74.3471,34.3466],[74.3732,34.3783],[74.3811,34.4157],[74.3973,34.4353],[74.4264,34.4369],[74.4431,34.4221],[74.4717,34.4253],[74.4904,34.4466],[74.5086,34.4413],[74.5195,34.4253],[74.5456,34.3924],[74.5175,34.2952],[74.55,34.2455],[74.5535,34.2226]]]}},{"type":"Feature","properties":{"district":"Ganderbal","district_hi":"गांदरबल"},"geometry":{"type":"Polygon","coordinates":[[[74.9608,34.4458],[75.0165,34.4357],[75.0258,34.4197],[75.0642,34.406],[75.0849,34.3803],[75.1489,34.3446],[75.1918,34.3595],[75.1982,34.3868],[75.2356,34.3703],[75.2612,34.3771],[75.2745,34.3639],[75.3125,34.3667],[75.3272,34.3571],[75.3612,34.3908],[75.377,34.3884],[75.3745,34.3739],[75.3859,34.3671],[75.377,34.3486],[75.3972,34.3205],[75.3932,34.2952],[75.4134,34.2828],[75.4745,34.2808],[75.4972,34.2334],[75.4661,34.2085],[75.4105,34.2374],[75.4026,34.2166],[75.376,34.2061],[75.3351,34.2142],[75.2676,34.2567],[75.2346,34.2338],[75.2071,34.2294],[75.1903,34.1969],[75.1539,34.2069],[75.1253,34.1957],[75.1376,34.1837],[75.1283,34.1688],[75.0721,34.1648],[75.0529,34.1748],[75.011,34.1608],[74.9307,34.2029],[74.9189,34.1756],[74.8731,34.1816],[74.851,34.1234],[74.8184,34.1339],[74.8224,34.1495],[74.784,34.1704],[74.7677,34.1399],[74.7889,34.1166],[74.7702,34.1158],[74.7288,34.1704],[74.7234,34.1636],[74.7135,34.1708],[74.6594,34.227],[74.6534,34.2459],[74.6603,34.2599],[74.6446,34.2679],[74.6466,34.2812],[74.6603,34.2784],[74.6663,34.3225],[74.6559,34.3639],[74.7199,34.3458],[74.7441,34.3145],[74.7667,34.3141],[74.7889,34.3414],[74.8396,34.3462],[74.8672,34.3691],[74.8928,34.3751],[74.9091,34.3996],[74.8913,34.4145],[74.8997,34.4482],[74.9416,34.4638],[74.9608,34.4458]]]}},{"type":"Feature","properties":{"district":"Anantnag","district_hi":"अनंतनाग"},"geometry":{"type":"Polygon","coordinates":[[[75.3351,34.2142],[75.376,34.2061],[75.4026,34.2166],[75.4105,34.2374],[75.4661,34.2085],[75.5016,34.2346],[75.5553,34.2117],[75.5799,34.2146],[75.5952,34.1981],[75.572,34.1564],[75.5523,34.1556],[75.5395,34.1355],[75.5272,34.0949],[75.5317,34.0616],[75.5213,34.0464],[75.4464,34.0396],[75.4331,34.0199],[75.4386,34.0022],[75.4297,33.9846],[75.3942,33.9625],[75.3942,33.9023],[75.41,33.8922],[75.4272,33.8449],[75.4612,33.7943],[75.4824,33.7847],[75.4642,33.7574],[75.5213,33.7156],[75.5095,33.6988],[75.5169,33.6538],[75.5105,33.6293],[75.5292,33.6016],[75.4937,33.5523],[75.5149,33.5306],[75.4804,33.5254],[75.4819,33.5153],[75.4583,33.4989],[75.477,33.4539],[75.474,33.3993],[75.4627,33.4049],[75.4425,33.3785],[75.4194,33.3817],[75.3957,33.3656],[75.3814,33.364],[75.378,33.3789],[75.3302,33.3969],[75.2243,33.5005],[75.1751,33.5246],[75.1406,33.5246],[75.1682,33.5896],[75.176,33.5896],[75.1637,33.596],[75.1603,33.5876],[75.1337,33.5888],[75.1381,33.6085],[75.1164,33.6121],[75.1051,33.6325],[75.11,33.6606],[75.1273,33.6606],[75.1012,33.6723],[75.1041,33.6795],[75.112,33.6867],[75.1223,33.6723],[75.1302,33.6823],[75.1233,33.6911],[75.1352,33.6964],[75.1233,33.7068],[75.1302,33.7152],[75.1105,33.7273],[75.1268,33.7345],[75.1214,33.765],[75.0913,33.7646],[75.0864,33.7806],[75.0701,33.7806],[75.0844,33.7558],[75.0928,33.6887],[75.0815,33.7064],[75.077,33.7662],[75.0583,33.7698],[75.0573,33.7786],[75.0288,33.7806],[75.0293,33.7923],[75.049,33.7999],[75.0435,33.8148],[75.0578,33.8204],[75.0559,33.8324],[75.0662,33.8393],[75.046,33.8513],[75.08,33.8509],[75.1002,33.8694],[75.1204,33.8637],[75.1421,33.8718],[75.1642,33.8983],[75.1928,33.9035],[75.2263,33.9573],[75.2209,34.0151],[75.2342,34.0319],[75.2184,34.0371],[75.2051,34.0689],[75.1549,34.0773],[75.1386,34.1054],[75.147,34.1214],[75.1366,34.1403],[75.0972,34.1548],[75.1066,34.1592],[75.1046,34.1712],[75.1283,34.1688],[75.1376,34.1837],[75.1253,34.1957],[75.1539,34.2069],[75.1903,34.1969],[75.2071,34.2294],[75.2346,34.2338],[75.2696,34.2559],[75.3351,34.2142]]]}},{"type":"Feature","properties":{"district":"Kishtwar","district_hi":"किश्तवाड़"},"geometry":{"type":"Polygon","coordinates":[[[76.2217,33.0212],[76.2128,33.0906],[76.1922,33.0971],[76.1537,33.1553],[76.1222,33.1741],[76.1119,33.1753],[76.1168,33.1617],[76.0981,33.1212],[75.9981,33.0874],[75.9828,33.1135],[75.9695,33.1071],[75.9592,33.1248],[75.9444,33.1011],[75.9089,33.1224],[75.8592,33.1252],[75.8282,33.1412],[75.8045,33.1372],[75.8035,33.1593],[75.6932,33.2388],[75.6474,33.2412],[75.6041,33.2564],[75.5405,33.3271],[75.509,33.3805],[75.473,33.3901],[75.477,33.4539],[75.4583,33.4989],[75.4819,33.5153],[75.4804,33.5254],[75.5149,33.5306],[75.4937,33.5523],[75.5292,33.6016],[75.5105,33.6293],[75.5169,33.6538],[75.5095,33.6988],[75.5213,33.7156],[75.4642,33.7574],[75.4824,33.7847],[75.4612,33.7943],[75.4272,33.8449],[75.41,33.8922],[75.3942,33.9023],[75.3972,33.9312],[75.3898,33.9376],[75.3952,33.9641],[75.4297,33.9846],[75.4386,34.0022],[75.4331,34.0199],[75.4464,34.0396],[75.5213,34.0464],[75.5317,34.0616],[75.5326,34.1182],[75.5489,34.1519],[75.572,34.1564],[75.5981,34.2013],[75.6582,34.2378],[75.6967,34.2254],[75.6868,34.1592],[75.7124,34.115],[75.7479,34.0965],[75.7725,34.0556],[75.8001,34.0428],[75.8198,34.0452],[75.8621,34.0175],[75.8567,33.9697],[75.8641,33.9789],[75.9434,33.9874],[75.9809,33.9789],[75.9794,34.0018],[76.0222,33.9974],[76.0478,33.9292],[76.0976,33.8766],[76.1395,33.8489],[76.17,33.7951],[76.2577,33.7578],[76.271,33.7309],[76.2665,33.6791],[76.2848,33.6618],[76.2705,33.6434],[76.2291,33.6297],[76.2404,33.6048],[76.2242,33.6004],[76.2316,33.5872],[76.2252,33.5775],[76.2055,33.5691],[76.2252,33.5478],[76.2458,33.5454],[76.2596,33.5651],[76.303,33.5675],[76.3104,33.5739],[76.2995,33.5984],[76.3064,33.6097],[76.3232,33.6024],[76.336,33.6105],[76.3591,33.6032],[76.3808,33.5771],[76.3803,33.5527],[76.4266,33.5374],[76.4507,33.5627],[76.4645,33.5454],[76.4591,33.5342],[76.5025,33.5161],[76.5084,33.4993],[76.5492,33.4643],[76.5694,33.4664],[76.5818,33.4262],[76.6157,33.4399],[76.6285,33.435],[76.6591,33.3568],[76.6955,33.3283],[76.7172,33.3291],[76.7369,33.2612],[76.7793,33.2392],[76.7468,33.1794],[76.7152,33.1814],[76.6463,33.1625],[76.6187,33.1745],[76.6024,33.2063],[76.5675,33.2103],[76.4867,33.1794],[76.4099,33.1866],[76.2916,33.1031],[76.2961,33.0605],[76.2783,33.0377],[76.2473,33.0216],[76.2217,33.0212]]]}},{"type":"Feature","properties":{"district":"Srinagar","district_hi":"श्रीनगर"},"geometry":{"type":"Polygon","coordinates":[[[75.011,34.1608],[75.0529,34.1748],[75.0721,34.1648],[75.1036,34.1684],[75.1066,34.1592],[75.0972,34.1548],[75.1371,34.1391],[75.147,34.1214],[75.1386,34.1054],[75.1524,34.0845],[75.0741,34.1166],[75.045,34.099],[75.0544,34.0901],[75.0485,34.0861],[75.0243,34.0873],[75.0238,34.0745],[74.9972,34.0729],[75.0007,34.062],[74.9903,34.0556],[74.9248,34.0251],[74.912,34.0303],[74.9155,34.0211],[74.8987,34.0159],[74.8987,34.0339],[74.8652,34.0424],[74.8386,34.0717],[74.8052,34.0693],[74.7549,34.1014],[74.7451,34.119],[74.7377,34.1118],[74.719,34.1174],[74.6963,34.1435],[74.7076,34.1539],[74.7022,34.1708],[74.681,34.1756],[74.7037,34.1853],[74.7229,34.1636],[74.7288,34.1704],[74.7648,34.121],[74.7854,34.1126],[74.7884,34.1206],[74.7677,34.1399],[74.784,34.1704],[74.8224,34.1495],[74.8184,34.1339],[74.851,34.1234],[74.8731,34.1816],[74.9189,34.1756],[74.9317,34.1905],[74.9243,34.2005],[74.9367,34.2029],[74.9554,34.1849],[75.011,34.1608]]]}},{"type":"Feature","properties":{"district":"Budgam","district_hi":"बड़गाम"},"geometry":{"type":"Polygon","coordinates":[[[74.7451,34.119],[74.7549,34.1014],[74.8052,34.0693],[74.8386,34.0717],[74.8652,34.0424],[74.8987,34.0339],[74.8987,34.0159],[74.914,34.0203],[74.8982,34.0094],[74.9012,33.9938],[74.8391,33.9312],[74.8194,33.8926],[74.8175,33.8641],[74.7894,33.8332],[74.7948,33.8244],[74.7746,33.8196],[74.7702,33.8079],[74.7426,33.82],[74.7229,33.8051],[74.6884,33.8055],[74.6259,33.7501],[74.6254,33.7397],[74.581,33.7188],[74.5668,33.6915],[74.5397,33.6807],[74.5431,33.6907],[74.5042,33.704],[74.5017,33.7188],[74.4525,33.753],[74.449,33.7622],[74.4692,33.7827],[74.4382,33.8096],[74.4407,33.8224],[74.4101,33.8421],[74.4018,33.8814],[74.4141,33.8858],[74.4082,33.8942],[74.4254,33.9203],[74.4594,33.934],[74.4855,33.9593],[74.4751,34.005],[74.5116,34.0335],[74.4924,34.0432],[74.4944,34.0564],[74.5411,34.048],[74.5515,34.0676],[74.5653,34.0689],[74.617,34.1146],[74.6914,34.1395],[74.7219,34.1162],[74.7451,34.119]]]}},{"type":"Feature","properties":{"district":"Pulwama","district_hi":"पुलवामा"},"geometry":{"type":"Polygon","coordinates":[[[75.1549,34.0773],[75.2051,34.0689],[75.2184,34.0371],[75.2342,34.0319],[75.2209,34.0151],[75.2258,33.9553],[75.1928,33.9035],[75.1667,33.8995],[75.1435,33.8726],[75.1204,33.8637],[75.1002,33.8694],[75.08,33.8509],[75.0509,33.8541],[75.0662,33.8393],[75.0559,33.8324],[75.0578,33.8204],[75.0376,33.81],[75.0012,33.8124],[74.9968,33.7991],[74.9805,33.8096],[74.9657,33.7947],[74.9401,33.7915],[74.9243,33.8128],[74.8766,33.7887],[74.8554,33.7975],[74.8771,33.8152],[74.85,33.8192],[74.8239,33.7827],[74.8027,33.7967],[74.7771,33.7883],[74.7593,33.8055],[74.7126,33.7907],[74.7165,33.8067],[74.7406,33.8192],[74.7702,33.8079],[74.7746,33.8196],[74.7948,33.8244],[74.7894,33.8332],[74.8175,33.8641],[74.8194,33.8926],[74.8391,33.9312],[74.9012,33.9938],[74.8982,34.0094],[74.9155,34.0211],[74.9115,34.0299],[74.9248,34.0251],[74.9903,34.0556],[75.0007,34.062],[74.9972,34.0729],[75.0238,34.0745],[75.0243,34.0873],[75.047,34.0853],[75.0544,34.0901],[75.045,34.099],[75.0756,34.1166],[75.1549,34.0773]]]}},{"type":"Feature","properties":{"district":"Punch","district_hi":"पुंछ"},"geometry":{"type":"Polygon","coordinates":[[[73.6235,34.0897],[73.6393,34.0676],[73.6698,34.0612],[73.6974,34.0793],[73.8358,34.0829],[73.8575,34.0668],[73.8949,34.0652],[73.9018,34.0492],[73.954,34.0167],[74.0018,34.0191],[74.0274,34.0014],[74.0442,34.0191],[74.0964,34.0195],[74.1269,34.046],[74.1772,34.0247],[74.219,34.0303],[74.2456,34.0215],[74.2707,33.9846],[74.3023,33.9922],[74.3156,33.9553],[74.3865,33.9436],[74.4175,33.9063],[74.4008,33.8734],[74.4131,33.8569],[74.4101,33.8421],[74.4407,33.8224],[74.4382,33.8096],[74.4692,33.7827],[74.449,33.7622],[74.4525,33.753],[74.5017,33.7188],[74.5042,33.704],[74.5431,33.6907],[74.5426,33.6715],[74.5195,33.6414],[74.5269,33.6161],[74.5141,33.5992],[74.5278,33.5671],[74.5155,33.5543],[74.5382,33.5278],[74.5727,33.5165],[74.5727,33.4908],[74.5402,33.4872],[74.5397,33.466],[74.5278,33.4688],[74.4894,33.5169],[74.422,33.5675],[74.355,33.582],[74.3323,33.5691],[74.3067,33.5703],[74.2845,33.5454],[74.2638,33.5494],[74.253,33.5402],[74.2441,33.5535],[74.2097,33.5446],[74.2269,33.4888],[74.1845,33.4198],[74.1673,33.4106],[74.1447,33.4599],[74.1575,33.5085],[74.1476,33.5398],[74.1545,33.5446],[74.0649,33.5502],[74.0447,33.5675],[74.0383,33.5904],[74.0151,33.6064],[73.9821,33.6048],[73.9526,33.6221],[73.9201,33.6048],[73.8476,33.5932],[73.8142,33.6221],[73.7679,33.6161],[73.7422,33.6277],[73.7447,33.5968],[73.7314,33.5864],[73.6969,33.6313],[73.6427,33.6518],[73.6221,33.6747],[73.6009,33.702],[73.5905,33.7538],[73.5595,33.7766],[73.5891,33.8838],[73.5782,33.9103],[73.5487,33.9312],[73.5216,33.985],[73.4881,34.1443],[73.5147,34.1552],[73.5339,34.1515],[73.595,34.0821],[73.6083,34.0733],[73.6235,34.0897]]]}},{"type":"Feature","properties":{"district":"Shopiyan","district_hi":"शोपियां"},"geometry":{"type":"Polygon","coordinates":[[[74.85,33.8192],[74.8771,33.8152],[74.8554,33.7975],[74.8766,33.7887],[74.9243,33.8128],[74.9401,33.7915],[74.9657,33.7947],[74.9805,33.8096],[74.9968,33.7991],[75.0012,33.8124],[75.0376,33.81],[75.0386,33.8176],[75.0499,33.8051],[75.0293,33.7923],[75.0376,33.771],[75.0179,33.7385],[74.9997,33.7505],[74.9987,33.7397],[74.9509,33.7393],[74.9657,33.6939],[74.9578,33.6823],[74.9657,33.6811],[74.9357,33.6562],[74.9288,33.6679],[74.9066,33.665],[74.912,33.6538],[74.8712,33.6237],[74.8278,33.6546],[74.7869,33.6558],[74.7786,33.645],[74.7746,33.6638],[74.7854,33.6783],[74.7362,33.6659],[74.7288,33.6859],[74.68,33.7028],[74.647,33.6895],[74.6101,33.6943],[74.6012,33.6807],[74.5663,33.6923],[74.5801,33.7184],[74.6254,33.7397],[74.6259,33.7501],[74.6884,33.8055],[74.7135,33.8027],[74.714,33.7903],[74.7593,33.8055],[74.7771,33.7883],[74.8027,33.7967],[74.8229,33.7823],[74.85,33.8192]]]}},{"type":"Feature","properties":{"district":"Kulgam","district_hi":"कुलगाम"},"geometry":{"type":"Polygon","coordinates":[[[75.0913,33.7646],[75.1184,33.771],[75.1268,33.7345],[75.1105,33.7273],[75.1302,33.7152],[75.1233,33.7068],[75.1352,33.6976],[75.1233,33.6911],[75.1302,33.6823],[75.1223,33.6723],[75.112,33.6867],[75.1041,33.6795],[75.1012,33.6723],[75.1273,33.6606],[75.11,33.6606],[75.1051,33.6325],[75.1164,33.6121],[75.1381,33.6085],[75.1337,33.5888],[75.1603,33.5876],[75.1637,33.596],[75.176,33.5896],[75.1519,33.5567],[75.148,33.5655],[75.1292,33.5631],[75.1243,33.5723],[75.1381,33.5816],[75.11,33.594],[75.1026,33.5715],[75.0662,33.5458],[75.0977,33.5053],[75.0825,33.4945],[74.9573,33.5129],[74.9396,33.4908],[74.916,33.4969],[74.8909,33.4808],[74.7953,33.466],[74.7869,33.4864],[74.7579,33.4888],[74.7091,33.5258],[74.6805,33.5049],[74.6559,33.5057],[74.649,33.5145],[74.6392,33.5021],[74.6057,33.4945],[74.5889,33.5093],[74.5741,33.5073],[74.5653,33.5238],[74.5372,33.5282],[74.5155,33.5543],[74.5278,33.5671],[74.5141,33.5992],[74.5269,33.6161],[74.5195,33.6414],[74.5293,33.6434],[74.5397,33.6807],[74.5604,33.6903],[74.6012,33.6807],[74.6101,33.6943],[74.647,33.6895],[74.68,33.7028],[74.7288,33.6859],[74.7362,33.6659],[74.7854,33.6783],[74.7746,33.6638],[74.7786,33.645],[74.7869,33.6558],[74.8278,33.6546],[74.8712,33.6237],[74.912,33.6538],[74.9066,33.665],[74.9288,33.6679],[74.9357,33.6562],[74.9657,33.6811],[74.9578,33.6823],[74.9657,33.6939],[74.9509,33.7393],[74.9987,33.7397],[74.9997,33.7505],[75.0165,33.7377],[75.0376,33.771],[75.0312,33.7806],[75.077,33.7662],[75.0815,33.7064],[75.0928,33.6887],[75.0844,33.7558],[75.0701,33.7806],[75.079,33.7835],[75.0913,33.7646]]]}},{"type":"Feature","properties":{"district":"Rajouri","district_hi":"राजौरी"},"geometry":{"type":"Polygon","coordinates":[[[74.422,33.5675],[74.4894,33.5169],[74.5283,33.4688],[74.5397,33.466],[74.5402,33.4872],[74.5722,33.4904],[74.5741,33.5073],[74.6264,33.4961],[74.6352,33.4848],[74.6298,33.4672],[74.6012,33.4579],[74.6185,33.4407],[74.6672,33.431],[74.6648,33.3969],[74.6855,33.3596],[74.6697,33.3479],[74.648,33.3487],[74.6475,33.3231],[74.6692,33.2998],[74.6515,33.2705],[74.6919,33.242],[74.6835,33.1982],[74.6603,33.1838],[74.6204,33.2034],[74.6071,33.1914],[74.5673,33.201],[74.5732,33.1874],[74.5535,33.1786],[74.5343,33.1918],[74.5205,33.1858],[74.5219,33.1741],[74.5441,33.1633],[74.5786,33.1521],[74.5998,33.1565],[74.6288,33.1416],[74.614,33.124],[74.6259,33.1043],[74.6333,33.1071],[74.6214,33.1007],[74.6342,33.0919],[74.6032,33.089],[74.5904,33.067],[74.5613,33.0662],[74.5559,33.0497],[74.5776,33.0192],[74.5722,32.9995],[74.5495,32.9839],[74.52,33.0144],[74.4466,33.0136],[74.4481,32.9999],[74.3653,32.951],[74.3338,32.9538],[74.3151,33.006],[74.3205,33.0304],[74.1634,33.0758],[74.1762,33.0943],[74.1575,33.1079],[74.1466,33.1392],[74.0826,33.1745],[74.0663,33.1942],[74.0195,33.205],[74.0008,33.2175],[73.9974,33.238],[74.0048,33.26],[74.1378,33.3118],[74.1437,33.3431],[74.1614,33.3556],[74.1402,33.3736],[74.1348,33.3969],[74.1845,33.4198],[74.2269,33.4888],[74.2097,33.5446],[74.2441,33.5535],[74.253,33.5402],[74.2638,33.5494],[74.2845,33.5454],[74.3067,33.5703],[74.3697,33.5787],[74.422,33.5675]]]}},{"type":"Feature","properties":{"district":"Ramban","district_hi":"रामबन"},"geometry":{"type":"Polygon","coordinates":[[[75.148,33.5655],[75.1519,33.5567],[75.1406,33.5246],[75.1751,33.5246],[75.2243,33.5005],[75.3302,33.3969],[75.378,33.3789],[75.3667,33.3078],[75.3489,33.2974],[75.3765,33.2022],[75.3514,33.1513],[75.3351,33.1408],[75.3489,33.1027],[75.3593,33.0983],[75.3568,33.0682],[75.2972,33.1007],[75.2445,33.0902],[75.2312,33.1019],[75.2327,33.1505],[75.2154,33.1569],[75.181,33.1493],[75.146,33.1822],[75.1219,33.1794],[75.0972,33.1942],[75.0928,33.1846],[75.0825,33.199],[75.0371,33.2067],[75.049,33.2392],[75.0184,33.246],[75.0258,33.2785],[75.0174,33.3122],[75.0322,33.3419],[75.0598,33.358],[75.0091,33.4166],[75.0362,33.4419],[75.016,33.4937],[75.0347,33.5045],[75.0825,33.4945],[75.0977,33.5053],[75.0662,33.5458],[75.1179,33.5928],[75.1391,33.5783],[75.1263,33.5659],[75.148,33.5655]]]}},{"type":"Feature","properties":{"district":"Reasi","district_hi":"रियासी"},"geometry":{"type":"Polygon","coordinates":[[[74.7579,33.4888],[74.7869,33.4864],[74.7953,33.466],[74.8909,33.4808],[74.916,33.4969],[74.9396,33.4908],[74.9573,33.5129],[75.0036,33.5041],[75.0135,33.5105],[75.0248,33.5009],[75.0165,33.4804],[75.0362,33.4419],[75.0091,33.4166],[75.0598,33.358],[75.0322,33.3419],[75.0174,33.3122],[75.0258,33.2785],[75.0184,33.246],[75.049,33.2392],[75.0362,33.2075],[75.0825,33.199],[75.0928,33.1846],[75.0775,33.1629],[75.0504,33.1505],[75.0293,33.1003],[75.0834,33.0662],[75.0692,33.0505],[75.0485,33.0557],[75.0229,33.0461],[75.0386,33.022],[74.9997,33.0052],[75.0056,32.9863],[74.9899,32.9574],[75.0066,32.9337],[74.9633,32.9297],[74.9608,32.8948],[74.949,32.8996],[74.9519,32.8924],[74.9337,32.8883],[74.9115,32.9229],[74.8963,32.9225],[74.8884,32.9562],[74.8736,32.9522],[74.85,32.9891],[74.8239,32.9895],[74.7943,33.0324],[74.7367,33.0593],[74.7101,33.0505],[74.6756,33.0605],[74.6751,33.0469],[74.6525,33.0244],[74.6362,33.0208],[74.6259,33.0308],[74.6204,32.9999],[74.6485,32.9795],[74.6067,32.9554],[74.6047,32.9453],[74.6086,32.9867],[74.5845,33.0027],[74.6062,33.014],[74.5929,33.0208],[74.5929,33.0341],[74.5702,33.0284],[74.5559,33.0497],[74.5613,33.0662],[74.5978,33.0706],[74.6032,33.089],[74.6342,33.0919],[74.6214,33.1007],[74.6333,33.1071],[74.6259,33.1043],[74.614,33.124],[74.6288,33.1416],[74.5998,33.1565],[74.5786,33.1521],[74.5441,33.1633],[74.5219,33.1741],[74.5205,33.1858],[74.5343,33.1918],[74.5535,33.1786],[74.5732,33.1874],[74.5673,33.201],[74.6071,33.1914],[74.6204,33.2034],[74.6603,33.1838],[74.6835,33.1982],[74.6919,33.2412],[74.6515,33.2705],[74.6692,33.2998],[74.6475,33.3231],[74.648,33.3487],[74.6697,33.3479],[74.6855,33.3596],[74.6648,33.3969],[74.6672,33.431],[74.6185,33.4407],[74.6027,33.4639],[74.6278,33.4648],[74.6352,33.4848],[74.6264,33.4961],[74.649,33.5145],[74.6559,33.5057],[74.6796,33.5049],[74.7111,33.5242],[74.7579,33.4888]]]}},{"type":"Feature","properties":{"district":"Doda","district_hi":"डोडा"},"geometry":{"type":"Polygon","coordinates":[[[75.473,33.3901],[75.509,33.3805],[75.5405,33.3271],[75.6041,33.2564],[75.6474,33.2412],[75.6932,33.2388],[75.8035,33.1593],[75.8045,33.1372],[75.8282,33.1412],[75.8592,33.1252],[75.9089,33.1224],[75.9444,33.1011],[75.9592,33.1248],[75.9695,33.1071],[75.9828,33.1135],[76.0001,33.087],[76.0981,33.1212],[76.1168,33.1617],[76.1119,33.1757],[76.1424,33.1649],[76.1922,33.0971],[76.2143,33.0878],[76.2217,33.0212],[76.1828,33.0208],[76.1651,33.0068],[76.1124,33.0064],[76.1114,32.9879],[76.0882,32.9562],[76.0439,32.9369],[76.0321,32.9168],[75.9538,32.8735],[75.9247,32.9064],[75.8498,32.9301],[75.8035,32.8859],[75.7636,32.8895],[75.7415,32.8751],[75.6927,32.8767],[75.6819,32.8623],[75.6612,32.9213],[75.5947,32.9482],[75.5809,32.9453],[75.5627,32.9654],[75.5331,32.9478],[75.5208,32.9582],[75.4519,32.9598],[75.407,33.0108],[75.4026,33.0589],[75.3593,33.071],[75.3593,33.0983],[75.3489,33.1027],[75.3351,33.1408],[75.3514,33.1513],[75.3765,33.2022],[75.3489,33.2974],[75.3667,33.3078],[75.3799,33.3632],[75.4194,33.3817],[75.4425,33.3785],[75.4514,33.3973],[75.4671,33.4033],[75.473,33.3901]]]}},{"type":"Feature","properties":{"district":"Jammu","district_hi":"जम्मू"},"geometry":{"type":"Polygon","coordinates":[[[74.3338,32.9538],[74.3653,32.951],[74.4052,32.9706],[74.4481,32.9999],[74.4466,33.0136],[74.52,33.0144],[74.5544,32.9847],[74.5751,33.0035],[74.5707,33.028],[74.5909,33.0341],[74.6062,33.0132],[74.5845,33.0027],[74.6086,32.9867],[74.6057,32.9453],[74.6067,32.9554],[74.6485,32.9795],[74.6204,32.9999],[74.6259,33.0308],[74.6362,33.0208],[74.6525,33.0244],[74.6751,33.0469],[74.6756,33.0605],[74.7101,33.0505],[74.7367,33.0593],[74.7943,33.0324],[74.8239,32.9895],[74.85,32.9891],[74.8736,32.9522],[74.8884,32.9562],[74.8963,32.9225],[74.9115,32.9229],[74.9352,32.8871],[74.9519,32.8928],[74.949,32.8996],[74.9608,32.8948],[74.9633,32.9297],[74.9741,32.9353],[75.0096,32.8904],[75.1095,32.8273],[75.1302,32.8101],[75.1283,32.7936],[75.1558,32.7872],[75.1657,32.7659],[75.1283,32.7483],[75.1283,32.7374],[75.111,32.7398],[75.0908,32.7186],[75.0534,32.7402],[75.0426,32.7258],[75.0135,32.7294],[75.0032,32.7438],[74.9583,32.7097],[74.9608,32.6832],[74.9002,32.6519],[74.8815,32.6038],[74.8938,32.5969],[74.9155,32.6254],[74.9337,32.6066],[74.9209,32.5953],[74.9573,32.5901],[74.9421,32.5853],[74.9554,32.5684],[74.9288,32.5696],[74.9273,32.56],[74.9391,32.558],[74.9243,32.5476],[74.9046,32.5532],[74.9012,32.5359],[74.9179,32.5251],[74.8894,32.5215],[74.8692,32.4861],[74.8199,32.4986],[74.812,32.4797],[74.715,32.4761],[74.7106,32.4926],[74.6805,32.4918],[74.6909,32.5315],[74.6618,32.546],[74.6613,32.554],[74.6727,32.5528],[74.6727,32.5684],[74.652,32.5632],[74.648,32.5857],[74.6589,32.5969],[74.6411,32.5997],[74.6377,32.6134],[74.6554,32.6162],[74.6539,32.6375],[74.6697,32.6387],[74.6953,32.6608],[74.6663,32.6756],[74.653,32.6969],[74.6633,32.7258],[74.6549,32.7282],[74.7047,32.8209],[74.7047,32.8418],[74.6663,32.8245],[74.6559,32.8326],[74.6337,32.8097],[74.6589,32.7876],[74.6318,32.7756],[74.6377,32.7515],[74.617,32.7611],[74.5791,32.7479],[74.5628,32.7603],[74.5476,32.7458],[74.5421,32.7527],[74.5136,32.7442],[74.5111,32.7643],[74.485,32.7651],[74.4594,32.7884],[74.4431,32.7892],[74.4338,32.8225],[74.4136,32.8394],[74.4111,32.896],[74.3668,32.9185],[74.3239,32.9205],[74.3067,32.9349],[74.3338,32.9538]]]}},{"type":"Feature","properties":{"district":"Kathua","district_hi":"कठुआ"},"geometry":{"type":"Polygon","coordinates":[[[75.2282,32.4512],[75.2593,32.4865],[75.2632,32.5163],[75.2839,32.5171],[75.2563,32.5419],[75.279,32.5757],[75.3164,32.5712],[75.343,32.5841],[75.3292,32.6146],[75.2883,32.6298],[75.2839,32.6415],[75.3307,32.664],[75.345,32.6644],[75.3445,32.6567],[75.3558,32.6688],[75.3647,32.6604],[75.374,32.6676],[75.3637,32.6764],[75.3731,32.6704],[75.378,32.6776],[75.374,32.6981],[75.3928,32.6672],[75.4134,32.6796],[75.4272,32.6608],[75.443,32.6724],[75.4597,32.6648],[75.476,32.6824],[75.475,32.7089],[75.4947,32.7647],[75.5518,32.7715],[75.5582,32.7559],[75.5814,32.7426],[75.5853,32.7591],[75.6154,32.7735],[75.6553,32.7715],[75.6898,32.7944],[75.6814,32.8197],[75.6942,32.837],[75.6819,32.8623],[75.6927,32.8767],[75.7385,32.8743],[75.7691,32.89],[75.8016,32.8855],[75.8232,32.8538],[75.8838,32.8121],[75.8907,32.7828],[75.9262,32.7454],[75.8897,32.6523],[75.9089,32.6591],[75.9183,32.6447],[75.9365,32.6479],[75.9301,32.6315],[75.9188,32.6331],[75.902,32.5929],[75.8809,32.5865],[75.8809,32.5708],[75.869,32.5636],[75.8759,32.5504],[75.8415,32.5235],[75.8326,32.5034],[75.7755,32.4641],[75.7287,32.4528],[75.7297,32.4388],[75.7439,32.432],[75.7287,32.4324],[75.7223,32.4055],[75.7114,32.4111],[75.6868,32.3906],[75.5967,32.3778],[75.5597,32.3573],[75.5395,32.3364],[75.5425,32.3055],[75.5351,32.279],[75.5257,32.2762],[75.5036,32.2915],[75.512,32.3079],[75.4819,32.3204],[75.4799,32.3344],[75.4947,32.3408],[75.4893,32.3461],[75.4686,32.3388],[75.4676,32.3256],[75.4312,32.316],[75.3415,32.3461],[75.3317,32.3268],[75.3223,32.3445],[75.2883,32.3557],[75.2893,32.3705],[75.2578,32.3717],[75.2563,32.3894],[75.245,32.3846],[75.2125,32.4023],[75.209,32.3946],[75.1928,32.4011],[75.1918,32.4115],[75.2327,32.4312],[75.2282,32.4512]]]}},{"type":"Feature","properties":{"district":"Udhampur","district_hi":"उधमपुर"},"geometry":{"type":"MultiPolygon","coordinates":[[[[75.2016,32.6696],[75.2056,32.6575],[75.1558,32.6728],[75.1411,32.6929],[75.1524,32.6957],[75.2016,32.6696]]],[[[75.1219,33.1794],[75.148,33.1814],[75.181,33.1493],[75.2154,33.1569],[75.2346,33.1493],[75.2312,33.1019],[75.2445,33.0902],[75.2972,33.1007],[75.3327,33.0742],[75.4021,33.0593],[75.407,33.0108],[75.4519,32.9598],[75.5208,32.9582],[75.5331,32.9478],[75.5612,32.9662],[75.5809,32.9453],[75.6553,32.9261],[75.6932,32.8418],[75.6814,32.8197],[75.6893,32.794],[75.6553,32.7715],[75.5991,32.7667],[75.5814,32.7426],[75.5582,32.7559],[75.5518,32.7715],[75.4947,32.7647],[75.475,32.7089],[75.476,32.6824],[75.4597,32.6648],[75.443,32.6724],[75.4272,32.6608],[75.4134,32.6796],[75.3928,32.6672],[75.374,32.6981],[75.376,32.6716],[75.3637,32.6764],[75.3735,32.6668],[75.3598,32.6575],[75.3558,32.6688],[75.3445,32.6567],[75.345,32.6644],[75.3307,32.664],[75.2854,32.6415],[75.2391,32.6543],[75.2292,32.6331],[75.1908,32.6335],[75.1943,32.6471],[75.2169,32.6575],[75.2154,32.686],[75.181,32.7001],[75.1637,32.7238],[75.1228,32.7045],[75.0913,32.7157],[75.1081,32.7378],[75.1283,32.7374],[75.1283,32.7483],[75.1647,32.7643],[75.1558,32.7872],[75.1297,32.7924],[75.1302,32.8101],[75.0332,32.8711],[74.9775,32.9277],[75.0066,32.9337],[74.9899,32.9574],[75.0056,32.9863],[74.9997,33.0052],[75.0386,33.022],[75.0229,33.0461],[75.0485,33.0557],[75.0692,33.0505],[75.0829,33.0654],[75.0293,33.0999],[75.0504,33.1505],[75.0775,33.1629],[75.0972,33.1942],[75.1219,33.1794]]]]}},{"type":"Feature","properties":{"district":"Samba","district_hi":"सांभा"},"geometry":{"type":"Polygon","coordinates":[[[75.0426,32.7258],[75.0534,32.7402],[75.08,32.7322],[75.0923,32.7145],[75.1228,32.7045],[75.1504,32.7234],[75.1706,32.7222],[75.1805,32.7009],[75.2184,32.682],[75.2169,32.6575],[75.1943,32.6471],[75.1908,32.6335],[75.2278,32.6327],[75.2391,32.6543],[75.2509,32.6535],[75.278,32.6459],[75.2883,32.6298],[75.3208,32.621],[75.3415,32.6017],[75.3361,32.5769],[75.2795,32.5761],[75.2573,32.5439],[75.2839,32.5171],[75.2632,32.5163],[75.2593,32.4865],[75.2282,32.4512],[75.2278,32.4259],[75.2002,32.4163],[75.1874,32.4267],[75.1534,32.4215],[75.1317,32.4087],[75.1268,32.4239],[75.1342,32.4279],[75.1081,32.4601],[75.1081,32.4737],[75.0854,32.4689],[75.0268,32.4966],[75.0179,32.4661],[74.9844,32.45],[74.9692,32.4597],[74.9475,32.4472],[74.9391,32.4709],[74.9189,32.4637],[74.8771,32.4777],[74.8894,32.5215],[74.9179,32.5251],[74.9012,32.5359],[74.9046,32.5532],[74.9253,32.548],[74.9391,32.558],[74.9273,32.56],[74.9288,32.5696],[74.9426,32.564],[74.9569,32.5741],[74.9421,32.5853],[74.9573,32.5901],[74.9209,32.5953],[74.9337,32.6066],[74.9155,32.6254],[74.8938,32.5969],[74.8815,32.6038],[74.8943,32.6198],[74.8973,32.6463],[74.9608,32.6832],[74.9583,32.7097],[75.0061,32.7426],[75.014,32.7294],[75.0426,32.7258]],[[75.1411,32.6929],[75.1558,32.6728],[75.2056,32.6575],[75.2016,32.6696],[75.1494,32.6961],[75.1411,32.6929]]]}},{"type":"Feature","properties":{"district":"Muzaffarabad","district_hi":"मुजफ्फराबाद"},"geometry":{"type":"Polygon","coordinates":[[[74.3195,34.7865],[74.2835,34.7472],[74.1579,34.683],[74.1368,34.6489],[74.1097,34.6633],[74.1067,34.687],[74.0663,34.6794],[74.0309,34.6918],[74.0048,34.6822],[73.9777,34.6858],[73.9388,34.6324],[73.9388,34.6103],[73.9452,34.5979],[73.9614,34.5967],[73.9659,34.5778],[73.8974,34.5052],[73.8885,34.4819],[73.893,34.4502],[73.8417,34.4241],[73.8092,34.4257],[73.7565,34.3807],[73.7605,34.3526],[73.7895,34.3358],[73.8073,34.3466],[73.8624,34.3233],[73.8693,34.335],[73.8841,34.3306],[73.9068,34.3494],[73.9171,34.3454],[73.9378,34.3326],[73.922,34.3129],[73.926,34.3041],[73.9432,34.3061],[73.9393,34.2832],[73.9466,34.274],[73.988,34.2696],[74.0102,34.2222],[74.0033,34.1845],[73.9324,34.1411],[73.9274,34.1074],[73.9068,34.1062],[73.8949,34.0652],[73.791,34.0849],[73.6974,34.0793],[73.6807,34.064],[73.6531,34.064],[73.6235,34.0897],[73.6083,34.0733],[73.595,34.0821],[73.5339,34.1515],[73.5147,34.1552],[73.4881,34.1443],[73.4925,34.2198],[73.4694,34.2515],[73.4777,34.29],[73.4669,34.2956],[73.4531,34.278],[73.4526,34.2968],[73.4236,34.3394],[73.4241,34.353],[73.4009,34.3579],[73.3901,34.3743],[73.4083,34.3864],[73.4196,34.4173],[73.4216,34.4702],[73.4369,34.504],[73.429,34.5208],[73.4472,34.5738],[73.5221,34.5742],[73.5566,34.5931],[73.6176,34.5854],[73.6388,34.5658],[73.6501,34.5678],[73.6595,34.6099],[73.6955,34.6537],[73.6659,34.6657],[73.6669,34.6842],[73.7491,34.7865],[73.7728,34.7962],[73.8206,34.7954],[73.8491,34.8171],[73.8664,34.811],[73.9003,34.8215],[73.9171,34.8138],[73.9348,34.8331],[73.9634,34.8411],[73.9737,34.8648],[74.0294,34.8773],[74.0432,34.9214],[74.0732,34.9395],[74.0594,34.9933],[74.1072,35.019],[74.0654,35.0479],[74.0944,35.0968],[74.1333,35.1077],[74.1629,35.086],[74.2225,35.086],[74.2269,35.0671],[74.2496,35.0671],[74.253,35.0374],[74.2688,35.035],[74.2973,35.0446],[74.3082,35.0599],[74.3801,35.0575],[74.4298,35.1129],[74.4727,35.1157],[74.5155,35.0948],[74.5392,35.0591],[74.5352,35.0314],[74.5874,35.0097],[74.5717,34.966],[74.5766,34.9106],[74.5677,34.8728],[74.5303,34.8568],[74.5052,34.8636],[74.4574,34.8524],[74.4136,34.7994],[74.3958,34.8038],[74.3195,34.7865]]]}},{"type":"Feature","properties":{"district":"Mirpur","district_hi":"मीरपुर"},"geometry":{"type":"Polygon","coordinates":[[[73.7314,33.5864],[73.7447,33.5968],[73.7422,33.6277],[73.7679,33.6161],[73.8142,33.6221],[73.8476,33.5932],[73.9201,33.6048],[73.9526,33.6221],[73.9821,33.6048],[74.0151,33.6064],[74.0383,33.5904],[74.0447,33.5675],[74.0649,33.5502],[74.1545,33.5446],[74.1476,33.5398],[74.1575,33.5085],[74.1447,33.4599],[74.1648,33.4158],[74.1348,33.3969],[74.1402,33.3736],[74.1614,33.3556],[74.1437,33.3431],[74.1432,33.3211],[74.1309,33.3074],[74.0048,33.26],[74.0008,33.2175],[74.0279,33.2002],[74.0663,33.1942],[74.0826,33.1745],[74.1466,33.1392],[74.1575,33.1079],[74.1762,33.0943],[74.1634,33.0758],[74.3205,33.0304],[74.3151,33.006],[74.3338,32.9538],[74.3067,32.9349],[74.3239,32.9205],[74.3668,32.9185],[74.4111,32.896],[74.4136,32.8394],[74.4338,32.8225],[74.4495,32.7836],[74.4057,32.7824],[74.383,32.7575],[74.3535,32.7631],[74.3082,32.792],[74.3008,32.8229],[74.2166,32.845],[74.2018,32.8703],[74.1772,32.8827],[74.0589,32.9088],[74.0476,32.9321],[73.9875,32.9353],[73.9964,32.9598],[73.9678,32.969],[73.9575,32.9867],[73.8289,33.0072],[73.8078,32.9722],[73.7856,32.9654],[73.7787,32.9742],[73.788,32.9979],[73.7427,33.0389],[73.7344,33.0662],[73.6876,33.0882],[73.627,33.0894],[73.6255,33.1396],[73.6556,33.1689],[73.657,33.2079],[73.6403,33.2263],[73.628,33.2155],[73.6245,33.2364],[73.6048,33.2512],[73.5974,33.2825],[73.6033,33.295],[73.5812,33.3263],[73.59,33.3367],[73.5649,33.3423],[73.5703,33.356],[73.5575,33.368],[73.5639,33.3941],[73.5905,33.4218],[73.5817,33.429],[73.5871,33.4431],[73.624,33.4571],[73.6122,33.48],[73.6009,33.478],[73.596,33.5001],[73.6088,33.5005],[73.6063,33.5197],[73.6324,33.533],[73.6181,33.5438],[73.6201,33.5739],[73.5999,33.5928],[73.6029,33.6072],[73.5886,33.604],[73.5605,33.6209],[73.5684,33.6406],[73.5625,33.6755],[73.5969,33.716],[73.6427,33.6518],[73.7048,33.6221],[73.7314,33.5864]]]}}]}