{"type":"FeatureCollection","features":[{"type":"Feature","properties":{"district":"Sahibganj","district_hi":"साहिबगंज"},"geometry":{"type":"Polygon","coordinates":[[[87.8397,24.7445],[87.8423,24.7428],[87.8465,24.7211],[87.8465,24.7206],[87.8094,24.7275],[87.7968,24.7154],[87.7874,24.7509],[87.7558,24.748],[87.7426,24.7564],[87.7532,24.7648],[87.7474,24.7685],[87.7348,24.7653],[87.7145,24.7301],[87.7119,24.7416],[87.6867,24.7431],[87.6709,24.7656],[87.6635,24.7604],[87.6547,24.7702],[87.6108,24.7783],[87.5979,24.7936],[87.5844,24.7913],[87.5976,24.8055],[87.6215,24.7939],[87.606,24.8087],[87.5702,24.8087],[87.5508,24.828],[87.5353,24.8237],[87.5392,24.802],[87.5095,24.7986],[87.5091,24.7988],[87.5024,24.8009],[87.4772,24.8315],[87.4798,24.8586],[87.4559,24.8644],[87.4678,24.8803],[87.453,24.8916],[87.4675,24.9037],[87.4543,24.9392],[87.4775,24.9771],[87.4578,24.9921],[87.4578,24.9924],[87.4995,25.0201],[87.5104,25.0395],[87.5043,25.0533],[87.5211,25.0597],[87.4723,25.105],[87.4995,25.14],[87.4781,25.1943],[87.474,25.2307],[87.4736,25.2341],[87.4772,25.2414],[87.5004,25.2599],[87.4875,25.2974],[87.4936,25.3038],[87.5017,25.2922],[87.543,25.2809],[87.5518,25.3315],[87.5711,25.3332],[87.5844,25.3491],[87.5918,25.3419],[87.585,25.3312],[87.585,25.3306],[87.5999,25.3205],[87.6112,25.3133],[87.6118,25.3127],[87.6125,25.313],[87.6305,25.3197],[87.6547,25.3075],[87.6919,25.3116],[87.6851,25.3061],[87.6983,25.3041],[87.6932,25.2847],[87.7112,25.2746],[87.7109,25.2575],[87.7112,25.2575],[87.7787,25.2506],[87.7794,25.1437],[87.8007,25.1177],[87.7958,25.0874],[87.9544,24.9733],[87.9605,24.9213],[87.8908,24.8552],[87.9001,24.8231],[87.8711,24.824],[87.8691,24.824],[87.8817,24.7991],[87.8685,24.789],[87.8691,24.7749],[87.8543,24.7619],[87.8365,24.7659],[87.8349,24.7882],[87.8349,24.7893],[87.832,24.7832],[87.82,24.7593],[87.8181,24.7549],[87.8397,24.7445]]]}},{"type":"Feature","properties":{"district":"Godda","district_hi":"गोड्डा"},"geometry":{"type":"Polygon","coordinates":[[[87.4781,25.1943],[87.4995,25.14],[87.4723,25.105],[87.5211,25.0597],[87.5043,25.0533],[87.5104,25.0395],[87.4995,25.0201],[87.4578,24.9924],[87.4578,24.9921],[87.4775,24.9771],[87.4543,24.9392],[87.4675,24.9037],[87.453,24.8916],[87.4678,24.8803],[87.4559,24.8644],[87.4798,24.8586],[87.4772,24.8315],[87.5024,24.8009],[87.5091,24.7988],[87.5095,24.7986],[87.4975,24.783],[87.4597,24.7925],[87.4388,24.7642],[87.4352,24.7593],[87.4591,24.7321],[87.4727,24.6894],[87.4733,24.6481],[87.4468,24.6322],[87.4442,24.6189],[87.4604,24.6171],[87.4546,24.5888],[87.4665,24.5704],[87.4488,24.5626],[87.4391,24.5692],[87.4045,24.5363],[87.391,24.5481],[87.3923,24.5178],[87.3978,24.5117],[87.4236,24.5155],[87.4204,24.5137],[87.4194,24.5134],[87.3829,24.5036],[87.3777,24.5045],[87.3697,24.5155],[87.307,24.5987],[87.2754,24.6056],[87.2438,24.5862],[87.2186,24.5989],[87.2031,24.5949],[87.1659,24.6166],[87.1569,24.6148],[87.1275,24.6296],[87.123,24.6333],[87.1214,24.633],[87.1072,24.6281],[87.0643,24.6431],[87.0549,24.6394],[87.052,24.6273],[87.053,24.6489],[87.0804,24.726],[87.0801,24.7269],[87.081,24.7292],[87.0697,24.7451],[87.0843,24.7561],[87.0788,24.7775],[87.0956,24.8029],[87.0743,24.8084],[87.0759,24.8182],[87.0914,24.8234],[87.1094,24.8517],[87.143,24.8609],[87.144,24.8612],[87.1566,24.8809],[87.145,24.9193],[87.1543,24.9323],[87.1463,24.9418],[87.1543,24.9779],[87.1456,25.0192],[87.1763,25.0582],[87.1905,25.0675],[87.2111,25.0808],[87.2128,25.0912],[87.237,25.0891],[87.2412,25.1169],[87.2699,25.0941],[87.2954,25.0886],[87.3274,25.2238],[87.3719,25.2061],[87.3923,25.2258],[87.3965,25.2264],[87.4052,25.2232],[87.4123,25.2151],[87.4781,25.1943]]]}},{"type":"Feature","properties":{"district":"Pakur","district_hi":"पाकुड़"},"geometry":{"type":"Polygon","coordinates":[[[87.5095,24.7986],[87.5392,24.802],[87.5353,24.8237],[87.5508,24.828],[87.5702,24.8087],[87.606,24.8087],[87.6215,24.7939],[87.5976,24.8055],[87.5844,24.7913],[87.5979,24.7936],[87.6108,24.7783],[87.6547,24.7702],[87.6635,24.7604],[87.6709,24.7656],[87.6867,24.7431],[87.7119,24.7416],[87.7145,24.7301],[87.7348,24.7653],[87.7474,24.7685],[87.7532,24.7648],[87.7426,24.7564],[87.7558,24.748],[87.7874,24.7509],[87.7968,24.7154],[87.8094,24.7275],[87.8465,24.7206],[87.8465,24.7211],[87.8423,24.7428],[87.8397,24.7445],[87.8533,24.7385],[87.8656,24.7327],[87.8688,24.7341],[87.8827,24.7414],[87.8901,24.7249],[87.9079,24.7214],[87.8885,24.6793],[87.9169,24.6657],[87.9143,24.6371],[87.9056,24.6148],[87.8753,24.6137],[87.9114,24.6102],[87.9088,24.5857],[87.8927,24.5813],[87.8911,24.5654],[87.8904,24.5652],[87.852,24.5539],[87.8278,24.5582],[87.8265,24.5695],[87.8159,24.5741],[87.801,24.5802],[87.7929,24.5836],[87.7716,24.5836],[87.7707,24.5709],[87.7913,24.5721],[87.8087,24.5475],[87.7994,24.5438],[87.8033,24.5056],[87.7942,24.5013],[87.8023,24.4944],[87.8097,24.5143],[87.8113,24.4921],[87.8272,24.4973],[87.8107,24.4771],[87.8239,24.4583],[87.8033,24.4542],[87.7894,24.4204],[87.8,24.4092],[87.8068,24.4196],[87.8078,24.4187],[87.8107,24.4129],[87.7971,24.4019],[87.7945,24.3999],[87.7942,24.3996],[87.801,24.3826],[87.7645,24.3398],[87.7707,24.3225],[87.7616,24.3084],[87.73,24.2884],[87.7132,24.2939],[87.7061,24.2604],[87.6622,24.2454],[87.6586,24.2367],[87.6389,24.2549],[87.5818,24.2572],[87.5879,24.3231],[87.5695,24.3866],[87.5666,24.4978],[87.575,24.5074],[87.5643,24.5224],[87.5634,24.5238],[87.5369,24.508],[87.4794,24.5293],[87.4204,24.5137],[87.4236,24.5155],[87.3978,24.5117],[87.3923,24.5178],[87.391,24.5481],[87.4045,24.5363],[87.4391,24.5692],[87.4488,24.5626],[87.4665,24.5704],[87.4546,24.5888],[87.4604,24.6171],[87.4442,24.6189],[87.4468,24.6322],[87.4733,24.6481],[87.4727,24.6894],[87.4591,24.7321],[87.4352,24.7593],[87.4388,24.7642],[87.4597,24.7925],[87.4975,24.783],[87.5095,24.7986]]]}},{"type":"Feature","properties":{"district":"Giridih","district_hi":"गिरिडीह"},"geometry":{"type":"Polygon","coordinates":[[[86.4528,24.3725],[86.4566,24.3719],[86.456,24.3595],[86.4557,24.3583],[86.4689,24.354],[86.4563,24.3355],[86.4744,24.3306],[86.4712,24.3133],[86.487,24.2876],[86.5035,24.2832],[86.5148,24.2405],[86.5073,24.2312],[86.5157,24.2226],[86.4838,24.1527],[86.518,24.1541],[86.5231,24.1587],[86.5344,24.155],[86.5651,24.1452],[86.5706,24.1434],[86.5703,24.1423],[86.57,24.1417],[86.5425,24.0718],[86.529,24.0544],[86.4834,24.0449],[86.4815,24.0446],[86.4757,24.0296],[86.4754,24.0285],[86.4754,24.0282],[86.4828,24.0311],[86.4828,24.0233],[86.4828,24.0227],[86.4828,24.0224],[86.4815,24.0224],[86.4499,24.027],[86.4137,24.0322],[86.4053,24.0391],[86.3795,24.0599],[86.3795,24.0596],[86.3666,24.049],[86.3659,24.049],[86.3643,24.049],[86.3365,24.0495],[86.3327,24.0365],[86.3175,24.0311],[86.3398,24.0183],[86.3394,24.0071],[86.3126,23.9773],[86.2926,23.9164],[86.2222,23.9409],[86.1344,23.9294],[86.1254,23.9025],[86.1251,23.9019],[86.1099,23.8878],[86.1031,23.8872],[86.0983,23.884],[86.0963,23.8869],[86.0712,23.9222],[85.995,23.9118],[85.9682,23.895],[85.9675,23.8944],[85.9669,23.8967],[85.9436,23.9279],[85.9459,23.9386],[85.9307,23.9256],[85.9265,23.9456],[85.9117,23.9484],[85.9146,23.9502],[85.9297,23.9588],[85.9301,23.9796],[85.8978,23.9923],[85.8923,24.0143],[85.8913,24.0149],[85.8758,24.0065],[85.8755,24.0065],[85.8568,24.0183],[85.8755,24.0334],[85.872,24.0516],[85.8542,24.0481],[85.8358,24.0721],[85.8155,24.0622],[85.8009,24.0677],[85.8048,24.0787],[85.769,24.0929],[85.7774,24.1012],[85.7696,24.1038],[85.7338,24.0946],[85.7105,24.1015],[85.7118,24.1264],[85.6744,24.1472],[85.6818,24.1758],[85.7922,24.2116],[85.8016,24.2266],[85.819,24.2096],[85.8474,24.2194],[85.859,24.2125],[85.8539,24.2489],[85.8355,24.2555],[85.8351,24.2558],[85.85,24.2734],[85.8506,24.274],[85.8619,24.2878],[85.8736,24.2878],[85.8694,24.324],[85.851,24.328],[85.8452,24.3407],[85.8548,24.4141],[85.8364,24.4248],[85.83,24.4456],[85.8561,24.4681],[85.8684,24.5264],[85.8106,24.5487],[85.8106,24.5496],[85.8071,24.5735],[85.7909,24.59],[85.8016,24.6093],[85.7861,24.6024],[85.7735,24.6105],[85.7735,24.6108],[85.7728,24.6342],[85.7725,24.644],[85.7725,24.6443],[85.7935,24.6677],[85.7987,24.6677],[85.8161,24.6683],[85.8413,24.6689],[85.8174,24.7237],[85.8552,24.7399],[85.8858,24.7318],[85.8845,24.7506],[85.902,24.7656],[85.9029,24.7665],[85.933,24.7385],[85.941,24.735],[85.9701,24.733],[85.9804,24.7486],[86.0547,24.7795],[86.0553,24.7798],[86.0566,24.7607],[86.0369,24.7408],[86.0663,24.7518],[86.0676,24.7515],[86.0705,24.7509],[86.0941,24.7448],[86.0989,24.7385],[86.1286,24.6986],[86.1312,24.6755],[86.1154,24.6437],[86.1325,24.6036],[86.1835,24.5828],[86.2135,24.5943],[86.2148,24.614],[86.2591,24.5782],[86.3227,24.5868],[86.3007,24.5608],[86.3078,24.5475],[86.2972,24.5334],[86.3091,24.5111],[86.2762,24.4658],[86.2988,24.4609],[86.2942,24.4513],[86.3172,24.4415],[86.3491,24.4464],[86.3582,24.4291],[86.3772,24.4308],[86.3953,24.4152],[86.3966,24.4129],[86.4131,24.3803],[86.4373,24.3757],[86.4528,24.3725]]]}},{"type":"Feature","properties":{"district":"Dumka","district_hi":"दुमका"},"geometry":{"type":"Polygon","coordinates":[[[87.052,24.6273],[87.0549,24.6394],[87.0643,24.6431],[87.1072,24.6281],[87.1214,24.633],[87.123,24.6333],[87.1275,24.6296],[87.1569,24.6148],[87.1659,24.6166],[87.2031,24.5949],[87.2186,24.5989],[87.2438,24.5862],[87.2754,24.6056],[87.307,24.5987],[87.3697,24.5155],[87.3777,24.5045],[87.3829,24.5036],[87.4194,24.5134],[87.4204,24.5137],[87.4794,24.5293],[87.5369,24.508],[87.5634,24.5238],[87.5643,24.5224],[87.575,24.5074],[87.5666,24.4978],[87.5695,24.3866],[87.5879,24.3231],[87.5818,24.2572],[87.6389,24.2549],[87.6393,24.2535],[87.6386,24.2541],[87.646,24.2301],[87.6383,24.2148],[87.6744,24.2075],[87.677,24.1945],[87.6983,24.1873],[87.6951,24.1492],[87.6728,24.142],[87.6754,24.1512],[87.6644,24.1573],[87.6418,24.153],[87.6309,24.1642],[87.576,24.161],[87.6102,24.1324],[87.5853,24.1241],[87.5744,24.1119],[87.5808,24.0877],[87.5589,24.0813],[87.543,24.0856],[87.5321,24.1073],[87.4975,24.118],[87.5004,24.1018],[87.4894,24.0903],[87.5111,24.0828],[87.4927,24.077],[87.4927,24.0724],[87.493,24.0666],[87.4933,24.0542],[87.502,24.0507],[87.5111,24.0354],[87.4762,24.012],[87.4378,24.0129],[87.4604,23.9906],[87.4604,23.9883],[87.4417,23.9819],[87.4397,23.9819],[87.3606,24.0129],[87.3513,23.9984],[87.3274,24.0004],[87.3206,24.0065],[87.3196,24.0082],[87.3361,24.0209],[87.3371,24.0339],[87.2883,24.0285],[87.246,24.0449],[87.2454,24.0452],[87.2363,24.0293],[87.2337,24.0244],[87.2334,24.0244],[87.2331,24.0241],[87.215,24.0235],[87.1362,24.0368],[87.1111,24.0637],[87.0969,24.107],[87.0746,24.1067],[87.0471,24.1365],[87.0097,24.1463],[86.9981,24.127],[86.98,24.1244],[86.9761,24.1076],[86.9742,24.1088],[86.9622,24.1151],[86.9661,24.127],[86.9345,24.1365],[86.9445,24.1657],[86.958,24.1636],[86.9642,24.1784],[86.9797,24.1813],[86.9729,24.2133],[86.9732,24.2133],[87.0119,24.213],[87.0407,24.1963],[87.0507,24.2058],[87.0452,24.2234],[87.0665,24.2517],[87.03,24.2642],[87.0207,24.3063],[86.9616,24.3133],[86.9667,24.3517],[86.938,24.3595],[86.937,24.3809],[86.9264,24.3878],[86.9458,24.4207],[86.9035,24.4118],[86.9015,24.4329],[86.8893,24.4346],[86.8883,24.4346],[86.8886,24.447],[86.9102,24.4638],[86.9031,24.4724],[86.9177,24.4973],[86.9177,24.4996],[86.9132,24.5478],[86.9132,24.549],[86.9086,24.5958],[86.9454,24.6359],[86.9416,24.6521],[86.9584,24.6489],[86.9529,24.6313],[86.9784,24.6403],[86.9961,24.62],[87.02,24.6299],[87.0229,24.6157],[87.0478,24.6093],[87.0517,24.6261],[87.052,24.6273]]]}},{"type":"Feature","properties":{"district":"Deoghar","district_hi":"देवघर"},"geometry":{"type":"Polygon","coordinates":[[[86.57,24.1417],[86.5703,24.1423],[86.5706,24.1434],[86.5651,24.1452],[86.5344,24.155],[86.5231,24.1587],[86.518,24.1541],[86.4838,24.1527],[86.5157,24.2226],[86.5073,24.2312],[86.5148,24.2405],[86.5035,24.2832],[86.487,24.2876],[86.4712,24.3133],[86.4744,24.3306],[86.4563,24.3355],[86.4689,24.354],[86.4557,24.3583],[86.456,24.3595],[86.4566,24.3719],[86.4528,24.3725],[86.4657,24.3803],[86.467,24.3809],[86.467,24.3829],[86.4679,24.4236],[86.4679,24.4251],[86.4809,24.4279],[86.4773,24.4346],[86.4912,24.4279],[86.4941,24.4479],[86.4954,24.4563],[86.4834,24.4678],[86.5025,24.4929],[86.4996,24.51],[86.5277,24.5444],[86.5525,24.536],[86.559,24.5649],[86.5806,24.5666],[86.6081,24.6076],[86.6084,24.6085],[86.611,24.6085],[86.6106,24.5995],[86.6242,24.6001],[86.6439,24.5787],[86.652,24.5704],[86.6597,24.5709],[86.7349,24.5796],[86.7498,24.5955],[86.7533,24.618],[86.7734,24.6177],[86.8108,24.5992],[86.8021,24.5704],[86.8434,24.575],[86.8408,24.5628],[86.8567,24.5548],[86.8812,24.5741],[86.9132,24.5478],[86.9177,24.4996],[86.9177,24.4973],[86.9031,24.4724],[86.9102,24.4638],[86.8886,24.447],[86.8883,24.4346],[86.8893,24.4346],[86.9015,24.4329],[86.9035,24.4118],[86.9458,24.4207],[86.9264,24.3878],[86.937,24.3809],[86.938,24.3595],[86.9667,24.3517],[86.9616,24.3133],[87.0207,24.3063],[87.03,24.2642],[87.0665,24.2517],[87.0452,24.2234],[87.0507,24.2058],[87.0407,24.1963],[87.0119,24.213],[86.9732,24.2133],[86.9729,24.2133],[86.9797,24.1813],[86.9642,24.1784],[86.958,24.1636],[86.9445,24.1657],[86.9345,24.1365],[86.9661,24.127],[86.9622,24.1151],[86.9742,24.1088],[86.9761,24.1076],[86.9703,24.0981],[86.9703,24.0975],[86.9784,24.0793],[86.9758,24.0614],[86.9564,24.0536],[86.9535,24.0417],[86.8867,24.0695],[86.8386,24.0504],[86.8199,24.0634],[86.8147,24.083],[86.7927,24.0787],[86.7898,24.0631],[86.7727,24.0663],[86.7575,24.0793],[86.7675,24.0854],[86.7617,24.0926],[86.6978,24.1128],[86.6991,24.1345],[86.7159,24.1428],[86.7162,24.1541],[86.6972,24.1654],[86.6807,24.1293],[86.5732,24.1394],[86.57,24.1417]]]}},{"type":"Feature","properties":{"district":"Palamu","district_hi":"पलामू"},"geometry":{"type":"Polygon","coordinates":[[[83.8725,24.5319],[83.8728,24.5322],[83.9361,24.5496],[83.939,24.5527],[83.9975,24.6287],[84.0081,24.6426],[84.0084,24.6429],[84.052,24.6105],[84.0507,24.5868],[84.062,24.5868],[84.0585,24.5724],[84.073,24.5675],[84.0775,24.5415],[84.093,24.5342],[84.0856,24.5062],[84.1082,24.4776],[84.1247,24.4808],[84.1256,24.4924],[84.1408,24.5004],[84.1347,24.5241],[84.1457,24.5374],[84.1631,24.5334],[84.1563,24.5108],[84.1783,24.5054],[84.1857,24.5221],[84.1728,24.5452],[84.1883,24.5533],[84.1915,24.5536],[84.1947,24.5542],[84.1999,24.5548],[84.2128,24.5354],[84.217,24.538],[84.2202,24.547],[84.2357,24.5501],[84.2357,24.5392],[84.2567,24.527],[84.2796,24.5472],[84.2706,24.5602],[84.2968,24.5608],[84.3261,24.49],[84.3022,24.4797],[84.2913,24.4664],[84.2929,24.4623],[84.2974,24.449],[84.3216,24.4461],[84.3355,24.4314],[84.3206,24.421],[84.3342,24.4204],[84.342,24.3936],[84.342,24.3933],[84.3736,24.3835],[84.3878,24.3887],[84.3939,24.3734],[84.4065,24.3748],[84.4007,24.3647],[84.4307,24.3566],[84.4243,24.3297],[84.4601,24.3372],[84.4669,24.3173],[84.4837,24.313],[84.5034,24.3292],[84.4853,24.3066],[84.4947,24.2893],[84.4956,24.2873],[84.4943,24.287],[84.4901,24.2619],[84.4579,24.2662],[84.4475,24.2396],[84.4746,24.2269],[84.4746,24.2061],[84.4895,24.1997],[84.5379,24.2021],[84.5324,24.1781],[84.5521,24.1521],[84.5822,24.1417],[84.5763,24.1203],[84.5544,24.1015],[84.5647,24.0764],[84.5776,24.0712],[84.5686,24.0516],[84.5567,24.0484],[84.5554,24.0469],[84.5654,24.0313],[84.5541,24.0088],[84.5783,23.9877],[84.5818,23.9848],[84.5893,23.9785],[84.5889,23.9779],[84.5702,23.9594],[84.5667,23.9282],[84.5667,23.9276],[84.5311,23.9337],[84.5176,23.9213],[84.525,23.9016],[84.493,23.8959],[84.4856,23.8944],[84.4698,23.9167],[84.4805,23.93],[84.4692,23.9574],[84.4517,23.9609],[84.4498,23.9611],[84.4269,23.9473],[84.4056,23.9343],[84.3432,23.9533],[84.3339,23.9097],[84.2938,23.9161],[84.257,23.9045],[84.2428,23.8889],[84.239,23.8964],[84.2577,23.917],[84.2516,23.9308],[84.218,23.9086],[84.1831,23.9357],[84.1415,23.9456],[84.1457,23.9222],[84.1373,23.9045],[84.0633,23.8574],[84.0501,23.8341],[84.0553,23.8161],[84.0549,23.8159],[84.0517,23.8127],[84.0365,23.7974],[84.0359,23.7974],[84.0223,23.8034],[84.0194,23.802],[84.0191,23.8017],[84.0059,23.7953],[84.0007,23.7927],[84.0007,23.7945],[84.0004,23.8173],[83.98,23.8543],[83.9361,23.8684],[83.94,23.9227],[83.9132,23.9378],[83.8929,23.9814],[83.8664,23.9822],[83.8657,23.9551],[83.8315,23.9505],[83.817,23.9585],[83.8176,23.9588],[83.8341,23.9701],[83.8409,23.9915],[83.8251,24.0013],[83.8473,24.0371],[83.8609,24.0391],[83.8645,24.0698],[83.91,24.0955],[83.9293,24.0955],[83.9507,24.0955],[83.959,24.1096],[83.9852,24.105],[83.9881,24.1062],[83.9674,24.1506],[83.9345,24.1639],[83.8806,24.2058],[83.818,24.2893],[83.8183,24.2902],[83.8247,24.3081],[83.8293,24.3214],[83.8222,24.337],[83.8115,24.3557],[83.8125,24.3583],[83.8202,24.3794],[83.8512,24.4022],[83.8519,24.4822],[83.8725,24.5319]]]}},{"type":"Feature","properties":{"district":"Chatra","district_hi":"चतरा"},"geometry":{"type":"Polygon","coordinates":[[[84.5783,23.9877],[84.5541,24.0088],[84.5654,24.0313],[84.5554,24.0469],[84.5567,24.0484],[84.5686,24.0516],[84.5776,24.0712],[84.5647,24.0764],[84.5544,24.1015],[84.5763,24.1203],[84.5822,24.1417],[84.5521,24.1521],[84.5324,24.1781],[84.5379,24.2021],[84.4895,24.1997],[84.4746,24.2061],[84.4746,24.2269],[84.4475,24.2396],[84.4579,24.2662],[84.4901,24.2619],[84.4943,24.287],[84.4956,24.2873],[84.4963,24.2864],[84.4969,24.2873],[84.5047,24.2991],[84.5318,24.3387],[84.5299,24.3569],[84.5282,24.3736],[84.5279,24.3751],[84.5541,24.3728],[84.5725,24.3829],[84.5615,24.3965],[84.5676,24.4092],[84.5831,24.4129],[84.586,24.4002],[84.6464,24.4031],[84.6655,24.391],[84.6864,24.4568],[84.7284,24.4698],[84.7552,24.4999],[84.7862,24.5036],[84.8027,24.5305],[84.8388,24.5126],[84.8327,24.4701],[84.8408,24.469],[84.8398,24.4525],[84.8537,24.4667],[84.864,24.4571],[84.8753,24.4672],[84.8873,24.4632],[84.8821,24.4248],[84.9044,24.3953],[84.904,24.3722],[84.9492,24.3739],[84.9541,24.3716],[84.9735,24.3745],[84.9751,24.3748],[84.9754,24.3751],[85.028,24.4155],[85.0619,24.4074],[85.0797,24.4334],[85.0816,24.3985],[85.0726,24.3809],[85.0884,24.3739],[85.0877,24.3705],[85.0845,24.3676],[85.0865,24.363],[85.1003,24.3286],[85.1423,24.3294],[85.1362,24.3563],[85.183,24.3338],[85.1998,24.3257],[85.1998,24.326],[85.2066,24.3396],[85.2266,24.3445],[85.2824,24.3326],[85.3021,24.3387],[85.3128,24.3318],[85.336,24.3164],[85.3396,24.3144],[85.3544,24.3107],[85.3612,24.3089],[85.3628,24.3086],[85.3793,24.3216],[85.3799,24.3107],[85.356,24.2928],[85.3467,24.3069],[85.3215,24.3098],[85.3263,24.2954],[85.3173,24.2922],[85.3137,24.2538],[85.3215,24.248],[85.3002,24.2367],[85.3021,24.1995],[85.2718,24.2165],[85.1607,24.2301],[85.1491,24.2096],[85.1352,24.2061],[85.1488,24.183],[85.143,24.1564],[85.1513,24.1576],[85.1743,24.1241],[85.1656,24.1215],[85.1746,24.1114],[85.1701,24.0998],[85.2366,24.0712],[85.2427,24.064],[85.2488,24.0345],[85.2482,24.0131],[85.2479,24.0126],[85.2298,24.0117],[85.2298,24.0114],[85.2295,24.0094],[85.2262,23.997],[85.2133,23.9929],[85.213,23.9926],[85.213,23.9923],[85.2014,23.9583],[85.2011,23.9571],[85.1998,23.9562],[85.1484,23.9507],[85.1239,23.9765],[85.0984,23.9759],[85.0845,23.9585],[85.0748,23.962],[85.0764,23.9834],[85.0535,23.986],[85.0432,24.0025],[85.0248,23.9918],[85.028,23.964],[85.0558,23.9585],[85.0383,23.9392],[85.0464,23.9138],[85.028,23.9155],[85.0216,23.8826],[85.0212,23.8811],[85.0216,23.8811],[85.0316,23.8797],[85.0316,23.8785],[85.0303,23.86],[85.0597,23.8338],[85.0471,23.828],[85.0438,23.8104],[85.048,23.7477],[85.0642,23.7324],[85.0461,23.7327],[85.0522,23.7127],[85.0529,23.7113],[85.0513,23.7113],[85.0493,23.7116],[85.0358,23.6905],[85.0109,23.696],[85.0038,23.6815],[84.9893,23.7044],[84.9744,23.7127],[84.9702,23.7174],[84.9696,23.7153],[84.9444,23.7295],[84.9383,23.7332],[84.9289,23.7714],[84.9034,23.7769],[84.9057,23.7907],[84.9131,23.8034],[84.9415,23.8069],[84.9467,23.8066],[84.9467,23.8075],[84.9476,23.8465],[84.9292,23.8618],[84.9525,23.8765],[84.9418,23.9074],[84.9263,23.9149],[84.9325,23.9378],[84.9337,23.9415],[84.9286,23.9458],[84.9253,23.9487],[84.9202,23.9528],[84.9124,23.9507],[84.8892,23.9441],[84.8498,23.9661],[84.8485,23.9655],[84.8298,23.9577],[84.8262,23.9877],[84.8059,23.973],[84.761,23.9744],[84.7733,23.9863],[84.7633,23.9978],[84.771,24.0114],[84.7462,24.0487],[84.7458,24.0484],[84.7142,24.0403],[84.7158,24.0264],[84.6935,24.0253],[84.6703,23.999],[84.6525,24.0059],[84.6367,23.9903],[84.5783,23.9877]]]}},{"type":"Feature","properties":{"district":"Garhwa","district_hi":"गढ़वा"},"geometry":{"type":"Polygon","coordinates":[[[83.8725,24.5319],[83.8519,24.4822],[83.8512,24.4022],[83.8202,24.3794],[83.8125,24.3583],[83.8115,24.3557],[83.8222,24.337],[83.8293,24.3214],[83.8247,24.3081],[83.8183,24.2902],[83.818,24.2893],[83.8806,24.2058],[83.9345,24.1639],[83.9674,24.1506],[83.9881,24.1062],[83.9852,24.105],[83.959,24.1096],[83.9507,24.0955],[83.9293,24.0955],[83.91,24.0955],[83.8645,24.0698],[83.8609,24.0391],[83.8473,24.0371],[83.8251,24.0013],[83.8409,23.9915],[83.8341,23.9701],[83.8176,23.9588],[83.817,23.9585],[83.8315,23.9505],[83.8657,23.9551],[83.8664,23.9822],[83.8929,23.9814],[83.9132,23.9378],[83.94,23.9227],[83.9361,23.8684],[83.98,23.8543],[84.0004,23.8173],[84.0007,23.7945],[84.0007,23.7927],[84.0059,23.7953],[84.0191,23.8017],[84.022,23.7875],[84.0227,23.7838],[84.0065,23.7497],[84.0055,23.748],[84.0055,23.7477],[83.9823,23.7327],[83.9816,23.7321],[83.9826,23.7312],[84.0227,23.6954],[84.0646,23.6937],[84.0672,23.6916],[84.0511,23.6604],[84.0165,23.6344],[83.9319,23.6206],[83.9377,23.5692],[83.8154,23.5963],[83.8073,23.5877],[83.8005,23.6021],[83.7753,23.6102],[83.775,23.622],[83.7518,23.6388],[83.7611,23.6515],[83.7227,23.6859],[83.746,23.7197],[83.7376,23.7607],[83.7214,23.7717],[83.7053,23.8208],[83.6646,23.8277],[83.6594,23.8494],[83.5713,23.8621],[83.5858,23.8863],[83.5535,23.8982],[83.5474,23.9375],[83.5151,23.9808],[83.5238,24.0114],[83.5158,24.0273],[83.4515,24.0429],[83.4315,24.0859],[83.4066,24.0804],[83.3879,24.1001],[83.3301,24.1021],[83.3324,24.1044],[83.3343,24.1041],[83.354,24.1249],[83.3831,24.198],[83.3789,24.2304],[83.4092,24.2665],[83.4073,24.2887],[83.3863,24.2988],[83.3805,24.3136],[83.4115,24.3398],[83.4328,24.3381],[83.4331,24.3387],[83.4573,24.3647],[83.4344,24.4008],[83.405,24.4048],[83.405,24.436],[83.3941,24.4346],[83.3866,24.4487],[83.3999,24.4978],[83.4977,24.5238],[83.5032,24.5256],[83.5041,24.5253],[83.5058,24.5256],[83.5958,24.5126],[83.6879,24.5137],[83.7185,24.5033],[83.7996,24.5296],[83.8005,24.5296],[83.8038,24.5299],[83.8625,24.5368],[83.8722,24.5322],[83.8725,24.5319]]]}},{"type":"Feature","properties":{"district":"Jamtara","district_hi":"जामताड़ा"},"geometry":{"type":"Polygon","coordinates":[[[86.4815,24.0224],[86.4828,24.0224],[86.4828,24.0227],[86.4828,24.0233],[86.4828,24.0311],[86.4754,24.0282],[86.4754,24.0285],[86.4757,24.0296],[86.4815,24.0446],[86.4834,24.0449],[86.529,24.0544],[86.5425,24.0718],[86.57,24.1417],[86.5732,24.1394],[86.6807,24.1293],[86.6972,24.1654],[86.7162,24.1541],[86.7159,24.1428],[86.6991,24.1345],[86.6978,24.1128],[86.7617,24.0926],[86.7675,24.0854],[86.7575,24.0793],[86.7727,24.0663],[86.7898,24.0631],[86.7927,24.0787],[86.8147,24.083],[86.8199,24.0634],[86.8386,24.0504],[86.8867,24.0695],[86.9535,24.0417],[86.9564,24.0536],[86.9758,24.0614],[86.9784,24.0793],[86.9703,24.0975],[86.9703,24.0981],[86.9761,24.1076],[86.9742,24.1088],[86.9761,24.1076],[86.98,24.1244],[86.9981,24.127],[87.0097,24.1463],[87.0471,24.1365],[87.0746,24.1067],[87.0969,24.107],[87.1111,24.0637],[87.1362,24.0368],[87.215,24.0235],[87.2331,24.0241],[87.2334,24.0244],[87.2337,24.0244],[87.2476,23.9987],[87.2628,24.0036],[87.2625,23.9684],[87.2625,23.9672],[87.2928,23.9591],[87.2844,23.9219],[87.2951,23.9014],[87.2696,23.8745],[87.2528,23.8996],[87.2576,23.9086],[87.2463,23.9089],[87.2409,23.8704],[87.2557,23.8439],[87.2405,23.826],[87.2173,23.83],[87.2337,23.8566],[87.206,23.8566],[87.1892,23.8424],[87.1966,23.858],[87.1808,23.8528],[87.165,23.8652],[87.1295,23.869],[87.1301,23.8537],[87.1672,23.8251],[87.1495,23.7968],[87.1401,23.8049],[87.112,23.7991],[87.1162,23.8072],[87.0943,23.813],[87.0894,23.8141],[87.0891,23.8141],[87.0852,23.8115],[87.082,23.8095],[86.9764,23.8676],[86.9739,23.8687],[86.9626,23.8494],[86.9467,23.8462],[86.9161,23.8826],[86.8812,23.8632],[86.8944,23.8349],[86.8899,23.8196],[86.8747,23.8476],[86.8253,23.8147],[86.8244,23.8138],[86.8221,23.8156],[86.8127,23.8242],[86.8014,23.8341],[86.7882,23.8459],[86.7798,23.8551],[86.7759,23.8569],[86.7669,23.8612],[86.7553,23.8664],[86.7356,23.86],[86.7172,23.9014],[86.6539,23.9268],[86.5829,23.9831],[86.5219,23.9877],[86.4663,24.0192],[86.4815,24.0224]]]}},{"type":"Feature","properties":{"district":"Dhanbad","district_hi":"धनबाद"},"geometry":{"type":"Polygon","coordinates":[[[86.1099,23.8878],[86.1251,23.9019],[86.1254,23.9025],[86.1344,23.9294],[86.2222,23.9409],[86.2926,23.9164],[86.3126,23.9773],[86.3394,24.0071],[86.3398,24.0183],[86.3175,24.0311],[86.3327,24.0365],[86.3365,24.0495],[86.3643,24.049],[86.3659,24.049],[86.3666,24.049],[86.3795,24.0596],[86.3795,24.0599],[86.4053,24.0391],[86.4137,24.0322],[86.4499,24.027],[86.4815,24.0224],[86.4663,24.0192],[86.5219,23.9877],[86.5829,23.9831],[86.6539,23.9268],[86.7172,23.9014],[86.7356,23.86],[86.7553,23.8664],[86.7669,23.8612],[86.7759,23.8569],[86.7798,23.8551],[86.7882,23.8459],[86.8014,23.8341],[86.8005,23.8341],[86.8095,23.8231],[86.8102,23.8222],[86.8102,23.8219],[86.804,23.8014],[86.8276,23.765],[86.8282,23.7641],[86.8279,23.7624],[86.8279,23.7595],[86.8276,23.7517],[86.8118,23.7451],[86.8014,23.6992],[86.8005,23.6948],[86.7479,23.6789],[86.7395,23.6945],[86.7146,23.6983],[86.713,23.6986],[86.5984,23.674],[86.5745,23.6477],[86.528,23.6301],[86.4905,23.6376],[86.486,23.6365],[86.488,23.6373],[86.4399,23.6532],[86.3917,23.6694],[86.3895,23.6703],[86.3717,23.7113],[86.3465,23.7139],[86.3349,23.7038],[86.3088,23.7208],[86.2442,23.7127],[86.2032,23.7185],[86.1842,23.7243],[86.1838,23.7249],[86.1913,23.7494],[86.1599,23.7985],[86.1616,23.828],[86.1428,23.8303],[86.1393,23.8595],[86.1393,23.8598],[86.117,23.8696],[86.1167,23.8696],[86.1193,23.8881],[86.1196,23.8884],[86.1099,23.8878]]]}},{"type":"Feature","properties":{"district":"Latehar","district_hi":"लातेहार"},"geometry":{"type":"Polygon","coordinates":[[[84.0191,23.8017],[84.0194,23.802],[84.0223,23.8034],[84.0359,23.7974],[84.0365,23.7974],[84.0517,23.8127],[84.0549,23.8159],[84.0553,23.8161],[84.0501,23.8341],[84.0633,23.8574],[84.1373,23.9045],[84.1457,23.9222],[84.1415,23.9456],[84.1831,23.9357],[84.218,23.9086],[84.2516,23.9308],[84.2577,23.917],[84.239,23.8964],[84.2428,23.8889],[84.257,23.9045],[84.2938,23.9161],[84.3339,23.9097],[84.3432,23.9533],[84.4056,23.9343],[84.4269,23.9473],[84.4498,23.9611],[84.4517,23.9609],[84.4692,23.9574],[84.4805,23.93],[84.4698,23.9167],[84.4856,23.8944],[84.493,23.8959],[84.525,23.9016],[84.5176,23.9213],[84.5311,23.9337],[84.5667,23.9276],[84.5667,23.9282],[84.5702,23.9594],[84.5889,23.9779],[84.5893,23.9785],[84.5818,23.9848],[84.5783,23.9877],[84.6367,23.9903],[84.6525,24.0059],[84.6703,23.999],[84.6935,24.0253],[84.7158,24.0264],[84.7142,24.0403],[84.7458,24.0484],[84.7462,24.0487],[84.771,24.0114],[84.7633,23.9978],[84.7733,23.9863],[84.761,23.9744],[84.8059,23.973],[84.8262,23.9877],[84.8298,23.9577],[84.8485,23.9655],[84.8498,23.9661],[84.8892,23.9441],[84.9124,23.9507],[84.9202,23.9528],[84.9253,23.9487],[84.9286,23.9458],[84.9337,23.9415],[84.9325,23.9378],[84.9263,23.9149],[84.9418,23.9074],[84.9525,23.8765],[84.9292,23.8618],[84.9476,23.8465],[84.9467,23.8075],[84.9467,23.8066],[84.9415,23.8069],[84.9131,23.8034],[84.9057,23.7907],[84.9034,23.7769],[84.9289,23.7714],[84.9383,23.7332],[84.9444,23.7295],[84.9696,23.7153],[84.9628,23.6971],[84.9492,23.7029],[84.9228,23.6697],[84.9195,23.6489],[84.9428,23.6382],[84.9473,23.6079],[84.9354,23.5504],[84.9244,23.5553],[84.9099,23.542],[84.905,23.5853],[84.8963,23.5585],[84.8847,23.5593],[84.8582,23.5331],[84.8214,23.5463],[84.8207,23.5466],[84.8227,23.5692],[84.7985,23.5645],[84.8023,23.5796],[84.793,23.5764],[84.7891,23.5452],[84.7878,23.5463],[84.7875,23.5466],[84.7807,23.5533],[84.7849,23.5723],[84.7713,23.5773],[84.7591,23.6061],[84.7455,23.6087],[84.7365,23.6382],[84.7355,23.6391],[84.722,23.62],[84.678,23.6061],[84.6813,23.618],[84.6648,23.6261],[84.6412,23.6688],[84.6128,23.6587],[84.5999,23.6685],[84.5899,23.6645],[84.5822,23.6171],[84.5638,23.6163],[84.5386,23.6688],[84.504,23.6752],[84.4692,23.6584],[84.4656,23.6275],[84.3968,23.6379],[84.3981,23.605],[84.3981,23.603],[84.3878,23.6044],[84.3571,23.609],[84.341,23.5995],[84.3407,23.5848],[84.3177,23.5804],[84.3313,23.5293],[84.3274,23.4938],[84.3155,23.4935],[84.3161,23.4819],[84.2893,23.4935],[84.2806,23.4672],[84.2751,23.4718],[84.2477,23.4487],[84.2454,23.4467],[84.259,23.3823],[84.2412,23.3493],[84.2012,23.3381],[84.1915,23.3251],[84.1147,23.3505],[84.0963,23.3311],[84.075,23.3335],[84.0746,23.3335],[84.0536,23.3525],[84.0511,23.3745],[84.0485,23.3748],[84.023,23.3779],[84.0068,23.3554],[83.9729,23.3658],[83.9623,23.3855],[83.9816,23.4224],[83.971,23.4669],[84.0146,23.5036],[84.0281,23.5458],[84.0301,23.6001],[84.0101,23.6255],[84.0152,23.6327],[84.0165,23.6344],[84.0511,23.6604],[84.0672,23.6916],[84.0646,23.6937],[84.0227,23.6954],[83.9826,23.7312],[83.9816,23.7321],[83.9823,23.7327],[84.0055,23.7477],[84.0055,23.748],[84.0065,23.7497],[84.0227,23.7838],[84.022,23.7875],[84.0191,23.8017]]]}},{"type":"Feature","properties":{"district":"Bokaro","district_hi":"बोकारो"},"geometry":{"type":"Polygon","coordinates":[[[85.9146,23.9502],[85.9117,23.9484],[85.9265,23.9456],[85.9307,23.9256],[85.9459,23.9386],[85.9436,23.9279],[85.9669,23.8967],[85.9675,23.8944],[85.9682,23.895],[85.995,23.9118],[86.0712,23.9222],[86.0963,23.8869],[86.0983,23.884],[86.1031,23.8872],[86.1099,23.8878],[86.1196,23.8884],[86.1193,23.8881],[86.1167,23.8696],[86.117,23.8696],[86.1393,23.8598],[86.1393,23.8595],[86.1428,23.8303],[86.1616,23.828],[86.1599,23.7985],[86.1913,23.7494],[86.1838,23.7249],[86.1842,23.7243],[86.2032,23.7185],[86.2442,23.7127],[86.3088,23.7208],[86.3349,23.7038],[86.3465,23.7139],[86.3717,23.7113],[86.3895,23.6703],[86.3917,23.6694],[86.4399,23.6532],[86.488,23.6373],[86.486,23.6365],[86.4847,23.6362],[86.4618,23.6298],[86.4489,23.6194],[86.4482,23.6189],[86.4463,23.6174],[86.4473,23.5986],[86.4208,23.5897],[86.414,23.5767],[86.3879,23.5741],[86.3885,23.5602],[86.3653,23.531],[86.3753,23.5091],[86.3617,23.4854],[86.3785,23.4854],[86.3792,23.4738],[86.3637,23.4715],[86.3488,23.4403],[86.334,23.4473],[86.3055,23.4351],[86.3175,23.4268],[86.3101,23.4117],[86.29,23.4181],[86.2884,23.4296],[86.2642,23.4308],[86.2523,23.427],[86.2594,23.4135],[86.2474,23.4117],[86.2303,23.4311],[86.2461,23.4597],[86.2329,23.4623],[86.2287,23.4432],[86.1771,23.4698],[86.1483,23.4655],[86.1606,23.5082],[86.148,23.5198],[86.1586,23.5596],[86.1312,23.5588],[86.126,23.5697],[86.0828,23.5657],[86.0757,23.568],[86.0728,23.5692],[86.0776,23.5793],[86.0421,23.5862],[86.0169,23.5475],[86.0282,23.5429],[86.0389,23.4978],[86.0589,23.4946],[86.054,23.4868],[85.9504,23.471],[85.8868,23.4848],[85.8852,23.4834],[85.8842,23.4845],[85.8584,23.518],[85.8345,23.5209],[85.8406,23.5354],[85.8203,23.5507],[85.839,23.5654],[85.8122,23.5773],[85.8042,23.6131],[85.7883,23.629],[85.7935,23.6376],[85.768,23.6538],[85.7612,23.6856],[85.7544,23.663],[85.7273,23.6547],[85.7121,23.633],[85.6992,23.6466],[85.6776,23.6474],[85.6521,23.6087],[85.6146,23.633],[85.6163,23.6945],[85.6088,23.7006],[85.6211,23.7226],[85.6146,23.7656],[85.6514,23.7925],[85.654,23.8138],[85.6414,23.8219],[85.6347,23.8034],[85.6133,23.7982],[85.5827,23.8537],[85.6163,23.8742],[85.6111,23.9022],[85.6153,23.9048],[85.6589,23.9352],[85.6431,23.9557],[85.6476,23.9554],[85.6576,23.9545],[85.6624,23.9571],[85.6666,23.9597],[85.6686,23.9609],[85.6731,23.9793],[85.6753,23.9869],[85.6766,23.9869],[85.6937,23.9811],[85.696,23.9788],[85.6973,23.9779],[85.685,23.9635],[85.6844,23.9629],[85.7121,23.9242],[85.7121,23.9245],[85.7373,23.9507],[85.7632,23.9447],[85.7635,23.9265],[85.8,23.8964],[85.8022,23.86],[85.8129,23.8453],[85.8348,23.8407],[85.861,23.8652],[85.8852,23.9092],[85.8894,23.9565],[85.9113,23.9481],[85.9146,23.9502]]]}},{"type":"Feature","properties":{"district":"Ramgarh","district_hi":"रामगढ़"},"geometry":{"type":"Polygon","coordinates":[[[85.6431,23.9557],[85.6589,23.9352],[85.6153,23.9048],[85.6111,23.9022],[85.6163,23.8742],[85.5827,23.8537],[85.6133,23.7982],[85.6347,23.8034],[85.6414,23.8219],[85.654,23.8138],[85.6514,23.7925],[85.6146,23.7656],[85.6211,23.7226],[85.6088,23.7006],[85.6163,23.6945],[85.6146,23.633],[85.6521,23.6087],[85.6776,23.6474],[85.6992,23.6466],[85.7121,23.633],[85.7273,23.6547],[85.7544,23.663],[85.7612,23.6856],[85.768,23.6538],[85.7935,23.6376],[85.7883,23.629],[85.8042,23.6131],[85.8122,23.5773],[85.839,23.5654],[85.8203,23.5507],[85.8406,23.5354],[85.8345,23.5209],[85.8584,23.518],[85.8842,23.4845],[85.8852,23.4834],[85.8629,23.4626],[85.8587,23.4305],[85.8477,23.4308],[85.8432,23.4233],[85.8426,23.4233],[85.8235,23.4545],[85.818,23.4536],[85.7983,23.4507],[85.7967,23.4504],[85.7958,23.4507],[85.7745,23.462],[85.7628,23.4603],[85.746,23.458],[85.7296,23.4556],[85.7202,23.4458],[85.717,23.4444],[85.7138,23.445],[85.6657,23.4594],[85.6569,23.4675],[85.6156,23.4796],[85.6001,23.4892],[85.553,23.5371],[85.5475,23.5426],[85.5465,23.5435],[85.5294,23.5348],[85.5181,23.5423],[85.5288,23.5622],[85.521,23.5799],[85.5039,23.5706],[85.5104,23.5487],[85.5084,23.5443],[85.5023,23.5449],[85.4884,23.5484],[85.481,23.5544],[85.4871,23.5637],[85.4726,23.5721],[85.4703,23.5585],[85.4513,23.5498],[85.4158,23.5611],[85.3957,23.555],[85.3915,23.5628],[85.3844,23.5501],[85.3648,23.5628],[85.336,23.5596],[85.2669,23.5787],[85.2421,23.5937],[85.2356,23.6189],[85.2046,23.6272],[85.2146,23.6503],[85.2224,23.6547],[85.2221,23.6668],[85.2259,23.6755],[85.2353,23.6836],[85.2298,23.6847],[85.235,23.6963],[85.2437,23.7116],[85.2463,23.7104],[85.2611,23.6968],[85.3057,23.6838],[85.3357,23.7044],[85.3599,23.6737],[85.3844,23.6711],[85.3844,23.6604],[85.4448,23.6552],[85.4235,23.6844],[85.4267,23.709],[85.4393,23.7093],[85.4403,23.7223],[85.4552,23.7278],[85.4697,23.7656],[85.4313,23.7777],[85.4258,23.7942],[85.4849,23.8265],[85.4881,23.839],[85.5142,23.8421],[85.5175,23.8525],[85.5614,23.8479],[85.573,23.8788],[85.564,23.8967],[85.5756,23.9187],[85.6066,23.9372],[85.6079,23.9583],[85.6431,23.9557]]]}},{"type":"Feature","properties":{"district":"Ranchi","district_hi":"रांची"},"geometry":{"type":"Polygon","coordinates":[[[84.9696,23.7153],[84.9702,23.7174],[84.9744,23.7127],[84.9893,23.7044],[85.0038,23.6815],[85.0109,23.696],[85.0358,23.6905],[85.0493,23.7116],[85.0513,23.7113],[85.0529,23.7113],[85.0668,23.7101],[85.0677,23.707],[85.0684,23.7046],[85.071,23.6971],[85.0626,23.6954],[85.0597,23.6908],[85.06,23.6853],[85.0768,23.668],[85.1162,23.663],[85.1578,23.674],[85.1659,23.6662],[85.1872,23.7098],[85.2237,23.7012],[85.2282,23.685],[85.2288,23.685],[85.2298,23.6847],[85.2353,23.6836],[85.2259,23.6755],[85.2221,23.6668],[85.2224,23.6547],[85.2146,23.6503],[85.2046,23.6272],[85.2356,23.6189],[85.2421,23.5937],[85.2669,23.5787],[85.336,23.5596],[85.3648,23.5628],[85.3844,23.5501],[85.3915,23.5628],[85.3957,23.555],[85.4158,23.5611],[85.4513,23.5498],[85.4703,23.5585],[85.4726,23.5721],[85.4871,23.5637],[85.481,23.5544],[85.4884,23.5484],[85.5023,23.5449],[85.5084,23.5443],[85.5104,23.5487],[85.5039,23.5706],[85.521,23.5799],[85.5288,23.5622],[85.5181,23.5423],[85.5294,23.5348],[85.5465,23.5435],[85.5475,23.5426],[85.553,23.5371],[85.6001,23.4892],[85.6156,23.4796],[85.6569,23.4675],[85.6657,23.4594],[85.7138,23.445],[85.717,23.4444],[85.7202,23.4458],[85.7296,23.4556],[85.746,23.458],[85.7628,23.4603],[85.7745,23.462],[85.7958,23.4507],[85.7967,23.4504],[85.7983,23.4507],[85.818,23.4536],[85.8235,23.4545],[85.8426,23.4233],[85.8432,23.4233],[85.8477,23.4308],[85.8587,23.4305],[85.8845,23.4299],[85.8862,23.4051],[85.9026,23.3985],[85.8697,23.3889],[85.87,23.3883],[85.8836,23.3505],[85.8658,23.3415],[85.8687,23.3303],[85.8384,23.306],[85.8197,23.2685],[85.8381,23.2471],[85.8364,23.2208],[85.8368,23.2208],[85.8432,23.2205],[85.8655,23.2205],[85.8749,23.2084],[85.8826,23.1974],[85.8833,23.196],[85.882,23.1697],[85.882,23.1682],[85.8849,23.1665],[85.8933,23.1564],[85.872,23.1567],[85.872,23.1561],[85.8703,23.1402],[85.86,23.1474],[85.8442,23.1382],[85.8167,23.0931],[85.8012,23.0836],[85.8022,23.081],[85.81,23.077],[85.8235,23.0281],[85.8125,23.0108],[85.8468,22.9851],[85.8529,22.9435],[85.8645,22.9449],[85.8762,22.9305],[85.8574,22.9005],[85.8639,22.8846],[85.8364,22.8901],[85.8364,22.9051],[85.7977,22.9091],[85.7293,22.9438],[85.6569,22.9377],[85.6482,22.9184],[85.6185,22.9146],[85.6153,22.9311],[85.6037,22.9354],[85.5798,22.9074],[85.5827,22.8953],[85.5485,22.9305],[85.564,22.9516],[85.5862,22.9461],[85.5911,22.9629],[85.603,22.9634],[85.593,23.0021],[85.6292,22.9912],[85.655,23.005],[85.6392,23.0172],[85.6437,23.0264],[85.6256,23.0307],[85.6214,23.051],[85.6379,23.0562],[85.6269,23.07],[85.5801,23.0642],[85.6179,23.0819],[85.6143,23.1154],[85.4829,23.124],[85.4597,23.1636],[85.4655,23.1807],[85.4161,23.1731],[85.3844,23.1937],[85.356,23.1844],[85.3376,23.2078],[85.3383,23.1879],[85.3189,23.1662],[85.3118,23.1714],[85.3196,23.187],[85.2866,23.2043],[85.2304,23.1986],[85.2211,23.2081],[85.2375,23.228],[85.2256,23.2312],[85.2272,23.267],[85.1911,23.2647],[85.1578,23.2846],[85.1413,23.2537],[85.0884,23.2428],[85.0474,23.1945],[85.0435,23.1864],[85.0422,23.1772],[85.0577,23.1604],[85.0577,23.1601],[85.058,23.1599],[85.0474,23.1402],[85.0545,23.12],[85.0538,23.12],[85.0261,23.1154],[85.0338,23.0902],[84.9938,23.0764],[84.9954,23.0484],[84.9899,23.0397],[84.9796,23.0229],[84.9789,23.0224],[84.9786,23.0221],[84.9654,23.0238],[84.9644,23.012],[84.9634,23.0114],[84.9625,23.0111],[84.9457,23.003],[84.9434,23.0018],[84.9434,23.0021],[84.9425,23.0238],[84.9331,23.0322],[84.9305,23.0345],[84.9286,23.0362],[84.9131,23.0293],[84.904,23.0562],[84.8714,23.0686],[84.8659,23.0989],[84.8956,23.0986],[84.8989,23.1099],[84.8905,23.1157],[84.8863,23.1304],[84.8889,23.1671],[84.9208,23.1679],[84.925,23.1876],[84.9108,23.1945],[84.9354,23.2014],[84.9509,23.2248],[84.9496,23.226],[84.9386,23.2329],[84.9115,23.25],[84.8966,23.2592],[84.8982,23.2867],[84.9234,23.3092],[84.9228,23.3106],[84.9215,23.3132],[84.9176,23.321],[84.904,23.328],[84.9021,23.3268],[84.9073,23.347],[84.9031,23.3638],[84.8869,23.3696],[84.8879,23.3719],[84.894,23.3849],[84.8853,23.4034],[84.886,23.4042],[84.8869,23.406],[84.9015,23.4294],[84.9376,23.4874],[84.9444,23.4987],[84.9434,23.5042],[84.9325,23.5206],[84.9082,23.5221],[84.9082,23.5227],[84.9076,23.5224],[84.9095,23.5374],[84.8892,23.5432],[84.8847,23.5593],[84.8963,23.5585],[84.905,23.5853],[84.9099,23.542],[84.9244,23.5553],[84.9354,23.5504],[84.9473,23.6079],[84.9428,23.6382],[84.9195,23.6489],[84.9228,23.6697],[84.9492,23.7029],[84.9628,23.6971],[84.9696,23.7153]]]}},{"type":"Feature","properties":{"district":"Lohardaga","district_hi":"लोहरदगा"},"geometry":{"type":"Polygon","coordinates":[[[84.3878,23.6044],[84.3981,23.603],[84.3981,23.605],[84.3968,23.6379],[84.4656,23.6275],[84.4692,23.6584],[84.504,23.6752],[84.5386,23.6688],[84.5638,23.6163],[84.5822,23.6171],[84.5899,23.6645],[84.5999,23.6685],[84.6128,23.6587],[84.6412,23.6688],[84.6648,23.6261],[84.6813,23.618],[84.678,23.6061],[84.722,23.62],[84.7355,23.6391],[84.7365,23.6382],[84.7455,23.6087],[84.7591,23.6061],[84.7713,23.5773],[84.7849,23.5723],[84.7807,23.5533],[84.7875,23.5466],[84.7878,23.5463],[84.7891,23.5452],[84.793,23.5764],[84.8023,23.5796],[84.7985,23.5645],[84.8227,23.5692],[84.8207,23.5466],[84.8214,23.5463],[84.8582,23.5331],[84.8847,23.5593],[84.8892,23.5432],[84.9095,23.5374],[84.9076,23.5224],[84.9082,23.5227],[84.9082,23.5221],[84.9325,23.5206],[84.9434,23.5042],[84.9444,23.4987],[84.9376,23.4874],[84.9015,23.4294],[84.8869,23.406],[84.886,23.4042],[84.8853,23.4034],[84.894,23.3849],[84.8879,23.3719],[84.8869,23.3696],[84.9031,23.3638],[84.9073,23.347],[84.9021,23.3268],[84.9008,23.3259],[84.874,23.3101],[84.8492,23.315],[84.8417,23.2997],[84.7927,23.2792],[84.7856,23.2809],[84.7933,23.3129],[84.7868,23.3219],[84.7491,23.3216],[84.7362,23.332],[84.701,23.3089],[84.6774,23.3213],[84.6609,23.3066],[84.6293,23.3072],[84.6128,23.3225],[84.5906,23.3184],[84.5625,23.3459],[84.5386,23.3456],[84.5137,23.3846],[84.4992,23.371],[84.4995,23.3525],[84.4817,23.3574],[84.4759,23.3641],[84.4779,23.3872],[84.4801,23.3941],[84.4785,23.3967],[84.4782,23.3976],[84.4743,23.4042],[84.4414,23.4048],[84.4298,23.4357],[84.475,23.4863],[84.4611,23.5348],[84.4695,23.5755],[84.4704,23.5799],[84.453,23.5848],[84.4524,23.5851],[84.455,23.5975],[84.4356,23.5897],[84.3878,23.6044]]]}},{"type":"Feature","properties":{"district":"Gumla","district_hi":"गुमला"},"geometry":{"type":"Polygon","coordinates":[[[84.0746,23.3335],[84.075,23.3335],[84.0963,23.3311],[84.1147,23.3505],[84.1915,23.3251],[84.2012,23.3381],[84.2412,23.3493],[84.259,23.3823],[84.2454,23.4467],[84.2477,23.4487],[84.2751,23.4718],[84.2806,23.4672],[84.2893,23.4935],[84.3161,23.4819],[84.3155,23.4935],[84.3274,23.4938],[84.3313,23.5293],[84.3177,23.5804],[84.3407,23.5848],[84.341,23.5995],[84.3571,23.609],[84.3878,23.6044],[84.4356,23.5897],[84.455,23.5975],[84.4524,23.5851],[84.453,23.5848],[84.4704,23.5799],[84.4695,23.5755],[84.4611,23.5348],[84.475,23.4863],[84.4298,23.4357],[84.4414,23.4048],[84.4743,23.4042],[84.4782,23.3976],[84.4785,23.3967],[84.4801,23.3941],[84.4779,23.3872],[84.4759,23.3641],[84.4817,23.3574],[84.4995,23.3525],[84.4992,23.371],[84.5137,23.3846],[84.5386,23.3456],[84.5625,23.3459],[84.5906,23.3184],[84.6128,23.3225],[84.6293,23.3072],[84.6609,23.3066],[84.6774,23.3213],[84.701,23.3089],[84.7362,23.332],[84.7491,23.3216],[84.7868,23.3219],[84.7933,23.3129],[84.7856,23.2809],[84.7927,23.2792],[84.8417,23.2997],[84.8492,23.315],[84.874,23.3101],[84.9008,23.3259],[84.9021,23.3268],[84.904,23.328],[84.9176,23.321],[84.9215,23.3132],[84.9228,23.3106],[84.9234,23.3092],[84.8982,23.2867],[84.8966,23.2592],[84.9115,23.25],[84.9386,23.2329],[84.9496,23.226],[84.9509,23.2248],[84.9354,23.2014],[84.9108,23.1945],[84.925,23.1876],[84.9208,23.1679],[84.8889,23.1671],[84.8863,23.1304],[84.8905,23.1157],[84.8989,23.1099],[84.8956,23.0986],[84.8659,23.0989],[84.8714,23.0686],[84.904,23.0562],[84.9131,23.0293],[84.9286,23.0362],[84.9305,23.0345],[84.9331,23.0322],[84.9425,23.0238],[84.9434,23.0021],[84.9434,22.9987],[84.9444,22.9672],[84.976,22.9695],[84.9806,22.9663],[84.9919,22.9588],[85.0116,22.9452],[85.0116,22.938],[85.0122,22.9244],[85.0122,22.9169],[85.0099,22.9175],[85.0077,22.9181],[84.9902,22.9227],[84.9864,22.9224],[84.9857,22.9201],[84.986,22.8967],[84.9912,22.895],[84.9867,22.8693],[84.9867,22.862],[84.9948,22.8375],[85.0057,22.8043],[85.0064,22.8022],[84.9825,22.8046],[84.9796,22.7849],[84.9796,22.7843],[84.9605,22.7748],[84.9302,22.7913],[84.9147,22.7583],[84.8808,22.7384],[84.8582,22.7656],[84.8427,22.7702],[84.8572,22.7199],[84.8314,22.73],[84.8198,22.7503],[84.8211,22.7156],[84.8101,22.7089],[84.7862,22.7228],[84.7943,22.7595],[84.7927,22.7722],[84.7826,22.7581],[84.7746,22.765],[84.7797,22.795],[84.771,22.7887],[84.7333,22.8014],[84.7168,22.7846],[84.7287,22.7748],[84.7242,22.7653],[84.7039,22.7644],[84.6948,22.7416],[84.6629,22.7303],[84.648,22.7393],[84.6445,22.7315],[84.6112,22.7344],[84.5928,22.7136],[84.5844,22.7167],[84.5583,22.7323],[84.5686,22.7477],[84.5466,22.763],[84.5276,22.7401],[84.5231,22.7445],[84.5208,22.7468],[84.514,22.7537],[84.5189,22.7581],[84.5234,22.7624],[84.5302,22.7687],[84.5512,22.769],[84.5557,22.7878],[84.5014,22.7982],[84.5014,22.8242],[84.465,22.8366],[84.4488,22.8352],[84.4475,22.8115],[84.4288,22.8103],[84.4356,22.7985],[84.4162,22.7641],[84.3917,22.7751],[84.372,22.754],[84.3494,22.7624],[84.3542,22.7505],[84.3416,22.7462],[84.3248,22.7635],[84.2938,22.7728],[84.2916,22.7734],[84.298,22.7944],[84.3152,22.8008],[84.3242,22.8511],[84.3361,22.862],[84.372,22.8652],[84.3726,22.8652],[84.3729,22.867],[84.3794,22.8834],[84.3833,22.8935],[84.3768,22.9065],[84.3965,22.9273],[84.3765,22.9744],[84.3746,22.979],[84.3281,22.9819],[84.2838,22.9649],[84.2774,22.9929],[84.2535,22.9724],[84.2425,22.9834],[84.2193,22.9787],[84.2002,23.0062],[84.2015,23.0212],[84.1857,23.0273],[84.1754,23.0099],[84.1783,22.9799],[84.1495,22.9655],[84.1253,23.0371],[84.1334,23.083],[84.0934,23.1125],[84.063,23.1133],[84.0378,23.1497],[84.0381,23.1677],[84.0381,23.1711],[84.0633,23.2061],[84.0536,23.2474],[84.0675,23.2942],[84.0659,23.2979],[84.074,23.332],[84.0746,23.3335]]]}},{"type":"Feature","properties":{"district":"Khunti","district_hi":"खूंटी"},"geometry":{"type":"Polygon","coordinates":[[[84.9434,23.0021],[84.9434,23.0018],[84.9457,23.003],[84.9625,23.0111],[84.9634,23.0114],[84.9644,23.012],[84.9654,23.0238],[84.9786,23.0221],[84.9789,23.0224],[84.9796,23.0229],[84.9899,23.0397],[84.9954,23.0484],[84.9938,23.0764],[85.0338,23.0902],[85.0261,23.1154],[85.0538,23.12],[85.0545,23.12],[85.0474,23.1402],[85.058,23.1599],[85.0577,23.1601],[85.0577,23.1604],[85.0422,23.1772],[85.0435,23.1864],[85.0474,23.1945],[85.0884,23.2428],[85.1413,23.2537],[85.1578,23.2846],[85.1911,23.2647],[85.2272,23.267],[85.2256,23.2312],[85.2375,23.228],[85.2211,23.2081],[85.2304,23.1986],[85.2866,23.2043],[85.3196,23.187],[85.3118,23.1714],[85.3189,23.1662],[85.3383,23.1879],[85.3376,23.2078],[85.356,23.1844],[85.3844,23.1937],[85.4161,23.1731],[85.4655,23.1807],[85.4597,23.1636],[85.4829,23.124],[85.6143,23.1154],[85.6179,23.0819],[85.5801,23.0642],[85.6269,23.07],[85.6379,23.0562],[85.6214,23.051],[85.6256,23.0307],[85.6437,23.0264],[85.6392,23.0172],[85.655,23.005],[85.6292,22.9912],[85.593,23.0021],[85.603,22.9634],[85.5911,22.9629],[85.5862,22.9461],[85.564,22.9516],[85.5485,22.9305],[85.5827,22.8953],[85.6014,22.8941],[85.5762,22.8652],[85.5656,22.8618],[85.5607,22.8612],[85.5572,22.8805],[85.5326,22.8687],[85.5126,22.8274],[85.5165,22.8072],[85.5107,22.8043],[85.4832,22.8011],[85.4539,22.802],[85.45,22.8236],[85.4406,22.8213],[85.4335,22.8375],[85.419,22.8323],[85.4051,22.8482],[85.388,22.8424],[85.3864,22.8678],[85.3715,22.8635],[85.3399,22.8823],[85.325,22.8828],[85.3086,22.8834],[85.2805,22.8704],[85.2488,22.8349],[85.2321,22.8407],[85.1998,22.8144],[85.1894,22.815],[85.1927,22.8268],[85.1581,22.8317],[85.1575,22.832],[85.1365,22.7543],[85.1475,22.7471],[85.1284,22.7381],[85.1329,22.7211],[85.1194,22.7098],[85.1145,22.6636],[85.0752,22.6185],[85.0942,22.596],[85.0887,22.5758],[85.0735,22.5683],[85.0755,22.574],[85.0697,22.605],[85.0535,22.6113],[85.0522,22.6191],[85.0493,22.637],[85.0606,22.6676],[85.0603,22.6676],[85.0542,22.6723],[85.0413,22.6818],[85.0487,22.7063],[85.0584,22.7375],[85.058,22.7381],[85.0487,22.7534],[85.0096,22.7699],[85.0048,22.7872],[85.0044,22.7875],[84.9961,22.7866],[84.9796,22.7849],[84.9825,22.8046],[85.0064,22.8022],[85.0057,22.8043],[84.9948,22.8375],[84.9867,22.862],[84.9867,22.8693],[84.9912,22.895],[84.986,22.8967],[84.9857,22.9201],[84.9864,22.9224],[84.9902,22.9227],[85.0077,22.9181],[85.0099,22.9175],[85.0122,22.9169],[85.0122,22.9244],[85.0116,22.938],[85.0116,22.9452],[84.9919,22.9588],[84.9806,22.9663],[84.976,22.9695],[84.9444,22.9672],[84.9434,22.9987],[84.9434,23.0021]]]}},{"type":"Feature","properties":{"district":"Saraikela-Kharsawan","district_hi":"सरायकेला-खरसावां"},"geometry":{"type":"Polygon","coordinates":[[[85.5827,22.8953],[85.5798,22.9074],[85.6037,22.9354],[85.6153,22.9311],[85.6185,22.9146],[85.6482,22.9184],[85.6569,22.9377],[85.7293,22.9438],[85.7977,22.9091],[85.8364,22.9051],[85.8364,22.8901],[85.8639,22.8846],[85.8574,22.9005],[85.8762,22.9305],[85.8645,22.9449],[85.8529,22.9435],[85.8468,22.9851],[85.8125,23.0108],[85.8235,23.0281],[85.81,23.077],[85.8022,23.081],[85.8012,23.0836],[85.8167,23.0931],[85.8442,23.1382],[85.86,23.1474],[85.8703,23.1402],[85.872,23.1561],[85.872,23.1567],[85.8933,23.1564],[85.8849,23.1665],[85.9165,23.1463],[85.9168,23.1463],[85.9569,23.161],[85.9575,23.161],[86.0437,23.1448],[86.0547,23.124],[86.0492,23.1061],[86.1164,23.0848],[86.1461,23.0752],[86.1415,23.0573],[86.157,23.0391],[86.1625,23.0325],[86.1854,23.0053],[86.2074,23.0082],[86.2068,23.0004],[86.2371,22.9949],[86.2374,22.9952],[86.2416,22.9964],[86.2416,22.99],[86.2416,22.9741],[86.2413,22.9735],[86.1987,22.9681],[86.1874,22.9478],[86.1955,22.9418],[86.189,22.9213],[86.1958,22.8953],[86.219,22.8898],[86.1996,22.8551],[86.1984,22.8184],[86.1596,22.8366],[86.1464,22.8086],[86.1451,22.8057],[86.1467,22.8048],[86.1538,22.8008],[86.1719,22.7901],[86.1745,22.7878],[86.1745,22.7869],[86.159,22.7526],[86.1661,22.6702],[86.1645,22.6659],[86.149,22.6315],[86.067,22.557],[86.0534,22.5634],[86.0463,22.5668],[86.024,22.5446],[86.0337,22.5345],[86.0285,22.5241],[85.9846,22.5151],[85.9627,22.4851],[85.9281,22.4987],[85.9007,22.5258],[85.9065,22.5457],[85.8732,22.5625],[85.9004,22.5792],[85.9136,22.605],[85.8839,22.6246],[85.8694,22.6165],[85.8781,22.6336],[85.8771,22.6353],[85.8752,22.6388],[85.8674,22.6526],[85.8697,22.6838],[85.8645,22.6985],[85.8652,22.7127],[85.8568,22.7199],[85.8561,22.7202],[85.8532,22.7231],[85.8406,22.7087],[85.8284,22.7217],[85.8,22.7185],[85.7987,22.7173],[85.7945,22.7141],[85.788,22.7092],[85.7757,22.7],[85.7486,22.7026],[85.7241,22.6844],[85.6999,22.6985],[85.6834,22.7297],[85.6902,22.7445],[85.7157,22.7442],[85.717,22.7552],[85.6947,22.7791],[85.7018,22.8069],[85.6463,22.8511],[85.6201,22.8479],[85.6095,22.8265],[85.5669,22.834],[85.5581,22.8222],[85.5388,22.8204],[85.5359,22.8074],[85.5165,22.8072],[85.5126,22.8274],[85.5326,22.8687],[85.5572,22.8805],[85.5607,22.8612],[85.5656,22.8618],[85.5762,22.8652],[85.6014,22.8941],[85.5827,22.8953]]]}},{"type":"Feature","properties":{"district":"East Singhbhum","district_hi":"पूर्वी सिंहभूम"},"geometry":{"type":"Polygon","coordinates":[[[86.067,22.557],[86.149,22.6315],[86.1645,22.6659],[86.1661,22.6702],[86.159,22.7526],[86.1745,22.7869],[86.1745,22.7878],[86.1719,22.7901],[86.1538,22.8008],[86.1467,22.8048],[86.1451,22.8057],[86.1464,22.8086],[86.1596,22.8366],[86.1984,22.8184],[86.1996,22.8551],[86.219,22.8898],[86.1958,22.8953],[86.189,22.9213],[86.1955,22.9418],[86.1874,22.9478],[86.1987,22.9681],[86.2413,22.9735],[86.2416,22.9741],[86.2416,22.99],[86.2416,22.9964],[86.2852,23.0105],[86.3052,23.0157],[86.3262,22.9949],[86.3769,22.9984],[86.394,22.9811],[86.4192,23.0007],[86.4466,22.9883],[86.5012,22.9946],[86.5135,22.9776],[86.5077,22.973],[86.519,22.9707],[86.547,22.9894],[86.5448,22.966],[86.5315,22.9649],[86.5254,22.9473],[86.5028,22.9516],[86.4889,22.9377],[86.4767,22.9519],[86.4357,22.9259],[86.4528,22.9036],[86.4673,22.901],[86.4534,22.886],[86.4508,22.8623],[86.4347,22.8606],[86.4386,22.8311],[86.4195,22.791],[86.4602,22.7633],[86.5106,22.7049],[86.5141,22.7185],[86.5148,22.7185],[86.5306,22.7196],[86.5593,22.7124],[86.56,22.7133],[86.6352,22.6656],[86.6391,22.6604],[86.6407,22.6587],[86.6413,22.6575],[86.6332,22.611],[86.6562,22.5914],[86.6584,22.5758],[86.7101,22.583],[86.7466,22.5784],[86.7595,22.5766],[86.7659,22.5758],[86.7659,22.5703],[86.7666,22.5561],[86.7688,22.5553],[86.7801,22.5512],[86.7892,22.5478],[86.7892,22.5472],[86.8005,22.4897],[86.8008,22.4883],[86.8008,22.488],[86.7931,22.4776],[86.7508,22.4825],[86.7511,22.4559],[86.7634,22.4472],[86.7646,22.4267],[86.8131,22.4192],[86.8457,22.3999],[86.8334,22.3256],[86.888,22.2973],[86.887,22.2577],[86.8867,22.2577],[86.824,22.2667],[86.8169,22.2537],[86.8134,22.2676],[86.8031,22.2445],[86.8011,22.2655],[86.7921,22.2664],[86.7943,22.2433],[86.8124,22.2413],[86.8021,22.2179],[86.7782,22.2182],[86.7847,22.2309],[86.795,22.228],[86.7818,22.2369],[86.7759,22.2182],[86.7569,22.2112],[86.7269,22.2159],[86.7272,22.2167],[86.7272,22.2173],[86.6855,22.2228],[86.6726,22.2416],[86.6713,22.2413],[86.6707,22.2421],[86.6597,22.2381],[86.6552,22.2367],[86.6504,22.2543],[86.6465,22.2679],[86.6129,22.2826],[86.5958,22.2777],[86.5829,22.3005],[86.5822,22.3017],[86.5548,22.2985],[86.5406,22.3083],[86.5344,22.3011],[86.5293,22.3227],[86.5102,22.3274],[86.497,22.3467],[86.4967,22.3473],[86.496,22.3467],[86.4637,22.3251],[86.4476,22.3277],[86.447,22.3277],[86.4447,22.3057],[86.4327,22.3066],[86.4295,22.3167],[86.3595,22.3487],[86.323,22.3848],[86.2833,22.4478],[86.2694,22.4423],[86.2258,22.453],[86.208,22.4735],[86.1186,22.4868],[86.1183,22.4868],[86.0692,22.5558],[86.067,22.557]]]}},{"type":"Feature","properties":{"district":"West Singhbhum","district_hi":"पश्चिमी सिंहभूम"},"geometry":{"type":"Polygon","coordinates":[[[85.0735,22.5683],[85.0887,22.5758],[85.0942,22.596],[85.0752,22.6185],[85.1145,22.6636],[85.1194,22.7098],[85.1329,22.7211],[85.1284,22.7381],[85.1475,22.7471],[85.1365,22.7543],[85.1575,22.832],[85.1581,22.8317],[85.1927,22.8268],[85.1894,22.815],[85.1998,22.8144],[85.2321,22.8407],[85.2488,22.8349],[85.2805,22.8704],[85.3086,22.8834],[85.325,22.8828],[85.3399,22.8823],[85.3715,22.8635],[85.3864,22.8678],[85.388,22.8424],[85.4051,22.8482],[85.419,22.8323],[85.4335,22.8375],[85.4406,22.8213],[85.45,22.8236],[85.4539,22.802],[85.4832,22.8011],[85.5107,22.8043],[85.5165,22.8072],[85.5359,22.8074],[85.5388,22.8204],[85.5581,22.8222],[85.5669,22.834],[85.6095,22.8265],[85.6201,22.8479],[85.6463,22.8511],[85.7018,22.8069],[85.6947,22.7791],[85.717,22.7552],[85.7157,22.7442],[85.6902,22.7445],[85.6834,22.7297],[85.6999,22.6985],[85.7241,22.6844],[85.7486,22.7026],[85.7757,22.7],[85.788,22.7092],[85.7945,22.7141],[85.7987,22.7173],[85.8,22.7185],[85.8284,22.7217],[85.8406,22.7087],[85.8532,22.7231],[85.8561,22.7202],[85.8568,22.7199],[85.8652,22.7127],[85.8645,22.6985],[85.8697,22.6838],[85.8674,22.6526],[85.8752,22.6388],[85.8771,22.6353],[85.8781,22.6336],[85.8694,22.6165],[85.8839,22.6246],[85.9136,22.605],[85.9004,22.5792],[85.8732,22.5625],[85.9065,22.5457],[85.9007,22.5258],[85.9281,22.4987],[85.9627,22.4851],[85.9575,22.4654],[85.9572,22.4649],[85.9572,22.4646],[85.9578,22.464],[85.9685,22.453],[85.9804,22.4412],[85.9866,22.4351],[85.9898,22.434],[86.0182,22.4259],[86.0266,22.3921],[86.025,22.3739],[85.9979,22.3415],[86.0292,22.3343],[86.0156,22.3123],[86.0444,22.3086],[86.0172,22.2973],[85.9882,22.267],[85.9898,22.2543],[85.974,22.2471],[86.0311,22.1899],[85.9966,22.1324],[86.0092,22.1159],[85.9436,22.0203],[85.9307,22.0232],[85.9181,22.0093],[85.9094,21.9747],[85.8968,21.9839],[85.8258,21.975],[85.818,21.9854],[85.7838,21.9845],[85.7661,21.9949],[85.7615,22.0108],[85.7832,22.0316],[85.7774,22.0555],[85.7958,22.0807],[85.818,22.0735],[85.8384,22.0795],[85.8351,22.0931],[85.8151,22.0951],[85.8229,22.1064],[85.8096,22.1156],[85.809,22.1151],[85.7493,22.0735],[85.6831,22.0573],[85.6805,22.0605],[85.6808,22.0613],[85.6563,22.0934],[85.6537,22.0928],[85.5995,22.0784],[85.5627,22.0954],[85.5452,22.0896],[85.5217,22.1107],[85.5171,22.1148],[85.492,22.1252],[85.4083,22.159],[85.3977,22.1633],[85.3783,22.1607],[85.3702,22.1595],[85.366,22.159],[85.366,22.1532],[85.3664,22.1229],[85.3341,22.1263],[85.3231,22.1275],[85.3147,22.1203],[85.2937,22.1015],[85.2811,22.0905],[85.2795,22.0867],[85.275,22.0824],[85.2382,22.0099],[85.2217,22.018],[85.2143,22.0495],[85.1872,22.0581],[85.1804,22.0726],[85.1801,22.0735],[85.1675,22.0691],[85.1707,22.0564],[85.1659,22.0631],[85.1588,22.0763],[85.1565,22.0761],[85.122,22.0709],[85.0984,22.1058],[85.0555,22.1156],[85.049,22.1142],[85.0354,22.1116],[85.0241,22.1093],[85.0006,22.083],[84.9844,22.0859],[84.9848,22.0954],[85.0283,22.1223],[85.03,22.1624],[85.0542,22.1838],[85.0496,22.1945],[85.0781,22.2572],[85.071,22.2745],[85.1168,22.2944],[85.1181,22.3175],[85.0919,22.3161],[85.0955,22.3447],[85.0764,22.3562],[85.0865,22.3999],[85.0597,22.4487],[85.0768,22.4637],[85.0758,22.4787],[85.0758,22.4802],[85.0729,22.4805],[85.0671,22.4842],[85.0697,22.4909],[85.0777,22.5125],[85.079,22.518],[85.0687,22.5333],[85.0645,22.5397],[85.0642,22.54],[85.0684,22.566],[85.0735,22.5683]]]}},{"type":"Feature","properties":{"district":"Simdega","district_hi":"सिमडेगा"},"geometry":{"type":"Polygon","coordinates":[[[84.2938,22.7728],[84.3248,22.7635],[84.3416,22.7462],[84.3542,22.7505],[84.3494,22.7624],[84.372,22.754],[84.3917,22.7751],[84.4162,22.7641],[84.4356,22.7985],[84.4288,22.8103],[84.4475,22.8115],[84.4488,22.8352],[84.465,22.8366],[84.5014,22.8242],[84.5014,22.7982],[84.5557,22.7878],[84.5512,22.769],[84.5302,22.7687],[84.5234,22.7624],[84.5189,22.7581],[84.514,22.7537],[84.5208,22.7468],[84.5231,22.7445],[84.5276,22.7401],[84.5466,22.763],[84.5686,22.7477],[84.5583,22.7323],[84.5844,22.7167],[84.5928,22.7136],[84.6112,22.7344],[84.6445,22.7315],[84.648,22.7393],[84.6629,22.7303],[84.6948,22.7416],[84.7039,22.7644],[84.7242,22.7653],[84.7287,22.7748],[84.7168,22.7846],[84.7333,22.8014],[84.771,22.7887],[84.7797,22.795],[84.7746,22.765],[84.7826,22.7581],[84.7927,22.7722],[84.7943,22.7595],[84.7862,22.7228],[84.8101,22.7089],[84.8211,22.7156],[84.8198,22.7503],[84.8314,22.73],[84.8572,22.7199],[84.8427,22.7702],[84.8582,22.7656],[84.8808,22.7384],[84.9147,22.7583],[84.9302,22.7913],[84.9605,22.7748],[84.9796,22.7843],[84.9796,22.7849],[84.9961,22.7866],[85.0044,22.7875],[85.0048,22.7872],[85.0096,22.7699],[85.0487,22.7534],[85.058,22.7381],[85.0584,22.7375],[85.0487,22.7063],[85.0413,22.6818],[85.0542,22.6723],[85.0603,22.6676],[85.0606,22.6676],[85.0493,22.637],[85.0522,22.6191],[85.0535,22.6113],[85.0697,22.605],[85.0755,22.574],[85.0735,22.5683],[85.0684,22.566],[85.0642,22.54],[85.0645,22.5397],[85.0687,22.5333],[85.079,22.518],[85.0777,22.5125],[85.0697,22.4909],[85.05,22.4828],[85.0383,22.4839],[85.0358,22.477],[84.9589,22.4449],[84.9544,22.4588],[84.9215,22.4441],[84.926,22.4351],[84.9128,22.425],[84.8895,22.4207],[84.886,22.4204],[84.8801,22.449],[84.8369,22.4314],[84.8175,22.4371],[84.8101,22.4533],[84.7591,22.4467],[84.75,22.4189],[84.6664,22.4195],[84.629,22.4345],[84.5353,22.427],[84.4801,22.4134],[84.4759,22.401],[84.4853,22.3892],[84.4311,22.373],[84.4294,22.3525],[84.2916,22.343],[84.2503,22.3791],[84.197,22.3782],[84.1563,22.4077],[84.1411,22.4256],[84.1408,22.4738],[84.1118,22.477],[84.0598,22.5163],[84.012,22.5275],[84.0088,22.5339],[84.0094,22.5732],[84.0243,22.592],[84.0527,22.596],[84.084,22.6382],[84.1524,22.6367],[84.2002,22.6665],[84.2202,22.6673],[84.238,22.6919],[84.2322,22.7399],[84.2599,22.7676],[84.288,22.7664],[84.2893,22.7664],[84.29,22.7687],[84.2938,22.7728]]]}},{"type":"Feature","properties":{"district":"Koderma","district_hi":"कोडरमा"},"geometry":{"type":"Polygon","coordinates":[[[85.902,24.7656],[85.8845,24.7506],[85.8858,24.7318],[85.8552,24.7399],[85.8174,24.7237],[85.8413,24.6689],[85.8161,24.6683],[85.7987,24.6677],[85.7935,24.6677],[85.7725,24.6443],[85.7725,24.644],[85.7728,24.6342],[85.7735,24.6108],[85.7735,24.6105],[85.7861,24.6024],[85.8016,24.6093],[85.7909,24.59],[85.8071,24.5735],[85.8106,24.5496],[85.8106,24.5487],[85.8684,24.5264],[85.8561,24.4681],[85.83,24.4456],[85.8364,24.4248],[85.8548,24.4141],[85.8452,24.3407],[85.851,24.328],[85.8694,24.324],[85.8736,24.2878],[85.8619,24.2878],[85.8506,24.274],[85.8342,24.2818],[85.82,24.2647],[85.8187,24.2942],[85.7632,24.3037],[85.7515,24.2832],[85.7273,24.3],[85.6986,24.2893],[85.6837,24.3107],[85.6498,24.3228],[85.6521,24.3138],[85.6411,24.3124],[85.6418,24.3309],[85.6179,24.3266],[85.6069,24.3398],[85.5914,24.3329],[85.5769,24.3517],[85.5704,24.339],[85.5462,24.3474],[85.5162,24.3176],[85.4758,24.3318],[85.4648,24.3251],[85.4513,24.3372],[85.4355,24.3323],[85.4238,24.3575],[85.4028,24.3471],[85.3977,24.3615],[85.4129,24.4077],[85.4219,24.4054],[85.4284,24.4225],[85.4416,24.4204],[85.4138,24.4438],[85.4038,24.4381],[85.3896,24.4808],[85.3809,24.4704],[85.3777,24.4701],[85.3551,24.4719],[85.3273,24.4869],[85.3312,24.5097],[85.3919,24.5299],[85.3977,24.5449],[85.3751,24.5536],[85.3802,24.5548],[85.4345,24.5282],[85.4952,24.5455],[85.5,24.5426],[85.5078,24.5253],[85.5239,24.521],[85.5417,24.5319],[85.541,24.5623],[85.5607,24.5527],[85.5717,24.5617],[85.5662,24.5871],[85.5807,24.6007],[85.6153,24.5808],[85.6679,24.579],[85.6686,24.5799],[85.6692,24.5805],[85.6776,24.5909],[85.6763,24.6166],[85.6666,24.6611],[85.6489,24.6845],[85.6815,24.6917],[85.7073,24.7246],[85.7073,24.7795],[85.7225,24.7861],[85.7383,24.8193],[85.778,24.7965],[85.8096,24.7942],[85.8248,24.8084],[85.8671,24.8046],[85.8897,24.7928],[85.8865,24.7838],[85.902,24.7656]]]}},{"type":"Feature","properties":{"district":"Hazaribagh","district_hi":"हजारीबाग"},"geometry":{"type":"Polygon","coordinates":[[[85.8506,24.274],[85.85,24.2734],[85.8351,24.2558],[85.8355,24.2555],[85.8539,24.2489],[85.859,24.2125],[85.8474,24.2194],[85.819,24.2096],[85.8016,24.2266],[85.7922,24.2116],[85.6818,24.1758],[85.6744,24.1472],[85.7118,24.1264],[85.7105,24.1015],[85.7338,24.0946],[85.7696,24.1038],[85.7774,24.1012],[85.769,24.0929],[85.8048,24.0787],[85.8009,24.0677],[85.8155,24.0622],[85.8358,24.0721],[85.8542,24.0481],[85.872,24.0516],[85.8755,24.0334],[85.8568,24.0183],[85.8755,24.0065],[85.8758,24.0065],[85.8913,24.0149],[85.8923,24.0143],[85.8978,23.9923],[85.9301,23.9796],[85.9297,23.9588],[85.9146,23.9502],[85.9113,23.9481],[85.8894,23.9565],[85.8852,23.9092],[85.861,23.8652],[85.8348,23.8407],[85.8129,23.8453],[85.8022,23.86],[85.8,23.8964],[85.7635,23.9265],[85.7632,23.9447],[85.7373,23.9507],[85.7121,23.9245],[85.7121,23.9242],[85.6844,23.9629],[85.685,23.9635],[85.6973,23.9779],[85.696,23.9788],[85.6937,23.9811],[85.6766,23.9869],[85.6753,23.9869],[85.6731,23.9793],[85.6686,23.9609],[85.6666,23.9597],[85.6624,23.9571],[85.6576,23.9545],[85.6476,23.9554],[85.6431,23.9557],[85.6079,23.9583],[85.6066,23.9372],[85.5756,23.9187],[85.564,23.8967],[85.573,23.8788],[85.5614,23.8479],[85.5175,23.8525],[85.5142,23.8421],[85.4881,23.839],[85.4849,23.8265],[85.4258,23.7942],[85.4313,23.7777],[85.4697,23.7656],[85.4552,23.7278],[85.4403,23.7223],[85.4393,23.7093],[85.4267,23.709],[85.4235,23.6844],[85.4448,23.6552],[85.3844,23.6604],[85.3844,23.6711],[85.3599,23.6737],[85.3357,23.7044],[85.3057,23.6838],[85.2611,23.6968],[85.2463,23.7104],[85.2437,23.7116],[85.235,23.6963],[85.2298,23.6847],[85.2288,23.685],[85.2282,23.685],[85.2237,23.7012],[85.1872,23.7098],[85.1659,23.6662],[85.1578,23.674],[85.1162,23.663],[85.0768,23.668],[85.06,23.6853],[85.0597,23.6908],[85.0626,23.6954],[85.071,23.6971],[85.0684,23.7046],[85.0677,23.707],[85.0668,23.7101],[85.0529,23.7113],[85.0522,23.7127],[85.0461,23.7327],[85.0642,23.7324],[85.048,23.7477],[85.0438,23.8104],[85.0471,23.828],[85.0597,23.8338],[85.0303,23.86],[85.0316,23.8785],[85.0316,23.8797],[85.0216,23.8811],[85.0212,23.8811],[85.0216,23.8826],[85.028,23.9155],[85.0464,23.9138],[85.0383,23.9392],[85.0558,23.9585],[85.028,23.964],[85.0248,23.9918],[85.0432,24.0025],[85.0535,23.986],[85.0764,23.9834],[85.0748,23.962],[85.0845,23.9585],[85.0984,23.9759],[85.1239,23.9765],[85.1484,23.9507],[85.1998,23.9562],[85.2011,23.9571],[85.2014,23.9583],[85.213,23.9923],[85.213,23.9926],[85.2133,23.9929],[85.2262,23.997],[85.2295,24.0094],[85.2298,24.0114],[85.2298,24.0117],[85.2479,24.0126],[85.2482,24.0131],[85.2488,24.0345],[85.2427,24.064],[85.2366,24.0712],[85.1701,24.0998],[85.1746,24.1114],[85.1656,24.1215],[85.1743,24.1241],[85.1513,24.1576],[85.143,24.1564],[85.1488,24.183],[85.1352,24.2061],[85.1491,24.2096],[85.1607,24.2301],[85.2718,24.2165],[85.3021,24.1995],[85.3002,24.2367],[85.3215,24.248],[85.3137,24.2538],[85.3173,24.2922],[85.3263,24.2954],[85.3215,24.3098],[85.3467,24.3069],[85.356,24.2928],[85.3799,24.3107],[85.3793,24.3216],[85.3628,24.3086],[85.3612,24.3089],[85.3544,24.3107],[85.3396,24.3144],[85.336,24.3164],[85.3128,24.3318],[85.3021,24.3387],[85.2824,24.3326],[85.2266,24.3445],[85.2066,24.3396],[85.1998,24.326],[85.1998,24.3257],[85.183,24.3338],[85.1362,24.3563],[85.1423,24.3294],[85.1003,24.3286],[85.0865,24.363],[85.0845,24.3676],[85.0877,24.3705],[85.0932,24.3751],[85.0987,24.3736],[85.1233,24.4019],[85.1733,24.4216],[85.1752,24.4225],[85.1536,24.4479],[85.1614,24.4606],[85.2262,24.4632],[85.2495,24.4909],[85.2827,24.4918],[85.2882,24.523],[85.3535,24.5227],[85.3312,24.5097],[85.3273,24.4869],[85.3551,24.4719],[85.3777,24.4701],[85.3809,24.4704],[85.3896,24.4808],[85.4038,24.4381],[85.4138,24.4438],[85.4416,24.4204],[85.4284,24.4225],[85.4219,24.4054],[85.4129,24.4077],[85.3977,24.3615],[85.4028,24.3471],[85.4238,24.3575],[85.4355,24.3323],[85.4513,24.3372],[85.4648,24.3251],[85.4758,24.3318],[85.5162,24.3176],[85.5462,24.3474],[85.5704,24.339],[85.5769,24.3517],[85.5914,24.3329],[85.6069,24.3398],[85.6179,24.3266],[85.6418,24.3309],[85.6411,24.3124],[85.6521,24.3138],[85.6498,24.3228],[85.6837,24.3107],[85.6986,24.2893],[85.7273,24.3],[85.7515,24.2832],[85.7632,24.3037],[85.8187,24.2942],[85.82,24.2647],[85.8342,24.2818],[85.8506,24.274]]]}}]}