{"type":"FeatureCollection","features":[{"type":"Feature","properties":{"district":"Leh","district_hi":"लेह"},"geometry":{"type":"Polygon","coordinates":[[[77.318,32.8945],[77.2767,32.9946],[77.2923,33.0366],[77.3146,33.0325],[77.3166,33.0431],[77.3369,33.0482],[77.3396,33.0851],[77.3646,33.078],[77.4086,33.0841],[77.4188,33.1341],[77.4032,33.17],[77.4201,33.1968],[77.4688,33.1993],[77.5385,33.1558],[77.5216,33.2175],[77.4769,33.2741],[77.5006,33.2993],[77.4986,33.3292],[77.5087,33.3428],[77.5432,33.359],[77.5358,33.3741],[77.4932,33.3888],[77.4993,33.4115],[77.4796,33.4201],[77.4431,33.4924],[77.3971,33.4909],[77.3613,33.4747],[77.3376,33.4909],[77.3004,33.4848],[77.2564,33.5268],[77.2341,33.5884],[77.2388,33.6],[77.209,33.6203],[77.2077,33.6374],[77.1502,33.6774],[77.1299,33.6834],[77.1015,33.6698],[77.0548,33.7067],[77.021,33.7026],[76.9851,33.7244],[76.9655,33.7117],[76.9405,33.7163],[76.9012,33.742],[76.9134,33.7587],[76.8897,33.781],[76.8593,33.7744],[76.8289,33.7941],[76.7592,33.8052],[76.7389,33.8305],[76.724,33.8224],[76.7051,33.8527],[76.6462,33.9068],[76.6218,33.8977],[76.5995,33.8689],[76.5731,33.8643],[76.5562,33.8861],[76.5278,33.8921],[76.517,33.9154],[76.5292,33.9346],[76.515,33.9452],[76.5542,34.0028],[76.584,34.0069],[76.5799,34.0453],[76.6083,34.064],[76.6611,34.0614],[76.6881,34.0796],[76.6618,34.1453],[76.6821,34.1782],[76.6719,34.2201],[76.676,34.2378],[76.6909,34.2398],[76.7017,34.256],[76.703,34.305],[76.7233,34.3247],[76.6252,34.3773],[76.5901,34.4152],[76.5637,34.4253],[76.5745,34.4551],[76.5569,34.488],[76.5495,34.5436],[76.561,34.5703],[76.5298,34.5744],[76.5251,34.5946],[76.4757,34.5754],[76.4527,34.5804],[76.473,34.6335],[76.4487,34.6583],[76.4453,34.6856],[76.4203,34.7204],[76.2789,34.682],[76.2356,34.6598],[76.216,34.676],[76.1334,34.6628],[76.0434,34.6846],[76.0157,34.7194],[75.9731,34.7341],[75.9345,34.6239],[75.8939,34.5451],[75.7898,34.4996],[75.5997,34.5016],[75.5564,34.494],[75.5083,34.4566],[75.4941,34.4122],[75.4671,34.3834],[75.3845,34.3571],[75.3778,34.3874],[75.3656,34.3925],[75.3724,34.4066],[75.3196,34.4349],[75.3575,34.5299],[75.3013,34.589],[75.256,34.6062],[75.2391,34.628],[75.1315,34.6467],[75.0781,34.6386],[75.0612,34.6264],[75.0206,34.6259],[74.9252,34.6633],[74.8643,34.6628],[74.8487,34.6744],[74.8332,34.6633],[74.7331,34.6714],[74.6512,34.6972],[74.6066,34.7265],[74.5937,34.7568],[74.5714,34.7679],[74.3191,34.7861],[74.3962,34.8038],[74.4138,34.7993],[74.4571,34.8523],[74.5051,34.8635],[74.5301,34.8569],[74.568,34.8731],[74.5768,34.9105],[74.5714,34.9655],[74.5869,35.0095],[74.5355,35.0312],[74.5416,35.0666],[74.4983,35.1065],[74.4395,35.1182],[74.3799,35.0575],[74.3082,35.06],[74.2974,35.0444],[74.269,35.0353],[74.2534,35.0373],[74.2494,35.0671],[74.227,35.0671],[74.2223,35.0863],[74.152,35.0934],[74.11,35.1298],[74.1134,35.1515],[74.0383,35.147],[74.0085,35.1657],[73.9991,35.1839],[73.9585,35.1737],[73.9165,35.2117],[73.8644,35.2101],[73.8462,35.2288],[73.7954,35.245],[73.7312,35.2167],[73.7156,35.2253],[73.7264,35.2779],[73.6994,35.3228],[73.6994,35.3577],[73.7379,35.4274],[73.7941,35.4598],[73.7839,35.525],[73.7346,35.5361],[73.7197,35.5528],[73.6716,35.5508],[73.6344,35.5715],[73.5702,35.5543],[73.4809,35.5765],[73.4058,35.5634],[73.3665,35.6048],[73.2718,35.6291],[73.215,35.6746],[73.1352,35.7185],[73.1352,35.7933],[73.1534,35.8408],[73.0885,35.8828],[73.075,35.8848],[73.0371,35.854],[72.9992,35.8631],[72.9289,35.8449],[72.9038,35.853],[72.9011,35.8813],[72.8571,35.8772],[72.8294,35.8868],[72.8247,35.8742],[72.7983,35.8671],[72.7976,35.855],[72.7766,35.8434],[72.7367,35.858],[72.6907,35.8322],[72.6447,35.8656],[72.6007,35.8706],[72.569,35.9065],[72.5331,35.9166],[72.5304,35.952],[72.548,35.9621],[72.5554,35.996],[72.5723,35.996],[72.5953,36.0268],[72.5852,36.0501],[72.5493,36.0561],[72.5304,36.0738],[72.5358,36.1137],[72.573,36.1501],[72.5507,36.1804],[72.5595,36.2118],[72.5845,36.23],[72.5947,36.2618],[72.6359,36.276],[72.6934,36.2497],[72.6914,36.2749],[72.778,36.3093],[72.8287,36.3603],[72.8828,36.3866],[72.8896,36.424],[72.8788,36.4427],[72.9214,36.4624],[72.9431,36.4579],[72.962,36.467],[72.9911,36.4574],[73.0033,36.4756],[72.9897,36.4796],[72.9951,36.5145],[73.0608,36.5372],[73.1115,36.6095],[73.0912,36.6343],[73.0844,36.6989],[73.1257,36.6858],[73.1886,36.7212],[73.2143,36.6994],[73.2522,36.7085],[73.3138,36.706],[73.3598,36.7146],[73.3713,36.7343],[73.399,36.7313],[73.441,36.7444],[73.5431,36.7085],[73.5993,36.7197],[73.6067,36.6979],[73.6324,36.6893],[73.6541,36.6954],[73.7001,36.6843],[73.7244,36.7096],[73.7826,36.7015],[73.8083,36.7161],[73.8834,36.6984],[73.901,36.7065],[73.8989,36.749],[73.8624,36.7874],[73.8286,36.7889],[73.8056,36.8147],[73.7231,36.8339],[73.7183,36.8566],[73.6804,36.8849],[73.6892,36.9117],[73.7447,36.8955],[73.767,36.9041],[73.809,36.896],[73.8171,36.8849],[73.8482,36.8991],[73.878,36.8935],[73.9125,36.8708],[73.9368,36.8733],[73.9937,36.8258],[74.0255,36.8258],[74.0552,36.8056],[74.0917,36.8379],[74.1202,36.8319],[74.1418,36.8394],[74.1682,36.9021],[74.2602,36.8859],[74.3678,36.9582],[74.4151,36.9723],[74.4293,36.9895],[74.5315,36.986],[74.5538,36.9531],[74.5775,36.9481],[74.5856,37.0446],[74.658,37.0572],[74.708,37.077],[74.7337,37.0199],[74.7513,37.0108],[74.7777,37.0289],[74.8393,37.0219],[74.8454,36.9895],[74.9211,36.9056],[74.9401,36.9339],[75.0179,36.9759],[75.095,36.942],[75.1498,36.9663],[75.208,37.036],[75.2641,37.0512],[75.3426,37.0517],[75.3507,36.9804],[75.3751,36.9597],[75.4001,36.9673],[75.4217,36.9602],[75.4258,36.9385],[75.4075,36.9163],[75.4129,36.8915],[75.4427,36.8864],[75.4732,36.8101],[75.6152,36.7611],[75.6741,36.6954],[75.7471,36.5878],[75.7681,36.5726],[75.8479,36.5438],[75.9224,36.5019],[76.0759,36.4736],[76.172,36.3897],[76.1977,36.3866],[76.2538,36.3472],[76.3512,36.3593],[76.4311,36.3078],[76.4487,36.2689],[76.4318,36.2507],[76.4561,36.2401],[76.4805,36.2108],[76.5434,36.1921],[76.5616,36.1724],[76.6002,36.1648],[76.6435,36.1835],[76.7024,36.1284],[76.7186,36.0829],[76.8004,36.0475],[76.8065,36.0182],[76.7686,36.0091],[76.7213,35.953],[76.7781,35.8979],[76.8106,35.8444],[76.8566,35.8307],[76.8938,35.7994],[76.9337,35.7837],[77.0196,35.7741],[77.0792,35.7969],[77.1143,35.7974],[77.1421,35.7691],[77.163,35.766],[77.1658,35.7342],[77.2199,35.7276],[77.2266,35.712],[77.2666,35.7084],[77.276,35.72],[77.3139,35.6988],[77.3261,35.7185],[77.3572,35.717],[77.4005,35.6619],[77.4296,35.6538],[77.4357,35.6215],[77.4255,35.6099],[77.4553,35.5932],[77.4641,35.573],[77.4594,35.5472],[77.4851,35.5315],[77.4709,35.5204],[77.4506,35.526],[77.4343,35.5169],[77.3768,35.5497],[77.3193,35.5321],[77.3477,35.4931],[77.4384,35.4613],[77.5114,35.4881],[77.5676,35.4845],[77.6129,35.4694],[77.6434,35.4886],[77.6711,35.4699],[77.7218,35.4749],[77.7232,35.5149],[77.732,35.524],[77.7712,35.4947],[77.8172,35.5123],[77.8632,35.4805],[77.8855,35.4845],[77.8998,35.4674],[77.9207,35.4942],[77.9809,35.4552],[77.983,35.4643],[77.964,35.4785],[77.9633,35.4957],[77.9302,35.5154],[77.9654,35.571],[77.9512,35.6063],[77.9897,35.5816],[78.0405,35.5871],[78.0763,35.5487],[78.0912,35.5558],[78.1358,35.5386],[78.1555,35.5518],[78.1501,35.5775],[78.1649,35.6129],[78.1609,35.6291],[78.1846,35.6235],[78.1981,35.6685],[78.2536,35.6453],[78.2705,35.6685],[78.2718,35.7216],[78.3374,35.72],[78.3848,35.7352],[78.422,35.7847],[78.5201,35.7635],[78.5593,35.7918],[78.5735,35.7893],[78.579,35.8075],[78.6182,35.8166],[78.6635,35.857],[78.767,35.8691],[78.8225,35.8555],[78.9382,35.8792],[78.9591,35.8919],[79.02,35.8484],[79.131,35.8358],[79.1925,35.8863],[79.1885,35.947],[79.2142,35.9783],[79.3765,35.995],[79.3853,35.9899],[79.4016,35.9182],[79.4205,35.8959],[79.5166,35.8833],[79.5585,35.8616],[79.7107,35.8191],[79.7358,35.8014],[79.8697,35.7827],[79.9286,35.8272],[79.9705,35.8403],[79.9976,35.8373],[80.0368,35.7994],[80.0564,35.7494],[80.0869,35.7246],[80.1065,35.6806],[80.2357,35.6417],[80.2898,35.6068],[80.3263,35.4694],[80.2959,35.4603],[80.2797,35.4406],[80.2817,35.3875],[80.2695,35.3441],[80.2343,35.2763],[80.2242,35.2197],[80.1816,35.1662],[80.1843,35.0631],[80.1728,35.0019],[80.122,34.8933],[80.0713,34.8281],[80.0672,34.7144],[79.9428,34.6805],[79.8589,34.6886],[79.8149,34.6431],[79.7743,34.6274],[79.7912,34.589],[79.7696,34.582],[79.7567,34.5542],[79.8088,34.5309],[79.8129,34.4996],[79.7926,34.4849],[79.6607,34.4794],[79.5917,34.5006],[79.5693,34.4864],[79.5071,34.4738],[79.5261,34.445],[79.5267,34.4177],[79.5599,34.4096],[79.5524,34.3874],[79.5578,34.3323],[79.5903,34.2823],[79.5842,34.2439],[79.5707,34.2226],[79.543,34.207],[79.5179,34.2125],[79.5058,34.2055],[79.4882,34.157],[79.4929,34.1357],[79.4185,34.0776],[79.4131,34.0544],[79.4361,34.0281],[79.4253,34.017],[79.3542,34.0367],[79.1966,34.0508],[79.1695,34.0726],[79.1499,34.068],[79.1344,34.0271],[79.1114,34.0195],[79.0606,34.0286],[79.0207,34.0503],[78.9504,34.0286],[78.9044,33.976],[78.947,33.9204],[78.9422,33.9083],[78.9991,33.8032],[79.018,33.7986],[79.0153,33.7784],[79.0329,33.7835],[79.0457,33.7658],[79.0586,33.7799],[79.0667,33.7562],[79.0417,33.7496],[79.0194,33.7057],[79.0525,33.6779],[79.0897,33.6865],[79.089,33.6566],[79.1053,33.6167],[79.0464,33.6273],[78.9882,33.6106],[78.9206,33.6329],[78.9131,33.6273],[78.9138,33.5743],[78.9416,33.5091],[78.9301,33.4737],[78.9321,33.4323],[78.9483,33.408],[78.9524,33.3807],[78.9673,33.3751],[78.9876,33.3332],[79.0166,33.3352],[79.1093,33.2918],[79.2392,33.2973],[79.3143,33.2731],[79.3684,33.2822],[79.4537,33.2584],[79.4449,33.2053],[79.3759,33.0846],[79.3921,33.036],[79.3305,33.0118],[79.3826,32.989],[79.384,32.9678],[79.4205,32.9613],[79.5666,32.7864],[79.5856,32.7738],[79.6018,32.7768],[79.6255,32.7389],[79.5139,32.608],[79.4685,32.5762],[79.4469,32.5322],[79.4056,32.5297],[79.3928,32.5721],[79.319,32.5923],[79.2933,32.5499],[79.2724,32.5322],[79.2494,32.5337],[79.2365,32.5054],[79.1939,32.4827],[79.1357,32.4766],[79.1296,32.466],[79.1452,32.4427],[79.1432,32.4225],[79.1242,32.4134],[79.1134,32.3841],[79.0322,32.3856],[79.0133,32.377],[78.9801,32.3376],[78.9605,32.3659],[78.9023,32.3927],[78.8577,32.4402],[78.8259,32.4387],[78.7751,32.558],[78.7751,32.5731],[78.7954,32.5979],[78.7609,32.655],[78.7663,32.6975],[78.7217,32.6611],[78.6608,32.654],[78.6378,32.6095],[78.6195,32.5964],[78.5722,32.6176],[78.5343,32.6085],[78.4985,32.5812],[78.4585,32.5797],[78.4355,32.5615],[78.4267,32.5317],[78.3983,32.5256],[78.3266,32.4721],[78.2948,32.5039],[78.3151,32.5256],[78.3131,32.5736],[78.3483,32.5812],[78.4051,32.6196],[78.3875,32.6343],[78.3794,32.6681],[78.3943,32.7156],[78.3875,32.7571],[78.3564,32.7576],[78.3043,32.7343],[78.3124,32.7091],[78.2529,32.6909],[78.2461,32.6717],[78.2197,32.6646],[78.1426,32.6818],[78.1473,32.6545],[78.1108,32.6626],[78.0926,32.6479],[78.0986,32.6302],[78.0871,32.6242],[78.0608,32.6262],[78.0466,32.6449],[78.0161,32.6196],[77.9701,32.6469],[77.9708,32.655],[77.9464,32.6616],[77.9187,32.6909],[77.9343,32.7258],[77.9261,32.7722],[77.9038,32.7717],[77.8842,32.7879],[77.8883,32.7985],[77.8693,32.8268],[77.8389,32.842],[77.826,32.8364],[77.7807,32.8657],[77.7895,32.8905],[77.8111,32.9067],[77.7408,32.9688],[77.7198,32.9688],[77.713,32.9825],[77.6826,32.9885],[77.6738,32.9607],[77.6021,32.9431],[77.596,32.9274],[77.5392,32.887],[77.5128,32.8774],[77.5013,32.8854],[77.4688,32.8587],[77.4519,32.8642],[77.4445,32.8799],[77.4052,32.8829],[77.3741,32.8546],[77.3728,32.8233],[77.3389,32.8167],[77.3234,32.8506],[77.3011,32.8496],[77.274,32.8738],[77.318,32.8945]]]}},{"type":"Feature","properties":{"district":"Kargil","district_hi":"कारगिल"},"geometry":{"type":"Polygon","coordinates":[[[77.5385,33.1558],[77.4546,33.2038],[77.4194,33.1962],[77.4032,33.17],[77.4188,33.1341],[77.4086,33.0841],[77.3646,33.078],[77.3396,33.0851],[77.3369,33.0482],[77.3166,33.0431],[77.3146,33.0325],[77.2923,33.0366],[77.2767,32.9946],[77.318,32.8945],[77.3038,32.8829],[77.2544,32.8637],[77.2368,32.8809],[77.2435,32.8925],[77.1989,32.9092],[77.1881,32.9289],[77.1705,32.9107],[77.157,32.9117],[77.1637,32.937],[77.161,32.9532],[77.1488,32.9562],[77.1495,32.9779],[77.1164,32.985],[77.111,32.9754],[77.0859,32.9724],[77.0487,32.9992],[77.0102,32.989],[76.9926,33.0017],[76.9716,33.0007],[76.933,33.0285],[76.9053,33.079],[76.9094,33.0942],[76.885,33.1215],[76.8552,33.1144],[76.8444,33.1376],[76.8167,33.1599],[76.8174,33.1942],[76.8343,33.2048],[76.8255,33.2155],[76.8431,33.2468],[76.8309,33.2493],[76.8201,33.2362],[76.7991,33.2559],[76.7565,33.2483],[76.7375,33.2609],[76.7179,33.3287],[76.6963,33.3281],[76.6706,33.3418],[76.632,33.4095],[76.6286,33.4348],[76.6158,33.4398],[76.5813,33.4262],[76.5691,33.4661],[76.5495,33.4646],[76.5089,33.499],[76.5021,33.5161],[76.4588,33.5338],[76.4649,33.5455],[76.45,33.5631],[76.4358,33.5424],[76.4148,33.5394],[76.3797,33.553],[76.381,33.5773],[76.3587,33.6036],[76.308,33.6096],[76.2998,33.5985],[76.31,33.5717],[76.2599,33.5652],[76.2457,33.5455],[76.2247,33.5475],[76.2051,33.5692],[76.2254,33.5773],[76.2315,33.5869],[76.2241,33.6005],[76.2403,33.6051],[76.2295,33.6299],[76.2707,33.6435],[76.2843,33.6612],[76.266,33.6799],[76.2653,33.7466],[76.239,33.7719],[76.2011,33.7754],[76.1699,33.7951],[76.1395,33.8487],[76.0976,33.8765],[76.0475,33.929],[76.0225,33.9973],[75.9792,34.0018],[75.9805,33.9791],[75.9433,33.9871],[75.8642,33.9786],[75.8567,33.9695],[75.8621,34.0175],[75.8195,34.0453],[75.7999,34.0427],[75.7728,34.0554],[75.7478,34.0968],[75.7126,34.115],[75.6869,34.159],[75.6991,34.2151],[75.6917,34.2312],[75.6754,34.2282],[75.6551,34.2429],[75.5949,34.1984],[75.58,34.2146],[75.555,34.2115],[75.4968,34.2333],[75.4745,34.2808],[75.4136,34.2828],[75.3933,34.2949],[75.3974,34.3207],[75.3771,34.3485],[75.4671,34.3834],[75.4941,34.4122],[75.5083,34.4566],[75.5564,34.494],[75.5997,34.5016],[75.7898,34.4996],[75.8939,34.5451],[75.9345,34.6239],[75.9731,34.7341],[76.0157,34.7194],[76.0434,34.6846],[76.1334,34.6628],[76.216,34.676],[76.2356,34.6598],[76.2789,34.682],[76.4203,34.7204],[76.4453,34.6856],[76.4487,34.6583],[76.473,34.6335],[76.4527,34.5804],[76.4757,34.5754],[76.5251,34.5946],[76.5298,34.5744],[76.561,34.5703],[76.5495,34.5436],[76.5569,34.488],[76.5745,34.4551],[76.5637,34.4253],[76.5901,34.4152],[76.6252,34.3773],[76.7233,34.3247],[76.703,34.305],[76.7017,34.256],[76.6909,34.2398],[76.676,34.2378],[76.6719,34.2201],[76.6821,34.1782],[76.6618,34.1453],[76.6881,34.0796],[76.6611,34.0614],[76.6083,34.064],[76.5799,34.0453],[76.584,34.0069],[76.5542,34.0028],[76.515,33.9452],[76.5292,33.9346],[76.517,33.9154],[76.5278,33.8921],[76.5562,33.8861],[76.5731,33.8643],[76.5995,33.8689],[76.6218,33.8977],[76.6462,33.9068],[76.7051,33.8527],[76.724,33.8224],[76.7389,33.8305],[76.7592,33.8052],[76.8289,33.7941],[76.8593,33.7744],[76.8897,33.781],[76.9134,33.7587],[76.9012,33.742],[76.9405,33.7163],[76.9655,33.7117],[76.9851,33.7244],[77.021,33.7026],[77.0548,33.7067],[77.1015,33.6698],[77.1299,33.6834],[77.1502,33.6774],[77.2077,33.6374],[77.209,33.6203],[77.2388,33.6],[77.2341,33.5884],[77.2564,33.5268],[77.3004,33.4848],[77.3376,33.4909],[77.3613,33.4747],[77.3971,33.4909],[77.4431,33.4924],[77.4796,33.4201],[77.4993,33.4115],[77.4932,33.3888],[77.5358,33.3741],[77.5432,33.359],[77.5087,33.3428],[77.4986,33.3292],[77.5006,33.2993],[77.4769,33.2741],[77.5216,33.2175],[77.5385,33.1558]]]}}]}