{"type":"FeatureCollection","features":[{"type":"Feature","properties":{"district":"Lakshadweep","district_hi":"लक्षद्वीप"},"geometry":{"type":"MultiPolygon","coordinates":[[[[73.0105,8.2779],[73.012,8.277],[73.0118,8.2764],[73.0105,8.2779]]],[[[73.0139,8.3021],[73.0137,8.3024],[73.0141,8.3023],[73.0139,8.3021]]],[[[73.0542,8.2734],[73.0427,8.264],[73.0178,8.2754],[73.0477,8.2755],[73.0785,8.3243],[73.0542,8.2734]]],[[[73.6312,10.0679],[73.6308,10.0679],[73.6311,10.0681],[73.6312,10.0679]]],[[[73.6305,10.0682],[73.6305,10.0679],[73.6302,10.0679],[73.6305,10.0682]]],[[[73.6319,10.0682],[73.6316,10.0682],[73.632,10.0686],[73.6319,10.0682]]],[[[73.6303,10.0682],[73.6299,10.0684],[73.6302,10.0686],[73.6303,10.0682]]],[[[73.631,10.0682],[73.6305,10.0686],[73.6317,10.0688],[73.631,10.0682]]],[[[73.6324,10.0686],[73.6321,10.0686],[73.6322,10.0689],[73.6324,10.0686]]],[[[73.6307,10.0689],[73.6304,10.0689],[73.6306,10.0691],[73.6307,10.0689]]],[[[73.632,10.0691],[73.6314,10.0691],[73.6319,10.0693],[73.632,10.0691]]],[[[73.6333,10.0693],[73.6324,10.0691],[73.6331,10.0699],[73.6333,10.0693]]],[[[73.6346,10.0716],[73.6337,10.0721],[73.6347,10.0723],[73.6346,10.0716]]],[[[73.6281,10.0738],[73.628,10.0726],[73.6263,10.0724],[73.6281,10.0738]]],[[[73.6303,10.0743],[73.6298,10.0744],[73.6305,10.0749],[73.6303,10.0743]]],[[[73.6478,10.0724],[73.6413,10.0572],[73.635,10.0713],[73.6512,10.102],[73.6478,10.0724]]],[[[73.6526,10.1087],[73.6522,10.1087],[73.6522,10.1095],[73.6526,10.1087]]],[[[72.2842,10.0412],[72.2906,10.0532],[72.2887,10.0455],[72.2842,10.0412]]],[[[73.6604,10.1543],[73.6643,10.1411],[73.6601,10.1292],[73.6604,10.1543]]],[[[72.3374,10.1053],[72.3344,10.101],[72.3361,10.1075],[72.3374,10.1053]]],[[[72.3323,10.1302],[72.3273,10.1299],[72.3281,10.1387],[72.3323,10.1302]]],[[[72.6442,10.5784],[72.6497,10.5635],[72.6172,10.5422],[72.6442,10.5784]]],[[[73.6681,10.8176],[73.7018,10.8143],[73.6718,10.8039],[73.6599,10.8109],[73.6681,10.8176]]],[[[72.1687,10.8149],[72.1688,10.8129],[72.1649,10.8129],[72.1687,10.8149]]],[[[72.2043,10.8786],[72.1701,10.8183],[72.1947,10.8714],[72.2043,10.8786]]],[[[72.2889,10.9466],[72.2896,10.9357],[72.2847,10.9375],[72.2889,10.9466]]],[[[72.3255,10.9504],[72.3154,10.9436],[72.3171,10.9497],[72.3255,10.9504]]],[[[72.3332,10.9519],[72.3315,10.9506],[72.3304,10.9516],[72.3332,10.9519]]],[[[72.3349,10.9553],[72.3339,10.9531],[72.333,10.9549],[72.3349,10.9553]]],[[[72.3353,10.9564],[72.3344,10.9564],[72.3341,10.9593],[72.3353,10.9564]]],[[[72.7203,11.1139],[72.7186,11.1273],[72.7337,11.1363],[72.7203,11.1139]]],[[[72.7621,11.1829],[72.7795,11.2426],[72.7902,11.2604],[72.7621,11.1829]]],[[[73.0083,11.4696],[72.9994,11.4983],[73.0099,11.4875],[73.0083,11.4696]]],[[[72.1904,11.599],[72.1867,11.5987],[72.1853,11.6017],[72.1904,11.599]]],[[[72.7121,11.6867],[72.7058,11.6826],[72.7166,11.7039],[72.7121,11.6867]]]]}}]}