{"type":"FeatureCollection","features":[{"type":"Feature","properties":{"district":"Kamjong","district_hi":"कामजोंग"},"geometry":{"type":"Polygon","coordinates":[[[94.3766,24.5126],[94.3615,24.5188],[94.3612,24.5188],[94.3728,24.5479],[94.331,24.5492],[94.3332,24.5652],[94.3105,24.5711],[94.2819,24.6008],[94.2646,24.5956],[94.264,24.5962],[94.248,24.6175],[94.2118,24.6158],[94.1722,24.6321],[94.2002,24.6253],[94.1971,24.655],[94.1826,24.6717],[94.1876,24.7158],[94.1722,24.7337],[94.1791,24.7674],[94.1606,24.7948],[94.1329,24.8026],[94.1468,24.8297],[94.1392,24.8702],[94.1562,24.8839],[94.1669,24.927],[94.192,24.943],[94.2219,24.9417],[94.2841,24.961],[94.3326,24.9862],[94.3954,24.9862],[94.4539,25.0175],[94.5303,25.0338],[94.6111,25.1024],[94.6539,25.1155],[94.7365,25.1132],[94.7441,25.0371],[94.7271,25.0002],[94.6963,24.9682],[94.7139,24.9349],[94.702,24.9297],[94.6875,24.8895],[94.657,24.8715],[94.6315,24.8389],[94.6177,24.7807],[94.6284,24.7559],[94.5938,24.7092],[94.5787,24.7086],[94.5759,24.7252],[94.5709,24.706],[94.5454,24.7105],[94.5347,24.6429],[94.4967,24.5907],[94.4545,24.5659],[94.4259,24.4816],[94.3747,24.4943],[94.3766,24.5126]]]}},{"type":"Feature","properties":{"district":"Senapati","district_hi":"सेनापति"},"geometry":{"type":"Polygon","coordinates":[[[94.4674,25.5822],[94.4602,25.5495],[94.4137,25.4757],[94.4215,25.4662],[94.4111,25.4626],[94.3935,25.4234],[94.3832,25.4231],[94.3898,25.4202],[94.3794,25.4078],[94.3775,25.3571],[94.3354,25.3101],[94.325,25.2794],[94.2892,25.2419],[94.2527,25.2288],[94.2461,25.2037],[94.2213,25.1939],[94.214,25.1752],[94.1933,25.1867],[94.0729,25.1703],[93.9974,25.1922],[94.0172,25.2533],[93.9707,25.2925],[93.9918,25.3474],[93.9877,25.3748],[93.9603,25.3914],[93.9213,25.3954],[93.9198,25.3967],[93.9176,25.4025],[93.8924,25.4228],[93.8333,25.4274],[93.8204,25.4607],[93.805,25.4636],[93.81,25.4839],[93.8009,25.4963],[93.7868,25.5035],[93.7663,25.4937],[93.7585,25.5041],[93.7651,25.5387],[93.8163,25.54],[93.8346,25.5606],[93.8613,25.5534],[93.8886,25.5652],[93.9603,25.5508],[93.983,25.5684],[94.0075,25.5671],[94.0021,25.5864],[94.0128,25.5926],[94.038,25.5697],[94.048,25.5756],[94.0672,25.5521],[94.0845,25.5547],[94.0943,25.5374],[94.0845,25.5302],[94.1081,25.5217],[94.1405,25.5195],[94.1562,25.5511],[94.1647,25.5413],[94.1782,25.5508],[94.192,25.5488],[94.1867,25.524],[94.2187,25.4917],[94.2845,25.508],[94.3215,25.5031],[94.3854,25.5322],[94.4168,25.5368],[94.425,25.5867],[94.48,25.6151],[94.4888,25.6047],[94.4674,25.5822]]]}},{"type":"Feature","properties":{"district":"Tamenglong","district_hi":"तमेंगलोंग"},"geometry":{"type":"Polygon","coordinates":[[[93.8877,25.3353],[93.9191,25.3278],[93.9543,25.2876],[93.9556,25.2863],[93.9537,25.2853],[93.9427,25.2794],[93.9261,25.2706],[93.9028,25.2722],[93.8537,25.2288],[93.8261,25.2223],[93.7924,25.1674],[93.7726,25.154],[93.7968,25.1011],[93.7965,25.0825],[93.8138,25.0296],[93.817,25.0234],[93.816,25.0231],[93.7906,25.0165],[93.7997,24.9574],[93.7588,24.9075],[93.772,24.8496],[93.772,24.8493],[93.7711,24.848],[93.7437,24.8082],[93.7437,24.8075],[93.7503,24.8],[93.7572,24.7922],[93.7563,24.7922],[93.6491,24.8003],[93.6346,24.8013],[93.6154,24.8127],[93.5765,24.8356],[93.5607,24.8111],[93.5435,24.8092],[93.4976,24.8232],[93.4073,24.8248],[93.3988,24.8065],[93.3718,24.8092],[93.363,24.7585],[93.34,24.7507],[93.33,24.7262],[93.3391,24.7125],[93.3036,24.6903],[93.2844,24.6658],[93.2791,24.6589],[93.2526,24.6589],[93.2162,24.6994],[93.2096,24.7014],[93.2005,24.704],[93.2008,24.7043],[93.2222,24.722],[93.2322,24.7527],[93.1778,24.7925],[93.1756,24.7941],[93.1766,24.7948],[93.1967,24.8114],[93.1948,24.8539],[93.2042,24.851],[93.2262,24.8732],[93.2215,24.8817],[93.2325,24.8849],[93.2259,24.8921],[93.2407,24.9035],[93.235,24.9114],[93.2489,24.915],[93.2366,24.9372],[93.2511,24.9408],[93.2451,24.9509],[93.263,24.9613],[93.2492,24.9773],[93.2596,25.0018],[93.2445,24.9982],[93.2435,25.0185],[93.2539,25.0204],[93.264,25.0495],[93.2998,25.0459],[93.3149,25.0848],[93.3322,25.0936],[93.3454,25.1233],[93.3457,25.17],[93.3819,25.2229],[93.3812,25.2396],[93.4274,25.2833],[93.4699,25.3042],[93.4539,25.3248],[93.4721,25.3033],[93.4721,25.2713],[93.5064,25.2693],[93.5013,25.2425],[93.5557,25.2458],[93.584,25.2216],[93.5881,25.201],[93.6054,25.1991],[93.6673,25.3108],[93.6648,25.3258],[93.6815,25.3287],[93.6868,25.3601],[93.7091,25.3571],[93.7421,25.4038],[93.7742,25.4195],[93.8053,25.463],[93.8204,25.4607],[93.8333,25.4274],[93.8924,25.4228],[93.9176,25.4025],[93.9198,25.3967],[93.9213,25.3954],[93.9207,25.3944],[93.9226,25.3892],[93.9135,25.3846],[93.9034,25.3709],[93.8877,25.3353]]]}},{"type":"Feature","properties":{"district":"Imphal West","district_hi":"इम्फाल पश्चिम"},"geometry":{"type":"Polygon","coordinates":[[[93.9198,24.9626],[93.932,24.9679],[93.916,24.9137],[93.9154,24.9107],[93.8968,24.9078],[93.9056,24.8817],[93.9191,24.88],[93.899,24.8588],[93.9232,24.8585],[93.9191,24.8516],[93.9462,24.831],[93.933,24.8088],[93.9336,24.8085],[93.9446,24.8],[93.9333,24.751],[93.933,24.7507],[93.9342,24.7465],[93.9411,24.72],[93.9408,24.7197],[93.9044,24.6994],[93.9047,24.6749],[93.9327,24.6648],[93.9349,24.6491],[93.9349,24.6488],[93.9261,24.653],[93.8886,24.6158],[93.9116,24.6119],[93.9113,24.6109],[93.9047,24.5913],[93.9116,24.5737],[93.9006,24.5541],[93.9125,24.5551],[93.872,24.5512],[93.8688,24.5263],[93.8578,24.5296],[93.8559,24.5453],[93.8808,24.5583],[93.8603,24.5662],[93.8717,24.5979],[93.8519,24.5743],[93.8503,24.5838],[93.8289,24.5946],[93.8349,24.6106],[93.806,24.6178],[93.8141,24.6423],[93.7994,24.6606],[93.8038,24.6762],[93.8314,24.6857],[93.8393,24.6677],[93.8648,24.6589],[93.8754,24.6658],[93.8874,24.6981],[93.8754,24.7024],[93.8685,24.7386],[93.8685,24.7393],[93.8339,24.7216],[93.7981,24.7402],[93.7698,24.735],[93.7928,24.7654],[93.7818,24.8046],[93.8085,24.8359],[93.8069,24.865],[93.8459,24.9293],[93.8478,24.9545],[93.8635,24.9604],[93.878,24.9868],[93.8864,24.9849],[93.9091,24.9747],[93.9132,24.9715],[93.9141,24.9708],[93.8868,24.9398],[93.8864,24.9395],[93.8868,24.9395],[93.9084,24.929],[93.9198,24.9626]]]}},{"type":"Feature","properties":{"district":"Kakching","district_hi":"काकचिंग"},"geometry":{"type":"Polygon","coordinates":[[[93.8688,24.5263],[93.872,24.5512],[93.9125,24.5551],[93.9217,24.577],[93.9547,24.5779],[93.9603,24.5554],[94.0113,24.5427],[94.0166,24.5414],[94.0219,24.5237],[94.0232,24.5198],[94.0207,24.5188],[94.0213,24.511],[94.0131,24.5084],[94.0185,24.4956],[94.0204,24.4914],[94.0204,24.4885],[94.0144,24.4803],[94.0207,24.4574],[94.021,24.4558],[94.0213,24.4548],[94.027,24.4568],[94.0477,24.4613],[94.0433,24.4558],[94.038,24.4489],[94.016,24.4349],[94.0157,24.4355],[94.0119,24.4447],[93.9955,24.4463],[94.0084,24.4457],[93.9936,24.4676],[93.9779,24.4633],[93.983,24.4852],[93.9672,24.4881],[93.9672,24.5012],[93.9672,24.5025],[93.9666,24.5012],[93.96,24.4852],[93.955,24.4725],[93.961,24.4715],[93.9619,24.4509],[93.9383,24.4427],[93.9553,24.4382],[93.955,24.4378],[93.9327,24.4323],[93.949,24.4238],[93.9317,24.4195],[93.9257,24.4065],[93.9239,24.4215],[93.922,24.4166],[93.9213,24.4143],[93.9198,24.4101],[93.9173,24.4091],[93.9113,24.4111],[93.9119,24.4071],[93.9154,24.3764],[93.9154,24.3768],[93.9062,24.3853],[93.9107,24.3745],[93.9018,24.3787],[93.9018,24.3784],[93.8959,24.3647],[93.8974,24.3539],[93.8924,24.351],[93.9006,24.3307],[93.8899,24.3128],[93.8896,24.3118],[93.8981,24.3115],[93.9006,24.2945],[93.8798,24.2938],[93.893,24.2742],[93.8833,24.271],[93.8902,24.2579],[93.9018,24.254],[93.8896,24.2115],[93.8981,24.2043],[93.8758,24.1991],[93.8629,24.2083],[93.8792,24.2246],[93.8767,24.2259],[93.8585,24.2341],[93.8651,24.2563],[93.8698,24.2726],[93.8789,24.2817],[93.8682,24.2892],[93.8679,24.2892],[93.866,24.2925],[93.866,24.2928],[93.8644,24.3131],[93.8534,24.3134],[93.8534,24.3284],[93.8635,24.334],[93.8509,24.3431],[93.8629,24.3542],[93.8493,24.3542],[93.8515,24.3794],[93.839,24.4097],[93.8475,24.4153],[93.8377,24.4267],[93.8814,24.4888],[93.8736,24.4986],[93.8836,24.5087],[93.8685,24.5244],[93.8688,24.5263]]]}},{"type":"Feature","properties":{"district":"Bishnupur","district_hi":"बिष्णुपुर"},"geometry":{"type":"MultiPolygon","coordinates":[[[[93.7698,24.735],[93.7981,24.7402],[93.8339,24.7216],[93.8685,24.7393],[93.8685,24.7386],[93.8754,24.7024],[93.8874,24.6981],[93.8754,24.6658],[93.8648,24.6589],[93.8393,24.6677],[93.8314,24.6857],[93.8038,24.6762],[93.7994,24.6606],[93.8141,24.6423],[93.806,24.6178],[93.8349,24.6106],[93.8289,24.5946],[93.8503,24.5838],[93.8519,24.5743],[93.8717,24.5979],[93.8603,24.5662],[93.8808,24.5583],[93.8559,24.5453],[93.8578,24.5296],[93.8688,24.5263],[93.8685,24.5244],[93.8836,24.5087],[93.8736,24.4986],[93.8814,24.4888],[93.8377,24.4267],[93.8475,24.4153],[93.839,24.4097],[93.8515,24.3794],[93.8493,24.3542],[93.8629,24.3542],[93.8509,24.3431],[93.8635,24.334],[93.8534,24.3284],[93.8534,24.3134],[93.8644,24.3131],[93.866,24.2928],[93.8613,24.3013],[93.861,24.3017],[93.8566,24.3092],[93.8512,24.3066],[93.8478,24.3085],[93.8509,24.3134],[93.8371,24.3137],[93.8361,24.3252],[93.8459,24.3261],[93.8352,24.3353],[93.8475,24.3389],[93.8387,24.3425],[93.8377,24.3627],[93.8207,24.3601],[93.8204,24.349],[93.8129,24.3588],[93.8094,24.3428],[93.8075,24.3624],[93.7796,24.3588],[93.7887,24.3735],[93.7676,24.3794],[93.772,24.3902],[93.7796,24.3787],[93.7818,24.3862],[93.7862,24.3768],[93.806,24.3764],[93.8122,24.3921],[93.783,24.4026],[93.8009,24.4316],[93.7821,24.4293],[93.7874,24.4176],[93.7733,24.4163],[93.7733,24.4019],[93.7465,24.4084],[93.7374,24.3973],[93.7258,24.4146],[93.7164,24.4032],[93.6984,24.4],[93.6981,24.4124],[93.6978,24.4248],[93.7204,24.4669],[93.7299,24.4849],[93.7324,24.5623],[93.7252,24.5714],[93.7346,24.5972],[93.7387,24.609],[93.7343,24.6122],[93.7343,24.6178],[93.7368,24.625],[93.7418,24.6253],[93.7428,24.6338],[93.7494,24.6818],[93.7682,24.6929],[93.7698,24.735]]],[[[93.8682,24.2892],[93.8789,24.2817],[93.8698,24.2726],[93.8726,24.2811],[93.8682,24.2892]]]]}},{"type":"Feature","properties":{"district":"Chandel","district_hi":"चंदेल"},"geometry":{"type":"Polygon","coordinates":[[[93.8629,24.2083],[93.8758,24.1991],[93.8981,24.2043],[93.8896,24.2115],[93.9018,24.254],[93.8902,24.2579],[93.8833,24.271],[93.893,24.2742],[93.8798,24.2938],[93.9006,24.2945],[93.8981,24.3115],[93.8896,24.3118],[93.8899,24.3128],[93.9006,24.3307],[93.8924,24.351],[93.8974,24.3539],[93.8959,24.3647],[93.9018,24.3784],[93.9018,24.3787],[93.9107,24.3745],[93.9062,24.3853],[93.9154,24.3768],[93.9154,24.3764],[93.9119,24.4071],[93.9113,24.4111],[93.9173,24.4091],[93.9198,24.4101],[93.9213,24.4143],[93.922,24.4166],[93.9239,24.4215],[93.9257,24.4065],[93.9317,24.4195],[93.949,24.4238],[93.9327,24.4323],[93.955,24.4378],[93.9553,24.4382],[93.9383,24.4427],[93.9619,24.4509],[93.961,24.4715],[93.955,24.4725],[93.96,24.4852],[93.9666,24.5012],[93.9672,24.5025],[93.9672,24.5012],[93.9672,24.4881],[93.983,24.4852],[93.9779,24.4633],[93.9936,24.4676],[94.0084,24.4457],[93.9955,24.4463],[94.0119,24.4447],[94.0157,24.4355],[94.016,24.4349],[94.038,24.4489],[94.059,24.4248],[94.099,24.4199],[94.1115,24.3973],[94.1477,24.3826],[94.1534,24.301],[94.2027,24.2667],[94.2112,24.2452],[94.1964,24.1338],[94.2524,24.1142],[94.2546,24.0825],[94.2395,24.0528],[94.2279,24.0567],[94.2373,24.0352],[94.1883,23.9597],[94.1898,23.9336],[94.1697,23.9284],[94.1565,23.8484],[94.1449,23.85],[94.1439,23.8356],[94.1339,23.833],[94.1166,23.8386],[94.0961,23.8895],[94.049,23.8876],[94.0405,23.9107],[94.0166,23.9271],[93.9751,23.9245],[93.9443,23.946],[93.8937,23.9532],[93.8591,23.932],[93.8078,23.9271],[93.772,23.9692],[93.7591,24.0035],[93.7409,24.0064],[93.7406,24.0074],[93.7742,24.0956],[93.7745,24.0969],[93.7758,24.0998],[93.7758,24.106],[93.7805,24.1371],[93.789,24.1446],[93.8151,24.1671],[93.8361,24.186],[93.8509,24.2138],[93.8613,24.2066],[93.8619,24.2073],[93.8629,24.2083]]]}},{"type":"Feature","properties":{"district":"Churachandpur","district_hi":"चुराचांदपुर"},"geometry":{"type":"Polygon","coordinates":[[[93.8629,24.2083],[93.8619,24.2073],[93.8613,24.2066],[93.8509,24.2138],[93.8361,24.186],[93.8151,24.1671],[93.789,24.1446],[93.7805,24.1371],[93.7758,24.106],[93.7758,24.0998],[93.7745,24.0969],[93.7742,24.0956],[93.7406,24.0074],[93.7409,24.0064],[93.7418,23.9973],[93.6239,24.0113],[93.6088,23.9718],[93.5916,23.9607],[93.5595,23.9819],[93.5504,23.9594],[93.5051,23.9424],[93.4617,23.9764],[93.4636,23.9937],[93.4331,24.0244],[93.4164,24.0717],[93.3775,24.0884],[93.3951,24.1851],[93.4784,24.2494],[93.4913,24.3657],[93.3655,24.3836],[93.3501,24.4006],[93.3614,24.4473],[93.3844,24.4653],[93.3922,24.4979],[93.4086,24.511],[93.3844,24.5283],[93.3881,24.5681],[93.3963,24.5737],[93.3982,24.575],[93.4488,24.5407],[93.4708,24.574],[93.4897,24.5551],[93.512,24.5659],[93.5315,24.5567],[93.5394,24.5763],[93.568,24.593],[93.5956,24.5662],[93.628,24.6067],[93.6491,24.5926],[93.662,24.608],[93.6978,24.6132],[93.7148,24.6057],[93.7226,24.621],[93.7343,24.6175],[93.7343,24.6178],[93.7343,24.6122],[93.7387,24.609],[93.7346,24.5972],[93.7252,24.5714],[93.7324,24.5623],[93.7299,24.4849],[93.7204,24.4669],[93.6978,24.4248],[93.6981,24.4124],[93.6984,24.4],[93.7164,24.4032],[93.7258,24.4146],[93.7374,24.3973],[93.7465,24.4084],[93.7733,24.4019],[93.7733,24.4163],[93.7874,24.4176],[93.7821,24.4293],[93.8009,24.4316],[93.783,24.4026],[93.8122,24.3921],[93.806,24.3764],[93.7862,24.3768],[93.7818,24.3862],[93.7796,24.3787],[93.772,24.3902],[93.7676,24.3794],[93.7887,24.3735],[93.7796,24.3588],[93.8075,24.3624],[93.8094,24.3428],[93.8129,24.3588],[93.8204,24.349],[93.8207,24.3601],[93.8377,24.3627],[93.8387,24.3425],[93.8475,24.3389],[93.8352,24.3353],[93.8459,24.3261],[93.8361,24.3252],[93.8371,24.3137],[93.8509,24.3134],[93.8478,24.3085],[93.8512,24.3066],[93.8566,24.3092],[93.861,24.3017],[93.8613,24.3013],[93.866,24.2928],[93.866,24.2925],[93.8679,24.2892],[93.8682,24.2892],[93.8726,24.2811],[93.8698,24.2726],[93.8651,24.2563],[93.8585,24.2341],[93.8767,24.2259],[93.8792,24.2246],[93.8629,24.2083]]]}},{"type":"Feature","properties":{"district":"Imphal East","district_hi":"इम्फाल पूर्व"},"geometry":{"type":"Polygon","coordinates":[[[93.9408,24.7197],[93.9411,24.72],[93.9342,24.7465],[93.933,24.7507],[93.9333,24.751],[93.9446,24.8],[93.9336,24.8085],[93.933,24.8088],[93.9462,24.831],[93.9191,24.8516],[93.9232,24.8585],[93.899,24.8588],[93.9191,24.88],[93.9056,24.8817],[93.8968,24.9078],[93.9154,24.9107],[93.9119,24.8999],[93.9339,24.899],[93.9499,24.898],[93.961,24.9146],[93.9471,24.9189],[93.9632,24.9264],[93.9518,24.9378],[93.9603,24.9382],[93.9685,24.9375],[93.977,24.915],[93.9842,24.9235],[93.9852,24.9248],[93.9814,24.9473],[93.9537,24.9512],[93.9534,24.9649],[93.9914,24.9542],[93.982,24.9692],[93.9952,24.9685],[94.0012,24.9506],[94.0125,24.9558],[94.0138,24.9564],[94.0207,24.9986],[93.9977,24.9943],[94.0194,25.0044],[94.0163,25.0449],[94.0267,25.0534],[94.0279,25.0234],[94.0477,25.0136],[94.0301,25.0116],[94.0292,24.9995],[94.0405,25.0048],[94.0499,24.995],[94.0333,24.9927],[94.0311,24.9858],[94.0468,24.9819],[94.0301,24.976],[94.0279,24.9639],[94.0417,24.9695],[94.0399,24.9525],[94.0559,24.9502],[94.0449,24.943],[94.059,24.9368],[94.0562,24.881],[94.0848,24.8866],[94.0895,24.9012],[94.12,24.9199],[94.1213,24.9355],[94.1345,24.9192],[94.1065,24.8784],[94.1009,24.8529],[94.0858,24.8487],[94.0993,24.8232],[94.0858,24.8193],[94.0678,24.7451],[94.0546,24.7402],[94.0597,24.7282],[94.0528,24.7233],[94.0499,24.7213],[94.0606,24.7197],[94.0528,24.6939],[94.0653,24.706],[94.0795,24.69],[94.0326,24.6687],[94.0251,24.6749],[94.0106,24.6511],[94.0018,24.6867],[93.9738,24.6661],[93.9578,24.6704],[93.9531,24.6844],[93.9625,24.6929],[93.9455,24.7099],[93.9427,24.7193],[93.9421,24.7203],[93.9408,24.7197]]]}},{"type":"Feature","properties":{"district":"Jiribam","district_hi":"जिरीबाम"},"geometry":{"type":"Polygon","coordinates":[[[93.1766,24.7948],[93.1756,24.7941],[93.1778,24.7925],[93.2322,24.7527],[93.2222,24.722],[93.2008,24.7043],[93.2005,24.704],[93.2096,24.7014],[93.2162,24.6994],[93.2152,24.6971],[93.2089,24.6886],[93.2042,24.6746],[93.2187,24.6717],[93.2133,24.6671],[93.208,24.6622],[93.2077,24.6622],[93.2218,24.639],[93.2096,24.6272],[93.2171,24.5936],[93.2027,24.5861],[93.2055,24.5691],[93.1907,24.5701],[93.1904,24.5701],[93.1967,24.5636],[93.1772,24.5361],[93.1228,24.5541],[93.0876,24.5724],[93.1039,24.5851],[93.0712,24.5998],[93.0841,24.6135],[93.0756,24.6246],[93.087,24.6295],[93.0829,24.6501],[93.0951,24.653],[93.1039,24.6756],[93.0901,24.6775],[93.0734,24.7079],[93.0867,24.7095],[93.1074,24.7412],[93.098,24.7468],[93.1002,24.7794],[93.1093,24.8114],[93.1212,24.8193],[93.1181,24.8082],[93.1382,24.8101],[93.1486,24.7876],[93.1731,24.802],[93.1766,24.7948]]]}},{"type":"Feature","properties":{"district":"Kangpokpi","district_hi":"कांगपोकपी"},"geometry":{"type":"Polygon","coordinates":[[[94.1669,24.927],[94.1562,24.8839],[94.1392,24.8702],[94.1468,24.8297],[94.1329,24.8026],[94.1606,24.7948],[94.1791,24.7674],[94.1722,24.7337],[94.1876,24.7158],[94.1826,24.6717],[94.1971,24.655],[94.2002,24.6253],[94.1722,24.6321],[94.1703,24.6325],[94.1681,24.6331],[94.1351,24.6158],[94.12,24.6259],[94.1097,24.6328],[94.0968,24.6645],[94.0952,24.6684],[94.0949,24.6687],[94.115,24.6769],[94.1178,24.689],[94.1417,24.6896],[94.1172,24.6997],[94.1276,24.7301],[94.1163,24.7095],[94.098,24.7154],[94.1037,24.7099],[94.0905,24.6919],[94.0801,24.689],[94.0795,24.69],[94.0653,24.706],[94.0528,24.6939],[94.0606,24.7197],[94.0499,24.7213],[94.0528,24.7233],[94.0597,24.7282],[94.0546,24.7402],[94.0678,24.7451],[94.0858,24.8193],[94.0993,24.8232],[94.0858,24.8487],[94.1009,24.8529],[94.1065,24.8784],[94.1345,24.9192],[94.1213,24.9355],[94.12,24.9199],[94.0895,24.9012],[94.0848,24.8866],[94.0562,24.881],[94.059,24.9368],[94.0449,24.943],[94.0559,24.9502],[94.0399,24.9525],[94.0417,24.9695],[94.0279,24.9639],[94.0301,24.976],[94.0468,24.9819],[94.0311,24.9858],[94.0333,24.9927],[94.0499,24.995],[94.0405,25.0048],[94.0292,24.9995],[94.0301,25.0116],[94.0477,25.0136],[94.0279,25.0234],[94.0267,25.0534],[94.0163,25.0449],[94.0194,25.0044],[93.9977,24.9943],[94.0207,24.9986],[94.0138,24.9564],[94.0125,24.9558],[94.0012,24.9506],[93.9952,24.9685],[93.982,24.9692],[93.9914,24.9542],[93.9534,24.9649],[93.9537,24.9512],[93.9814,24.9473],[93.9852,24.9248],[93.9842,24.9235],[93.977,24.915],[93.9685,24.9375],[93.9603,24.9382],[93.9518,24.9378],[93.9632,24.9264],[93.9471,24.9189],[93.961,24.9146],[93.9499,24.898],[93.9339,24.899],[93.9119,24.8999],[93.9154,24.9107],[93.916,24.9137],[93.932,24.9679],[93.9198,24.9626],[93.9084,24.929],[93.8868,24.9395],[93.8864,24.9395],[93.8868,24.9398],[93.9141,24.9708],[93.9132,24.9715],[93.9091,24.9747],[93.8864,24.9849],[93.878,24.9868],[93.8635,24.9604],[93.8478,24.9545],[93.8459,24.9293],[93.8069,24.865],[93.8085,24.8359],[93.7818,24.8046],[93.7928,24.7654],[93.7698,24.735],[93.7682,24.6929],[93.7494,24.6818],[93.7428,24.6338],[93.7418,24.6253],[93.7368,24.625],[93.7293,24.6243],[93.7082,24.6449],[93.7327,24.6638],[93.7239,24.6919],[93.7387,24.7043],[93.7264,24.7471],[93.7437,24.7647],[93.7491,24.7912],[93.7575,24.7918],[93.7575,24.7922],[93.7572,24.7922],[93.7503,24.8],[93.7437,24.8075],[93.7437,24.8082],[93.7711,24.848],[93.772,24.8493],[93.772,24.8496],[93.7588,24.9075],[93.7997,24.9574],[93.7906,25.0165],[93.816,25.0231],[93.817,25.0234],[93.8138,25.0296],[93.7965,25.0825],[93.7968,25.1011],[93.7726,25.154],[93.7924,25.1674],[93.8261,25.2223],[93.8537,25.2288],[93.9028,25.2722],[93.9261,25.2706],[93.9427,25.2794],[93.9537,25.2853],[93.9556,25.2863],[93.9543,25.2876],[93.9191,25.3278],[93.8877,25.3353],[93.9034,25.3709],[93.9135,25.3846],[93.9226,25.3892],[93.9207,25.3944],[93.9213,25.3954],[93.9603,25.3914],[93.9877,25.3748],[93.9918,25.3474],[93.9707,25.2925],[94.0172,25.2533],[93.9974,25.1922],[94.0729,25.1703],[94.1933,25.1867],[94.214,25.1752],[94.1794,25.1677],[94.1606,25.1426],[94.1647,25.1331],[94.1493,25.1344],[94.1323,25.1187],[94.132,25.1184],[94.1222,25.0854],[94.1175,25.0701],[94.1175,25.0698],[94.1486,25.0351],[94.1452,24.9989],[94.1452,24.9986],[94.1716,24.9375],[94.1703,24.9342],[94.1669,24.927]]]}},{"type":"Feature","properties":{"district":"Thoubal","district_hi":"थौबल"},"geometry":{"type":"Polygon","coordinates":[[[93.9125,24.5551],[93.9006,24.5541],[93.9116,24.5737],[93.9047,24.5913],[93.9113,24.6109],[93.9116,24.6119],[93.8886,24.6158],[93.9261,24.653],[93.9349,24.6488],[93.9349,24.6491],[93.9327,24.6648],[93.9047,24.6749],[93.9044,24.6994],[93.9408,24.7197],[93.9421,24.7203],[93.9427,24.7193],[93.9455,24.7099],[93.9625,24.6929],[93.9531,24.6844],[93.9578,24.6704],[93.9738,24.6661],[94.0018,24.6867],[94.0106,24.6511],[94.0251,24.6749],[94.0326,24.6687],[94.0795,24.69],[94.0801,24.689],[94.0905,24.6919],[94.1037,24.7099],[94.098,24.7154],[94.1163,24.7095],[94.1276,24.7301],[94.1172,24.6997],[94.1417,24.6896],[94.1178,24.689],[94.115,24.6769],[94.0949,24.6687],[94.0952,24.6684],[94.0968,24.6645],[94.1097,24.6328],[94.12,24.6259],[94.1241,24.6191],[94.1122,24.6126],[94.0961,24.6109],[94.088,24.5998],[94.0993,24.5998],[94.0886,24.5952],[94.0924,24.5835],[94.1034,24.5776],[94.099,24.5678],[94.1115,24.5743],[94.1065,24.5675],[94.1141,24.5645],[94.1049,24.5642],[94.1247,24.5401],[94.0867,24.5698],[94.0779,24.5433],[94.0675,24.5642],[94.0678,24.5401],[94.076,24.5224],[94.0876,24.5201],[94.0744,24.5156],[94.0713,24.5172],[94.0669,24.526],[94.0572,24.5241],[94.0638,24.5286],[94.0562,24.5387],[94.0446,24.528],[94.0345,24.5505],[94.0336,24.5521],[94.0339,24.5489],[94.0351,24.5231],[94.0342,24.5231],[94.0254,24.5205],[94.0232,24.5198],[94.0219,24.5237],[94.0166,24.5414],[94.0113,24.5427],[93.9603,24.5554],[93.9547,24.5779],[93.9217,24.577],[93.9125,24.5551]]]}},{"type":"Feature","properties":{"district":"Tengnoupal","district_hi":"तेंगनौपाल"},"geometry":{"type":"Polygon","coordinates":[[[94.1722,24.6321],[94.2118,24.6158],[94.248,24.6175],[94.264,24.5962],[94.2646,24.5956],[94.2819,24.6008],[94.3105,24.5711],[94.3332,24.5652],[94.331,24.5492],[94.3728,24.5479],[94.3612,24.5188],[94.3615,24.5188],[94.3766,24.5126],[94.3747,24.4943],[94.3747,24.494],[94.4061,24.4836],[94.3983,24.4826],[94.3967,24.4548],[94.4071,24.4372],[94.3948,24.4094],[94.3608,24.3944],[94.3785,24.3797],[94.3505,24.335],[94.3219,24.3288],[94.3219,24.2762],[94.3068,24.2416],[94.2914,24.2327],[94.2763,24.1733],[94.2596,24.1651],[94.2524,24.1142],[94.1964,24.1338],[94.2112,24.2452],[94.2027,24.2667],[94.1534,24.301],[94.1477,24.3826],[94.1115,24.3973],[94.099,24.4199],[94.059,24.4248],[94.038,24.4489],[94.0433,24.4558],[94.0477,24.4613],[94.027,24.4568],[94.0213,24.4548],[94.021,24.4558],[94.0207,24.4574],[94.0144,24.4803],[94.0204,24.4885],[94.0204,24.4914],[94.0185,24.4956],[94.0131,24.5084],[94.0213,24.511],[94.0207,24.5188],[94.0232,24.5198],[94.0254,24.5205],[94.0342,24.5231],[94.0351,24.5231],[94.0339,24.5489],[94.0336,24.5521],[94.0345,24.5505],[94.0446,24.528],[94.0562,24.5387],[94.0638,24.5286],[94.0572,24.5241],[94.0669,24.526],[94.0713,24.5172],[94.0744,24.5156],[94.0876,24.5201],[94.076,24.5224],[94.0678,24.5401],[94.0675,24.5642],[94.0779,24.5433],[94.0867,24.5698],[94.1247,24.5401],[94.1049,24.5642],[94.1141,24.5645],[94.1065,24.5675],[94.1115,24.5743],[94.099,24.5678],[94.1034,24.5776],[94.0924,24.5835],[94.0886,24.5952],[94.0993,24.5998],[94.088,24.5998],[94.0961,24.6109],[94.1122,24.6126],[94.1241,24.6191],[94.12,24.6259],[94.1351,24.6158],[94.1681,24.6331],[94.1703,24.6325],[94.1722,24.6321]]]}},{"type":"Feature","properties":{"district":"Ukhrul","district_hi":"उख्रुल"},"geometry":{"type":"Polygon","coordinates":[[[94.6539,25.1155],[94.6111,25.1024],[94.5303,25.0338],[94.4539,25.0175],[94.3954,24.9862],[94.3326,24.9862],[94.2841,24.961],[94.2219,24.9417],[94.192,24.943],[94.1669,24.927],[94.1703,24.9342],[94.1716,24.9375],[94.1452,24.9986],[94.1452,24.9989],[94.1486,25.0351],[94.1175,25.0698],[94.1175,25.0701],[94.1222,25.0854],[94.132,25.1184],[94.1323,25.1187],[94.1493,25.1344],[94.1647,25.1331],[94.1606,25.1426],[94.1794,25.1677],[94.214,25.1752],[94.2213,25.1939],[94.2461,25.2037],[94.2527,25.2288],[94.2892,25.2419],[94.325,25.2794],[94.3354,25.3101],[94.3775,25.3571],[94.3794,25.4078],[94.3898,25.4202],[94.3832,25.4231],[94.3935,25.4234],[94.4111,25.4626],[94.4215,25.4662],[94.4137,25.4757],[94.4602,25.5495],[94.4674,25.5822],[94.4888,25.6047],[94.5206,25.6387],[94.5435,25.6501],[94.5731,25.6916],[94.5963,25.6821],[94.5803,25.669],[94.5863,25.6638],[94.5727,25.638],[94.5935,25.6357],[94.5837,25.6344],[94.5507,25.5795],[94.5643,25.5635],[94.5561,25.5547],[94.5668,25.5479],[94.5539,25.5025],[94.5768,25.4959],[94.6158,25.4623],[94.6752,25.4453],[94.6601,25.4055],[94.6347,25.3954],[94.6344,25.3558],[94.5853,25.2667],[94.5859,25.2291],[94.5756,25.2138],[94.6058,25.1814],[94.6199,25.1867],[94.64,25.1661],[94.6803,25.1488],[94.69,25.1576],[94.7145,25.138],[94.7362,25.1351],[94.7394,25.1165],[94.6539,25.1155]]]}},{"type":"Feature","properties":{"district":"Noney","district_hi":"नोनी"},"geometry":{"type":"Polygon","coordinates":[[[93.2162,24.6994],[93.2526,24.6589],[93.2791,24.6589],[93.2844,24.6658],[93.3036,24.6903],[93.3391,24.7125],[93.33,24.7262],[93.34,24.7507],[93.363,24.7585],[93.3718,24.8092],[93.3988,24.8065],[93.4073,24.8248],[93.4976,24.8232],[93.5435,24.8092],[93.5607,24.8111],[93.5765,24.8356],[93.6154,24.8127],[93.6346,24.8013],[93.6491,24.8003],[93.7563,24.7922],[93.7572,24.7922],[93.7575,24.7922],[93.7575,24.7918],[93.7491,24.7912],[93.7437,24.7647],[93.7264,24.7471],[93.7387,24.7043],[93.7239,24.6919],[93.7327,24.6638],[93.7082,24.6449],[93.7293,24.6243],[93.7368,24.625],[93.7343,24.6178],[93.7343,24.6175],[93.7226,24.621],[93.7148,24.6057],[93.6978,24.6132],[93.662,24.608],[93.6491,24.5926],[93.628,24.6067],[93.5956,24.5662],[93.568,24.593],[93.5394,24.5763],[93.5315,24.5567],[93.512,24.5659],[93.4897,24.5551],[93.4708,24.574],[93.4488,24.5407],[93.3982,24.575],[93.3963,24.5737],[93.3881,24.5681],[93.3878,24.5681],[93.3444,24.5783],[93.3334,24.5685],[93.2819,24.5678],[93.2809,24.5678],[93.2592,24.5263],[93.2643,24.512],[93.235,24.5149],[93.22,24.495],[93.1913,24.5244],[93.1813,24.5146],[93.1715,24.5192],[93.1772,24.5361],[93.1967,24.5636],[93.1904,24.5701],[93.1907,24.5701],[93.2055,24.5691],[93.2027,24.5861],[93.2171,24.5936],[93.2096,24.6272],[93.2218,24.639],[93.2077,24.6622],[93.208,24.6622],[93.2133,24.6671],[93.2187,24.6717],[93.2042,24.6746],[93.2089,24.6886],[93.2152,24.6971],[93.2162,24.6994]]]}},{"type":"Feature","properties":{"district":"Pherzawl","district_hi":"फेर्जावल"},"geometry":{"type":"Polygon","coordinates":[[[93.3881,24.5681],[93.3844,24.5283],[93.4086,24.511],[93.3922,24.4979],[93.3844,24.4653],[93.3614,24.4473],[93.3501,24.4006],[93.3655,24.3836],[93.4913,24.3657],[93.4784,24.2494],[93.3951,24.1851],[93.3775,24.0884],[93.3426,24.1031],[93.3542,24.091],[93.3309,24.0855],[93.3322,24.0538],[93.2866,24.0525],[93.2533,24.0211],[93.2633,24.0584],[93.2495,24.0802],[93.2203,24.0835],[93.2203,24.061],[93.2096,24.0482],[93.1674,24.0515],[93.1656,24.0737],[93.1407,24.0877],[93.1263,24.0623],[93.0992,24.043],[93.0977,24.0734],[93.0785,24.1018],[93.0467,24.09],[92.9911,24.1155],[92.9728,24.1129],[92.9905,24.1371],[92.9882,24.1491],[93.0062,24.1616],[92.9996,24.1968],[93.0143,24.1991],[93.0219,24.218],[93.0162,24.2246],[93.0238,24.2341],[93.0043,24.2576],[93.0121,24.271],[93.0068,24.2827],[93.0404,24.3421],[93.0175,24.35],[93.025,24.3915],[93.0087,24.4124],[93.0247,24.4071],[93.043,24.4169],[93.0326,24.429],[93.0464,24.4734],[93.0323,24.4953],[93.0502,24.5198],[93.0502,24.5443],[93.0706,24.558],[93.0587,24.5743],[93.0876,24.5724],[93.1228,24.5541],[93.1772,24.5361],[93.1715,24.5192],[93.1813,24.5146],[93.1913,24.5244],[93.22,24.495],[93.235,24.5149],[93.2643,24.512],[93.2592,24.5263],[93.2809,24.5678],[93.2819,24.5678],[93.3334,24.5685],[93.3444,24.5783],[93.3878,24.5681],[93.3881,24.5681]]]}}]}