{"type":"FeatureCollection","features":[{"type":"Feature","properties":{"district":"Ribhoi","district_hi":"री-भोई"},"geometry":{"type":"Polygon","coordinates":[[[92.1525,25.6714],[92.1521,25.6708],[92.1543,25.6451],[92.1495,25.6533],[92.1407,25.6441],[92.1376,25.6411],[92.1324,25.6411],[91.8342,25.6441],[91.8285,25.6738],[91.8175,25.7057],[91.8096,25.7298],[91.8083,25.7334],[91.7741,25.7419],[91.7692,25.7462],[91.7877,25.7907],[91.7495,25.8273],[91.7073,25.82],[91.6977,25.8049],[91.6595,25.8144],[91.6445,25.8042],[91.587,25.8121],[91.4584,25.7884],[91.4228,25.7933],[91.418,25.8032],[91.3666,25.8062],[91.3521,25.8171],[91.342,25.8316],[91.3359,25.8408],[91.3714,25.8464],[91.4224,25.8546],[91.4452,25.8398],[91.4632,25.8573],[91.5089,25.8668],[91.4746,25.8741],[91.4838,25.8932],[91.504,25.8912],[91.5049,25.908],[91.537,25.9314],[91.5031,25.9139],[91.5027,25.9268],[91.5198,25.9399],[91.5181,25.9597],[91.551,25.9768],[91.58,26.0332],[91.5975,26.018],[91.6309,26.022],[91.6261,25.9867],[91.6406,25.964],[91.6296,25.9432],[91.6116,25.9452],[91.6094,25.9376],[91.6516,25.9063],[91.6704,25.9044],[91.7135,25.9442],[91.7157,25.9492],[91.7209,25.962],[91.7222,25.966],[91.7227,25.9778],[91.7231,26.0348],[91.731,26.0589],[91.7771,26.0895],[91.7912,26.0852],[91.8254,26.1195],[91.8267,26.1188],[91.879,26.0981],[91.8671,26.0421],[91.883,26.0263],[91.9146,26.0207],[91.9097,26.0088],[91.9106,26.0078],[91.9194,25.9986],[91.9313,26.0124],[91.9835,26.0259],[91.9888,26.0388],[92.0516,26.0329],[92.0972,26.0493],[92.1324,26.0444],[92.1692,26.0777],[92.1727,26.0757],[92.1763,26.0734],[92.1842,26.0684],[92.2153,26.0665],[92.2628,26.0658],[92.2733,26.0658],[92.2645,26.0585],[92.2645,26.0579],[92.2632,26.0332],[92.1754,25.9775],[92.164,25.9703],[92.1525,25.9446],[92.1609,25.9281],[92.1543,25.9113],[92.1547,25.9113],[92.1754,25.9073],[92.1943,25.9185],[92.2022,25.9063],[92.2254,25.9093],[92.1771,25.8727],[92.1776,25.8517],[92.1512,25.8167],[92.1477,25.7729],[92.1618,25.7426],[92.1442,25.7172],[92.1442,25.7169],[92.1446,25.7166],[92.1552,25.6948],[92.1561,25.677],[92.1525,25.6714]]]}},{"type":"Feature","properties":{"district":"West Khasi Hills","district_hi":"पश्चिम खासी हिल्स"},"geometry":{"type":"Polygon","coordinates":[[[91.3359,25.8408],[91.342,25.8316],[91.3521,25.8171],[91.3666,25.8062],[91.418,25.8032],[91.4228,25.7933],[91.4584,25.7884],[91.587,25.8121],[91.6445,25.8042],[91.6595,25.8144],[91.6977,25.8049],[91.7073,25.82],[91.7495,25.8273],[91.7877,25.7907],[91.7692,25.7462],[91.7741,25.7419],[91.8083,25.7334],[91.8096,25.7298],[91.8175,25.7057],[91.8285,25.6738],[91.8267,25.6724],[91.8083,25.6589],[91.8,25.6095],[91.7811,25.5897],[91.7332,25.5752],[91.6889,25.5262],[91.67,25.5222],[91.6586,25.5281],[91.6538,25.5519],[91.5418,25.5113],[91.5492,25.482],[91.5466,25.4817],[91.5291,25.4794],[91.5172,25.4557],[91.4474,25.4573],[91.3907,25.4586],[91.3091,25.4445],[91.284,25.4122],[91.2682,25.4095],[91.2305,25.4622],[91.2226,25.4484],[91.209,25.4613],[91.1914,25.4613],[91.18,25.4481],[91.169,25.4662],[91.1062,25.4362],[91.1154,25.4135],[91.1378,25.3993],[91.0895,25.3581],[91.0983,25.3305],[91.0948,25.3278],[91.0856,25.3199],[91.05,25.3423],[91.0245,25.3387],[90.989,25.3792],[90.9859,25.3651],[90.971,25.3581],[90.9754,25.3397],[90.9236,25.3515],[90.8919,25.3291],[90.8669,25.3301],[90.8393,25.3077],[90.8388,25.3074],[90.8388,25.3077],[90.845,25.3459],[90.8384,25.3552],[90.8076,25.3684],[90.7765,25.3637],[90.7479,25.3796],[90.7637,25.4168],[90.7554,25.43],[90.7615,25.4448],[90.7514,25.451],[90.7598,25.4586],[90.7734,25.4514],[90.7896,25.4675],[90.7734,25.4688],[90.7896,25.4856],[90.7901,25.5067],[90.7611,25.5505],[90.762,25.5522],[90.7716,25.5776],[90.7817,25.5838],[90.7874,25.5693],[90.8002,25.5884],[90.8006,25.5884],[90.8133,25.5759],[90.8239,25.5901],[90.8744,25.6075],[90.9837,25.7429],[90.9416,25.7545],[90.9429,25.763],[90.9446,25.7723],[90.9574,25.7772],[90.9824,25.8022],[91.0013,25.825],[91.0022,25.825],[91.0074,25.8246],[91.0118,25.8243],[91.0469,25.8484],[91.0478,25.849],[91.0483,25.8493],[91.0786,25.853],[91.072,25.8388],[91.0487,25.8293],[91.0619,25.821],[91.1203,25.8329],[91.1475,25.8507],[91.18,25.8441],[91.1958,25.8615],[91.2037,25.8434],[91.1861,25.8184],[91.1782,25.7775],[91.1905,25.7479],[91.2226,25.7225],[91.2744,25.7505],[91.3354,25.8408],[91.3359,25.8408]]]}},{"type":"Feature","properties":{"district":"East Jaintia Hills","district_hi":"पूर्वी जयंतिया हिल्स"},"geometry":{"type":"Polygon","coordinates":[[[92.5692,25.4652],[92.5802,25.4721],[92.582,25.4718],[92.5824,25.4718],[92.5987,25.4662],[92.6066,25.4135],[92.6276,25.4221],[92.6254,25.4349],[92.6395,25.4178],[92.6535,25.4336],[92.6614,25.4066],[92.6733,25.4141],[92.7176,25.3726],[92.7378,25.3796],[92.7321,25.369],[92.7497,25.3443],[92.7818,25.3334],[92.7923,25.2827],[92.7686,25.2682],[92.7778,25.2583],[92.762,25.2468],[92.7717,25.23],[92.8015,25.2155],[92.776,25.1997],[92.7427,25.2066],[92.6939,25.1792],[92.6632,25.1766],[92.6557,25.1552],[92.6281,25.1381],[92.6215,25.115],[92.5223,25.1394],[92.5223,25.1391],[92.5223,25.1371],[92.5231,25.1262],[92.5394,25.0992],[92.481,25.1087],[92.4718,25.0672],[92.4568,25.0541],[92.4643,25.0376],[92.4423,25.0455],[92.4257,25.03],[92.3449,25.0504],[92.3335,25.0824],[92.2974,25.0722],[92.2092,25.1117],[92.2246,25.1186],[92.2,25.1252],[92.225,25.1634],[92.2347,25.2],[92.2193,25.225],[92.2052,25.2273],[92.1995,25.2919],[92.1714,25.3361],[92.1741,25.3539],[92.2685,25.396],[92.3734,25.4059],[92.4502,25.4217],[92.4924,25.4415],[92.535,25.4346],[92.5455,25.4583],[92.5468,25.458],[92.5666,25.4563],[92.567,25.4566],[92.5679,25.4573],[92.5692,25.4652]]]}},{"type":"Feature","properties":{"district":"East Khasi Hills","district_hi":"पूर्वी खासी हिल्स"},"geometry":{"type":"Polygon","coordinates":[[[91.8285,25.6738],[91.8342,25.6441],[92.1324,25.6411],[92.1332,25.6392],[92.1337,25.6392],[92.1381,25.6253],[92.1051,25.5624],[92.1139,25.5446],[92.095,25.4942],[92.1091,25.4711],[92.0946,25.451],[92.113,25.4105],[92.1016,25.3987],[92.1117,25.3799],[92.1108,25.3364],[92.1192,25.3315],[92.1113,25.3061],[92.045,25.3209],[91.9883,25.281],[91.9848,25.2458],[92.0213,25.202],[92.0199,25.1908],[92.0164,25.1891],[91.9831,25.1717],[91.9471,25.1832],[91.7468,25.1717],[91.7438,25.1486],[91.7047,25.1568],[91.6941,25.1404],[91.6419,25.1242],[91.6186,25.1466],[91.6011,25.147],[91.6028,25.1736],[91.493,25.1348],[91.4711,25.1361],[91.4667,25.1496],[91.4395,25.1522],[91.414,25.1723],[91.4039,25.1661],[91.3798,25.1769],[91.3543,25.2343],[91.3855,25.2395],[91.4026,25.2636],[91.4228,25.2619],[91.4382,25.2731],[91.479,25.2636],[91.4957,25.2834],[91.5326,25.2764],[91.5479,25.287],[91.5497,25.3301],[91.5242,25.3489],[91.5558,25.429],[91.5466,25.4817],[91.5492,25.482],[91.5418,25.5113],[91.6538,25.5519],[91.6586,25.5281],[91.67,25.5222],[91.6889,25.5262],[91.7332,25.5752],[91.7811,25.5897],[91.8,25.6095],[91.8083,25.6589],[91.8267,25.6724],[91.8285,25.6738]]]}},{"type":"Feature","properties":{"district":"South Garo Hills","district_hi":"दक्षिणी गारो हिल्स"},"geometry":{"type":"Polygon","coordinates":[[[90.762,25.5522],[90.7611,25.5505],[90.7901,25.5067],[90.7896,25.4856],[90.7734,25.4688],[90.7896,25.4675],[90.7734,25.4514],[90.7598,25.4586],[90.7514,25.451],[90.7615,25.4448],[90.7554,25.43],[90.7637,25.4168],[90.7479,25.3796],[90.7765,25.3637],[90.8076,25.3684],[90.8384,25.3552],[90.845,25.3459],[90.8388,25.3077],[90.8388,25.3074],[90.8393,25.3077],[90.841,25.3061],[90.8621,25.2946],[90.9016,25.2972],[90.9157,25.2771],[90.9315,25.2778],[90.9315,25.2781],[90.9328,25.2768],[90.9547,25.2511],[90.9587,25.2468],[90.9574,25.2418],[90.9499,25.2148],[90.9683,25.2013],[90.9697,25.1727],[90.8546,25.1598],[90.8195,25.1634],[90.78,25.1839],[90.7607,25.1651],[90.7413,25.1651],[90.7374,25.1535],[90.7207,25.1648],[90.6935,25.1598],[90.675,25.1674],[90.6553,25.1931],[90.6364,25.1733],[90.5104,25.1684],[90.4445,25.1437],[90.3773,25.1618],[90.3317,25.1918],[90.3049,25.1868],[90.2338,25.204],[90.2294,25.2353],[90.2474,25.2537],[90.2614,25.3212],[90.3088,25.3654],[90.3137,25.3845],[90.3036,25.4184],[90.3194,25.4642],[90.3203,25.4639],[90.3229,25.4622],[90.3694,25.4583],[90.4419,25.4606],[90.5187,25.4336],[90.6447,25.4161],[90.679,25.4817],[90.762,25.5522]]]}},{"type":"Feature","properties":{"district":"West Garo Hills","district_hi":"पश्चिम गारो हिल्स"},"geometry":{"type":"Polygon","coordinates":[[[90.3203,25.4639],[90.3194,25.4642],[90.3036,25.4184],[90.3137,25.3845],[90.3088,25.3654],[90.2614,25.3212],[90.2474,25.2537],[90.2294,25.2353],[90.2338,25.204],[90.1596,25.2234],[90.1126,25.2244],[90.0599,25.256],[89.9808,25.2853],[89.9747,25.2995],[89.9931,25.313],[89.994,25.3203],[90.012,25.3268],[90.0353,25.3443],[90.1516,25.3749],[90.1622,25.3884],[90.153,25.399],[90.171,25.5446],[90.1481,25.5449],[90.1416,25.5538],[90.1394,25.5377],[90.1389,25.5377],[90.1363,25.5377],[90.1297,25.5377],[90.1297,25.5387],[90.1301,25.5624],[90.1288,25.5624],[90.1134,25.5607],[90.0906,25.5881],[90.0199,25.6072],[90.0177,25.6079],[90.0041,25.627],[89.983,25.627],[89.9501,25.6563],[89.9492,25.6573],[89.9444,25.6794],[89.9141,25.711],[89.8992,25.7265],[89.8952,25.7433],[89.8948,25.7443],[89.8948,25.7449],[89.9145,25.7406],[89.9246,25.7387],[89.9361,25.7446],[89.9374,25.7452],[89.9352,25.7545],[89.9593,25.7802],[89.9484,25.8256],[89.9576,25.8293],[89.9541,25.8213],[89.962,25.8204],[89.9637,25.8332],[89.9712,25.8266],[90.0037,25.8395],[90.0155,25.8559],[90.0226,25.8658],[90.0226,25.8681],[90.0182,25.8724],[90.0085,25.8813],[90.0081,25.8816],[90.012,25.8849],[90.0204,25.8918],[90.0252,25.8958],[90.0423,25.8879],[90.0603,25.9136],[90.0862,25.9195],[90.0919,25.9383],[90.1055,25.9485],[90.117,25.9574],[90.1222,25.9587],[90.1512,25.9666],[90.1582,25.9574],[90.1767,25.9591],[90.1868,25.9442],[90.203,25.961],[90.2114,25.9528],[90.3246,25.9736],[90.3611,26.0078],[90.3624,26.0088],[90.3642,26.0088],[90.4037,26.0091],[90.4054,26.0091],[90.4081,26.0045],[90.4221,25.9917],[90.4318,25.9917],[90.434,25.9917],[90.434,25.9815],[90.4147,25.9228],[90.3826,25.8678],[90.3839,25.8411],[90.3427,25.8283],[90.3391,25.8049],[90.3918,25.7989],[90.4024,25.7617],[90.4024,25.7611],[90.4006,25.7587],[90.387,25.7433],[90.4063,25.7225],[90.4133,25.6576],[90.3918,25.6425],[90.398,25.6306],[90.3817,25.5868],[90.3896,25.5463],[90.3874,25.5423],[90.3826,25.5351],[90.3756,25.5235],[90.3497,25.5136],[90.3444,25.51],[90.3181,25.4738],[90.3203,25.4639]]]}},{"type":"Feature","properties":{"district":"East Garo Hills","district_hi":"पूर्वी गारो हिल्स"},"geometry":{"type":"Polygon","coordinates":[[[90.9416,25.7545],[90.9837,25.7429],[90.8744,25.6075],[90.8239,25.5901],[90.8133,25.5759],[90.8006,25.5884],[90.8002,25.5884],[90.7874,25.5693],[90.7817,25.5838],[90.7716,25.5776],[90.762,25.5522],[90.679,25.4817],[90.6447,25.4161],[90.5187,25.4336],[90.4419,25.4606],[90.3694,25.4583],[90.3229,25.4622],[90.3203,25.4639],[90.3181,25.4738],[90.3444,25.51],[90.3497,25.5136],[90.3756,25.5235],[90.3826,25.5351],[90.3874,25.5423],[90.3896,25.5463],[90.3817,25.5868],[90.398,25.6306],[90.3918,25.6425],[90.4133,25.6576],[90.4063,25.7225],[90.387,25.7433],[90.4006,25.7587],[90.434,25.7423],[90.4858,25.7169],[90.5003,25.7182],[90.5152,25.741],[90.5424,25.7818],[90.5692,25.7765],[90.5934,25.7436],[90.6241,25.7363],[90.6794,25.7831],[90.7488,25.8009],[90.7791,25.8148],[90.8164,25.8181],[90.8278,25.819],[90.8322,25.8197],[90.8906,25.7587],[90.931,25.7508],[90.9416,25.7545]]]}},{"type":"Feature","properties":{"district":"West Jaintia Hills","district_hi":"पश्चिम जयंतिया हिल्स"},"geometry":{"type":"Polygon","coordinates":[[[92.1324,25.6411],[92.1376,25.6411],[92.1407,25.6441],[92.1495,25.6533],[92.1543,25.6451],[92.1521,25.6708],[92.1525,25.6714],[92.1701,25.6672],[92.2246,25.7159],[92.2254,25.7159],[92.2342,25.7077],[92.2641,25.7093],[92.3111,25.7281],[92.3335,25.7242],[92.3844,25.7545],[92.3817,25.7423],[92.4063,25.7446],[92.4116,25.7301],[92.4309,25.7324],[92.4441,25.7199],[92.4406,25.6915],[92.4704,25.6754],[92.5056,25.6164],[92.5539,25.6148],[92.5565,25.571],[92.5763,25.5565],[92.5846,25.5505],[92.5903,25.5528],[92.6052,25.5588],[92.6219,25.5654],[92.6355,25.5789],[92.6513,25.5894],[92.6571,25.5825],[92.6614,25.5723],[92.6606,25.5716],[92.6592,25.5713],[92.6456,25.5561],[92.6426,25.5351],[92.5736,25.4906],[92.5644,25.4738],[92.5666,25.4636],[92.5692,25.4652],[92.5679,25.4573],[92.567,25.4566],[92.5666,25.4563],[92.5468,25.458],[92.5455,25.4583],[92.535,25.4346],[92.4924,25.4415],[92.4502,25.4217],[92.3734,25.4059],[92.2685,25.396],[92.1741,25.3539],[92.1714,25.3361],[92.1995,25.2919],[92.2052,25.2273],[92.2193,25.225],[92.2347,25.2],[92.225,25.1634],[92.2,25.1252],[92.1877,25.1361],[92.1899,25.1223],[92.1758,25.1232],[92.1354,25.1433],[92.1223,25.1661],[92.0814,25.1839],[92.016,25.1878],[92.0164,25.1891],[92.0199,25.1908],[92.0213,25.202],[91.9848,25.2458],[91.9883,25.281],[92.045,25.3209],[92.1113,25.3061],[92.1192,25.3315],[92.1108,25.3364],[92.1117,25.3799],[92.1016,25.3987],[92.113,25.4105],[92.0946,25.451],[92.1091,25.4711],[92.095,25.4942],[92.1139,25.5446],[92.1051,25.5624],[92.1381,25.6253],[92.1337,25.6392],[92.1332,25.6392],[92.1324,25.6411]]]}},{"type":"Feature","properties":{"district":"South West Khasi Hills","district_hi":"दक्षिण पश्चिम खासी हिल्स"},"geometry":{"type":"Polygon","coordinates":[[[90.8393,25.3077],[90.8669,25.3301],[90.8919,25.3291],[90.9236,25.3515],[90.9754,25.3397],[90.971,25.3581],[90.9859,25.3651],[90.989,25.3792],[91.0245,25.3387],[91.05,25.3423],[91.0856,25.3199],[91.0948,25.3278],[91.0983,25.3305],[91.0895,25.3581],[91.1378,25.3993],[91.1154,25.4135],[91.1062,25.4362],[91.169,25.4662],[91.18,25.4481],[91.1914,25.4613],[91.209,25.4613],[91.2226,25.4484],[91.2305,25.4622],[91.2682,25.4095],[91.284,25.4122],[91.3091,25.4445],[91.3907,25.4586],[91.4474,25.4573],[91.5172,25.4557],[91.5291,25.4794],[91.5466,25.4817],[91.5558,25.429],[91.5242,25.3489],[91.5497,25.3301],[91.5479,25.287],[91.5326,25.2764],[91.4957,25.2834],[91.479,25.2636],[91.4382,25.2731],[91.4228,25.2619],[91.4026,25.2636],[91.3855,25.2395],[91.3543,25.2343],[91.3833,25.1677],[91.2955,25.1852],[91.2647,25.2069],[91.252,25.1977],[91.1348,25.1931],[91.0816,25.202],[90.9697,25.1727],[90.9683,25.2013],[90.9499,25.2148],[90.9574,25.2418],[90.9587,25.2468],[90.9547,25.2511],[90.9328,25.2768],[90.9315,25.2781],[90.9315,25.2778],[90.9157,25.2771],[90.9016,25.2972],[90.8621,25.2946],[90.841,25.3061],[90.8393,25.3077]]]}},{"type":"Feature","properties":{"district":"North Garo Hills","district_hi":"उत्तरी गारो हिल्स"},"geometry":{"type":"Polygon","coordinates":[[[91.0074,25.8246],[91.0022,25.825],[91.0013,25.825],[90.9824,25.8022],[90.9574,25.7772],[90.9446,25.7723],[90.9429,25.763],[90.9416,25.7545],[90.931,25.7508],[90.8906,25.7587],[90.8322,25.8197],[90.8278,25.819],[90.8164,25.8181],[90.7791,25.8148],[90.7488,25.8009],[90.6794,25.7831],[90.6241,25.7363],[90.5934,25.7436],[90.5692,25.7765],[90.5424,25.7818],[90.5152,25.741],[90.5003,25.7182],[90.4858,25.7169],[90.434,25.7423],[90.4006,25.7587],[90.4024,25.7611],[90.4024,25.7617],[90.3918,25.7989],[90.3391,25.8049],[90.3427,25.8283],[90.3839,25.8411],[90.3826,25.8678],[90.4147,25.9228],[90.434,25.9815],[90.434,25.9917],[90.4761,26.0098],[90.535,25.9498],[90.5086,25.9017],[90.5135,25.8965],[90.549,25.9156],[90.5438,25.9238],[90.5767,25.937],[90.5877,25.9581],[90.6241,25.9393],[90.6061,25.9166],[90.6219,25.8978],[90.6311,25.9192],[90.6368,25.9222],[90.7172,25.9548],[90.7176,25.9551],[90.7242,25.9469],[90.7422,25.9544],[90.7405,25.9396],[90.7466,25.9281],[90.7514,25.9314],[90.7528,25.9304],[90.7506,25.9261],[90.7457,25.9179],[90.7422,25.9126],[90.7607,25.9218],[90.7567,25.911],[90.7725,25.9093],[90.7782,25.9086],[90.7795,25.911],[90.809,25.9525],[90.8362,25.9485],[90.8353,25.9367],[90.8441,25.9462],[90.881,25.9429],[90.8845,25.9505],[90.917,25.9142],[90.9174,25.9446],[90.9337,25.9399],[90.9473,25.9482],[90.9666,25.9142],[90.9688,25.8853],[91.0254,25.8859],[91.0263,25.8803],[91.0153,25.848],[91.0074,25.8246]]]}},{"type":"Feature","properties":{"district":"South West Garo Hills","district_hi":"दक्षिण पश्चिम गारो हिल्स"},"geometry":{"type":"Polygon","coordinates":[[[90.0199,25.6072],[90.0906,25.5881],[90.1134,25.5607],[90.1288,25.5624],[90.1301,25.5624],[90.1297,25.5387],[90.1297,25.5377],[90.1363,25.5377],[90.1389,25.5377],[90.1394,25.5377],[90.1416,25.5538],[90.1481,25.5449],[90.171,25.5446],[90.153,25.399],[90.1622,25.3884],[90.1516,25.3749],[90.0353,25.3443],[90.012,25.3268],[89.994,25.3203],[89.9931,25.313],[89.9747,25.2995],[89.908,25.3077],[89.8746,25.2873],[89.8351,25.2962],[89.8399,25.3186],[89.8201,25.3476],[89.8158,25.3888],[89.8421,25.4497],[89.8715,25.4774],[89.8728,25.5074],[89.886,25.508],[89.8834,25.5192],[89.868,25.5242],[89.8772,25.5492],[89.8777,25.5492],[89.9721,25.5736],[89.9826,25.5911],[89.983,25.5911],[90.0028,25.5855],[90.0199,25.6072]]]}}]}