{"type":"FeatureCollection","features":[{"type":"Feature","properties":{"district":"Aizawl","district_hi":"आइजोल"},"geometry":{"type":"Polygon","coordinates":[[[93.0446,23.4107],[93.0399,23.4147],[93.0362,23.4177],[93.0191,23.434],[92.9719,23.4776],[92.9476,23.5141],[92.9199,23.5226],[92.9136,23.5221],[92.8809,23.5187],[92.8523,23.4803],[92.8392,23.4276],[92.834,23.4166],[92.82,23.3861],[92.812,23.3679],[92.8312,23.3349],[92.8536,23.3226],[92.8275,23.2986],[92.8126,23.2728],[92.7912,23.2758],[92.7812,23.2995],[92.7657,23.3027],[92.7566,23.3047],[92.7362,23.3136],[92.7121,23.2979],[92.702,23.2969],[92.6916,23.3226],[92.6894,23.3281],[92.6897,23.329],[92.6894,23.3298],[92.6898,23.3388],[92.6904,23.3417],[92.6894,23.3439],[92.6901,23.3529],[92.6906,23.3548],[92.6884,23.3585],[92.6876,23.3631],[92.6847,23.3671],[92.6749,23.3685],[92.6787,23.3712],[92.679,23.3726],[92.6784,23.3788],[92.6727,23.3827],[92.6675,23.3908],[92.6696,23.4016],[92.6663,23.4118],[92.6593,23.4218],[92.6581,23.4315],[92.6586,23.4406],[92.658,23.4556],[92.6585,23.4667],[92.6578,23.4786],[92.6576,23.4892],[92.661,23.4973],[92.6593,23.5036],[92.6568,23.5084],[92.6545,23.518],[92.6466,23.5193],[92.6404,23.5217],[92.6351,23.5336],[92.638,23.5395],[92.6438,23.5412],[92.6449,23.5476],[92.6482,23.5532],[92.6567,23.5542],[92.6588,23.5597],[92.6604,23.5704],[92.654,23.5768],[92.6521,23.5845],[92.6518,23.5899],[92.6567,23.5934],[92.6643,23.595],[92.6719,23.6],[92.6749,23.6091],[92.6743,23.6145],[92.6752,23.6231],[92.6692,23.6265],[92.6584,23.6287],[92.6524,23.6303],[92.6524,23.6352],[92.6457,23.6395],[92.6407,23.6426],[92.6371,23.6474],[92.6371,23.6584],[92.6477,23.6679],[92.6525,23.677],[92.6564,23.682],[92.6607,23.6901],[92.6676,23.7073],[92.6635,23.7111],[92.6575,23.7114],[92.652,23.7141],[92.6485,23.7198],[92.6439,23.7282],[92.6417,23.7341],[92.6392,23.7387],[92.6377,23.7474],[92.6357,23.7584],[92.6296,23.7624],[92.6349,23.7677],[92.6404,23.772],[92.6424,23.7853],[92.6395,23.793],[92.63,23.7929],[92.6252,23.7964],[92.6295,23.8019],[92.6332,23.8079],[92.6381,23.8156],[92.6429,23.8118],[92.6511,23.8112],[92.6561,23.8184],[92.6462,23.8199],[92.6466,23.8276],[92.652,23.8307],[92.6613,23.832],[92.6624,23.8371],[92.6541,23.8478],[92.6511,23.854],[92.6476,23.8635],[92.6432,23.8723],[92.6431,23.8805],[92.6414,23.8858],[92.6413,23.892],[92.6455,23.8961],[92.6593,23.9013],[92.663,23.9084],[92.6579,23.9199],[92.6464,23.9222],[92.6447,23.9295],[92.6368,23.9317],[92.623,23.9351],[92.6252,23.9412],[92.6302,23.9449],[92.6275,23.9537],[92.6274,23.9538],[92.6275,23.9537],[92.6317,23.9556],[92.6353,23.9562],[92.6353,23.9563],[92.6357,23.9567],[92.6412,23.9632],[92.6435,23.9645],[92.6436,23.9645],[92.6447,23.9642],[92.6461,23.96],[92.6479,23.9579],[92.6509,23.9566],[92.6553,23.9557],[92.6589,23.9568],[92.659,23.9568],[92.6592,23.9571],[92.6641,23.9614],[92.6658,23.9633],[92.6658,23.9634],[92.667,23.9679],[92.6687,23.9696],[92.6708,23.9703],[92.6709,23.9703],[92.6745,23.9701],[92.6787,23.9682],[92.6807,23.9672],[92.6839,23.9668],[92.6856,23.9706],[92.6873,23.9746],[92.6889,23.98],[92.6889,23.9801],[92.689,23.9825],[92.6915,23.9823],[92.6923,23.9813],[92.6924,23.9814],[92.6926,23.9815],[92.6949,23.9825],[92.6967,23.982],[92.6974,23.9818],[92.6988,23.9821],[92.6997,23.9812],[92.7038,23.9822],[92.7039,23.9822],[92.7049,23.9815],[92.7091,23.9782],[92.7094,23.9782],[92.7135,23.9797],[92.7166,23.9798],[92.7166,23.9797],[92.7201,23.9754],[92.7237,23.975],[92.7398,23.9789],[92.7449,23.9824],[92.7461,23.9842],[92.7462,23.9876],[92.7445,23.9886],[92.7444,23.9923],[92.7456,23.993],[92.7479,23.9928],[92.755,23.9893],[92.7573,23.9897],[92.7587,23.9909],[92.7591,23.9923],[92.7593,23.9929],[92.7587,23.9985],[92.7587,23.9986],[92.7593,24.0003],[92.7637,24.0044],[92.7715,24.0118],[92.779,24.0157],[92.7836,24.0174],[92.785,24.0179],[92.7906,24.0187],[92.8012,24.0178],[92.8058,24.0183],[92.8061,24.0183],[92.8104,24.0202],[92.8119,24.0219],[92.8132,24.0221],[92.8175,24.0227],[92.8213,24.0214],[92.8228,24.0209],[92.8281,24.0167],[92.8298,24.0137],[92.8321,24.0126],[92.8327,24.0139],[92.8317,24.0186],[92.8318,24.0187],[92.8327,24.0204],[92.8361,24.0219],[92.8361,24.0218],[92.8389,24.0152],[92.8409,24.0139],[92.8413,24.0153],[92.8438,24.0246],[92.8473,24.0267],[92.8474,24.0268],[92.8473,24.0269],[92.8453,24.0341],[92.848,24.0336],[92.8493,24.034],[92.8502,24.0359],[92.8502,24.0387],[92.8502,24.0446],[92.8479,24.0454],[92.8476,24.0468],[92.8476,24.0469],[92.8491,24.0503],[92.8491,24.0504],[92.8484,24.0531],[92.8479,24.0551],[92.8497,24.0598],[92.8486,24.0626],[92.8487,24.0626],[92.8506,24.065],[92.8513,24.0654],[92.8514,24.0654],[92.8522,24.0703],[92.8566,24.0713],[92.8566,24.0714],[92.8568,24.075],[92.8569,24.0756],[92.8571,24.0793],[92.8588,24.0845],[92.8598,24.0874],[92.8598,24.0875],[92.8565,24.0939],[92.8566,24.094],[92.857,24.0948],[92.8588,24.0954],[92.8584,24.0992],[92.8584,24.0991],[92.8601,24.0986],[92.8605,24.0996],[92.8607,24.102],[92.8608,24.1039],[92.861,24.1053],[92.8618,24.1062],[92.866,24.1073],[92.8692,24.1098],[92.8702,24.1107],[92.8707,24.1162],[92.8696,24.1198],[92.8696,24.1199],[92.8696,24.12],[92.8719,24.1221],[92.8742,24.1243],[92.8742,24.1244],[92.876,24.1273],[92.8789,24.1287],[92.8789,24.1288],[92.8788,24.129],[92.8746,24.1351],[92.8746,24.1389],[92.8748,24.139],[92.8768,24.1435],[92.8796,24.147],[92.8841,24.15],[92.8842,24.1502],[92.8859,24.153],[92.8863,24.1554],[92.8848,24.1578],[92.8849,24.1578],[92.8854,24.1589],[92.8877,24.16],[92.8877,24.1601],[92.8886,24.1652],[92.8882,24.1673],[92.8871,24.1672],[92.8857,24.1671],[92.8853,24.1681],[92.8854,24.1681],[92.887,24.1683],[92.8874,24.1685],[92.8919,24.1709],[92.8944,24.1714],[92.8947,24.1724],[92.8949,24.1732],[92.8947,24.1837],[92.8959,24.1879],[92.8965,24.1901],[92.8949,24.199],[92.895,24.199],[92.8975,24.1992],[92.8974,24.1994],[92.8964,24.2022],[92.8999,24.2034],[92.9,24.2034],[92.9005,24.2044],[92.9005,24.2045],[92.9005,24.2046],[92.9003,24.2064],[92.8996,24.207],[92.8994,24.2071],[92.8995,24.2072],[92.8995,24.2073],[92.9009,24.2093],[92.9008,24.2094],[92.9006,24.2103],[92.8985,24.2101],[92.8982,24.2101],[92.8982,24.2103],[92.8984,24.2105],[92.8995,24.2127],[92.9014,24.2164],[92.9017,24.2178],[92.9025,24.2212],[92.9026,24.2215],[92.9017,24.2311],[92.9015,24.2314],[92.8992,24.2357],[92.8962,24.2372],[92.8961,24.2374],[92.8932,24.242],[92.8909,24.242],[92.8908,24.242],[92.8876,24.2356],[92.8837,24.2323],[92.881,24.2332],[92.879,24.2369],[92.8789,24.237],[92.8763,24.2398],[92.8754,24.2406],[92.8659,24.2409],[92.8634,24.2412],[92.863,24.2424],[92.8631,24.2424],[92.8631,24.2425],[92.8646,24.244],[92.8646,24.2441],[92.8632,24.2484],[92.8633,24.2484],[92.8674,24.2502],[92.8674,24.2503],[92.8653,24.2536],[92.8653,24.2537],[92.8659,24.2569],[92.864,24.257],[92.8624,24.2571],[92.862,24.2577],[92.862,24.2578],[92.8629,24.2598],[92.8629,24.2599],[92.8674,24.2613],[92.8673,24.2614],[92.8643,24.2645],[92.8643,24.2646],[92.8643,24.2691],[92.8669,24.2723],[92.867,24.2726],[92.8698,24.276],[92.8711,24.2764],[92.8726,24.2767],[92.8745,24.2759],[92.8765,24.2764],[92.8764,24.2775],[92.8764,24.2776],[92.8751,24.2796],[92.8736,24.2818],[92.8736,24.2819],[92.8736,24.282],[92.8759,24.286],[92.8758,24.286],[92.8731,24.2893],[92.8727,24.291],[92.872,24.2951],[92.8719,24.2951],[92.8707,24.2979],[92.8672,24.2993],[92.867,24.2993],[92.867,24.2995],[92.8647,24.3075],[92.8632,24.3079],[92.8619,24.3073],[92.8595,24.3062],[92.8575,24.3078],[92.8576,24.3079],[92.8611,24.3138],[92.864,24.3153],[92.8644,24.3155],[92.8692,24.3167],[92.8699,24.3201],[92.8667,24.3199],[92.8651,24.3231],[92.8628,24.3241],[92.8629,24.3242],[92.8642,24.3273],[92.8655,24.3256],[92.8657,24.3256],[92.8673,24.326],[92.8707,24.3287],[92.8742,24.3298],[92.8775,24.3331],[92.8792,24.337],[92.8813,24.3405],[92.888,24.3509],[92.8936,24.3554],[92.8935,24.3554],[92.8904,24.3565],[92.8886,24.3608],[92.8868,24.3628],[92.8868,24.3629],[92.8895,24.3649],[92.8894,24.365],[92.8888,24.3678],[92.8924,24.3678],[92.8927,24.3678],[92.8936,24.3689],[92.8949,24.3772],[92.8933,24.3787],[92.8884,24.3792],[92.8873,24.3803],[92.8871,24.3804],[92.8914,24.3869],[92.8921,24.3905],[92.8941,24.3869],[92.8954,24.3866],[92.8964,24.3871],[92.8969,24.3883],[92.8971,24.3888],[92.8971,24.3889],[92.8971,24.389],[92.8964,24.3903],[92.8956,24.3913],[92.9002,24.3905],[92.9014,24.3907],[92.9044,24.3915],[92.9051,24.3924],[92.905,24.3961],[92.9085,24.4002],[92.9108,24.4099],[92.9227,24.4027],[92.9218,24.4011],[92.9229,24.3996],[92.9246,24.3992],[92.9269,24.3956],[92.935,24.3926],[92.937,24.3937],[92.9377,24.396],[92.9398,24.398],[92.9433,24.3988],[92.9489,24.4011],[92.9505,24.4018],[92.9513,24.4017],[92.9531,24.4015],[92.9532,24.4015],[92.9539,24.4008],[92.9569,24.3958],[92.9573,24.3949],[92.9577,24.3946],[92.9595,24.3928],[92.97,24.3982],[92.9748,24.4047],[92.9794,24.4066],[92.9846,24.4044],[92.9875,24.4045],[92.9911,24.4024],[92.9945,24.3988],[92.9972,24.3984],[92.9996,24.4001],[93.0234,24.3873],[93.0162,24.3768],[93.0212,24.371],[93.0192,24.3628],[93.0184,24.3556],[93.0206,24.3436],[93.0308,24.3413],[93.0424,24.3401],[93.0342,24.3152],[93.023,24.2975],[93.0172,24.29],[93.0101,24.2849],[93.0072,24.2773],[93.013,24.2685],[93.0058,24.2596],[93.0057,24.2508],[93.017,24.2332],[93.0256,24.2295],[93.0184,24.2257],[93.0184,24.2219],[93.0226,24.2144],[93.0212,24.2069],[93.0169,24.2044],[93.0155,24.1968],[93.0113,24.1943],[93.002,24.1943],[93.002,24.1911],[93.0098,24.179],[93.0022,24.1709],[93.0043,24.1574],[92.9996,24.1536],[92.992,24.1501],[92.99,24.1472],[92.9898,24.1437],[92.9918,24.1372],[92.985,24.1258],[92.9765,24.1233],[92.9725,24.1208],[92.9737,24.1139],[92.9753,24.1118],[92.9837,24.1118],[92.9882,24.1132],[92.9996,24.1121],[93.0085,24.1068],[93.013,24.1014],[93.0203,24.0982],[93.0262,24.1005],[93.0291,24.0977],[93.0335,24.096],[93.0365,24.092],[93.0525,24.0875],[93.064,24.091],[93.0725,24.0972],[93.0783,24.0996],[93.084,24.087],[93.0882,24.0807],[93.094,24.077],[93.1011,24.0706],[93.0996,24.0631],[93.101,24.0593],[93.0996,24.0531],[93.1025,24.0493],[93.0982,24.0455],[93.0996,24.0417],[93.1096,24.0468],[93.111,24.0518],[93.1181,24.0531],[93.1195,24.0569],[93.128,24.0607],[93.1338,24.0695],[93.1338,24.0758],[93.1409,24.0833],[93.1465,24.0846],[93.1571,24.0804],[93.1599,24.0741],[93.1685,24.0678],[93.1656,24.0577],[93.1684,24.0514],[93.1741,24.0502],[93.1926,24.0528],[93.1968,24.049],[93.2072,24.0476],[93.1947,24.0141],[93.1715,23.94],[93.1891,23.9072],[93.1614,23.8826],[93.1651,23.84],[93.1498,23.8104],[93.1251,23.7985],[93.0752,23.7743],[93.0444,23.7656],[93.045,23.7075],[93.0455,23.6696],[93.0456,23.6666],[93.0458,23.6534],[93.0569,23.5556],[93.0449,23.4757],[93.0595,23.4164],[93.0446,23.4107]]]}},{"type":"Feature","properties":{"district":"Champhai","district_hi":"चम्पाई"},"geometry":{"type":"MultiPolygon","coordinates":[[[[93.0456,23.6666],[93.0455,23.6696],[93.045,23.7075],[93.0444,23.7656],[93.0752,23.7743],[93.1251,23.7985],[93.1498,23.8104],[93.1651,23.84],[93.1614,23.8826],[93.1891,23.9072],[93.1715,23.94],[93.1947,24.0141],[93.2072,24.0476],[93.2153,24.0465],[93.2195,24.0578],[93.221,24.064],[93.2238,24.0703],[93.221,24.0779],[93.2253,24.0829],[93.2352,24.0804],[93.2409,24.0829],[93.2465,24.0817],[93.2622,24.0691],[93.2622,24.064],[93.2651,24.0565],[93.2608,24.054],[93.2509,24.0302],[93.2537,24.0201],[93.2724,24.0302],[93.2753,24.0364],[93.2838,24.0428],[93.2867,24.0478],[93.2967,24.0478],[93.311,24.0503],[93.3358,24.0495],[93.3406,24.0407],[93.3344,24.0387],[93.336,24.0303],[93.3405,24.0268],[93.3353,24.02],[93.3386,24.0086],[93.3376,23.9984],[93.3373,23.992],[93.3327,23.9831],[93.3358,23.9789],[93.3457,23.9768],[93.3499,23.974],[93.3514,23.9681],[93.3542,23.9573],[93.3581,23.9507],[93.3632,23.9421],[93.3693,23.9366],[93.374,23.9338],[93.3795,23.9322],[93.3892,23.93],[93.3969,23.9262],[93.3978,23.9204],[93.3974,23.915],[93.3958,23.9089],[93.3949,23.8947],[93.3938,23.8833],[93.3936,23.8727],[93.3946,23.8669],[93.395,23.8598],[93.3947,23.8545],[93.3949,23.8467],[93.3952,23.8369],[93.3982,23.8313],[93.3973,23.8202],[93.3995,23.8154],[93.405,23.8131],[93.4091,23.8037],[93.4081,23.7948],[93.4057,23.7862],[93.4025,23.7711],[93.4023,23.765],[93.4033,23.7575],[93.4052,23.7516],[93.4086,23.7446],[93.4125,23.7394],[93.4134,23.7344],[93.4157,23.7285],[93.4139,23.7228],[93.4135,23.714],[93.4149,23.7081],[93.4213,23.6999],[93.4276,23.6966],[93.4345,23.6921],[93.4393,23.6842],[93.4426,23.6783],[93.4389,23.6741],[93.4341,23.6677],[93.4314,23.6631],[93.4283,23.6562],[93.4262,23.6495],[93.4265,23.6411],[93.4306,23.6147],[93.4313,23.591],[93.4326,23.5848],[93.4309,23.5784],[93.425,23.5676],[93.4219,23.5575],[93.4251,23.5489],[93.4259,23.5412],[93.4256,23.5342],[93.4234,23.5272],[93.4198,23.5231],[93.414,23.5165],[93.409,23.5092],[93.4054,23.5045],[93.4054,23.5034],[93.391,23.4968],[93.3694,23.4935],[93.3554,23.4894],[93.337,23.4783],[93.3268,23.4692],[93.3139,23.4645],[93.2984,23.4675],[93.2918,23.4723],[93.2747,23.4847],[93.2682,23.4794],[93.2688,23.4699],[93.2692,23.4647],[93.2674,23.4497],[93.2607,23.4485],[93.2607,23.4495],[93.2607,23.4558],[93.2604,23.4603],[93.2597,23.4694],[93.2585,23.4706],[93.2563,23.4726],[93.2546,23.4742],[93.2538,23.4749],[93.2569,23.4813],[93.2581,23.4839],[93.2601,23.4863],[93.2615,23.4881],[93.2664,23.4943],[93.2693,23.4988],[93.2707,23.501],[93.2714,23.502],[93.2735,23.5053],[93.2739,23.5084],[93.274,23.5094],[93.2742,23.5109],[93.2747,23.5152],[93.2743,23.518],[93.2741,23.5194],[93.2736,23.5237],[93.2777,23.5315],[93.2792,23.5372],[93.2801,23.5409],[93.2765,23.5524],[93.2744,23.555],[93.2602,23.572],[93.2621,23.5793],[93.2663,23.5854],[93.2685,23.5884],[93.2707,23.5914],[93.2684,23.5976],[93.2672,23.6014],[93.2722,23.6117],[93.2748,23.6239],[93.277,23.6394],[93.2786,23.6583],[93.2753,23.6741],[93.2709,23.6913],[93.2665,23.7043],[93.2634,23.7134],[93.2598,23.7293],[93.2513,23.7393],[93.2428,23.7359],[93.228,23.729],[93.205,23.7275],[93.1967,23.7348],[93.1965,23.7479],[93.1886,23.7649],[93.1742,23.7711],[93.1608,23.7652],[93.1573,23.7445],[93.1593,23.7171],[93.1641,23.7089],[93.1683,23.7017],[93.1706,23.68],[93.1635,23.6632],[93.1626,23.6613],[93.1544,23.6587],[93.1458,23.656],[93.1447,23.6551],[93.1382,23.6496],[93.1323,23.6445],[93.1168,23.6434],[93.1086,23.6428],[93.1084,23.6428],[93.0965,23.6486],[93.0871,23.6532],[93.0772,23.6713],[93.0674,23.6665],[93.0644,23.665],[93.0636,23.6649],[93.0605,23.6655],[93.0563,23.6662],[93.0511,23.6667],[93.0467,23.6669],[93.0456,23.6666]]],[[[93.1966,23.0553],[93.1957,23.0649],[93.1934,23.0757],[93.1887,23.0981],[93.1836,23.1211],[93.1654,23.1791],[93.1308,23.1946],[93.0784,23.2066],[93.0506,23.2132],[93.038,23.2445],[93.0262,23.2495],[93.0128,23.262],[93.0148,23.2738],[93.0412,23.3079],[93.0429,23.3079],[93.0443,23.3084],[93.0477,23.3093],[93.0567,23.3134],[93.0791,23.313],[93.0813,23.3129],[93.0858,23.3129],[93.0942,23.313],[93.0982,23.3143],[93.0998,23.3148],[93.105,23.318],[93.111,23.3214],[93.1202,23.3224],[93.1326,23.3232],[93.1337,23.3238],[93.1398,23.3272],[93.1449,23.3327],[93.1552,23.3412],[93.1695,23.3452],[93.1923,23.3437],[93.2017,23.3406],[93.2051,23.3388],[93.207,23.3389],[93.2082,23.3389],[93.2083,23.3403],[93.2087,23.3421],[93.209,23.3436],[93.2093,23.3451],[93.2099,23.3469],[93.2099,23.3476],[93.2127,23.3489],[93.2133,23.3486],[93.214,23.3483],[93.2145,23.3484],[93.2154,23.3492],[93.216,23.3501],[93.2162,23.3505],[93.2209,23.3561],[93.2216,23.3561],[93.2219,23.3567],[93.2218,23.3572],[93.2218,23.3574],[93.2217,23.3581],[93.2211,23.3589],[93.2208,23.3595],[93.22,23.36],[93.2152,23.3675],[93.2154,23.3683],[93.2165,23.3687],[93.218,23.3689],[93.2184,23.3695],[93.2183,23.3702],[93.218,23.3709],[93.2171,23.3715],[93.2164,23.3722],[93.2163,23.3728],[93.2164,23.3731],[93.2173,23.3737],[93.2175,23.3738],[93.2183,23.3741],[93.2183,23.3743],[93.2234,23.3773],[93.2256,23.3773],[93.2266,23.3773],[93.2268,23.3782],[93.2268,23.3785],[93.2273,23.3787],[93.2282,23.3797],[93.2281,23.3808],[93.2261,23.3832],[93.226,23.3835],[93.2269,23.3856],[93.2277,23.3854],[93.2284,23.3851],[93.2288,23.3847],[93.2289,23.3835],[93.2295,23.3836],[93.23,23.3842],[93.23,23.3848],[93.2297,23.3855],[93.2294,23.3862],[93.2367,23.3879],[93.2374,23.3877],[93.2379,23.3881],[93.2402,23.3874],[93.2403,23.3869],[93.2414,23.3862],[93.2426,23.3865],[93.2427,23.3865],[93.244,23.3861],[93.2441,23.386],[93.2444,23.3856],[93.2452,23.3849],[93.2462,23.3846],[93.2465,23.3853],[93.2546,23.3891],[93.2554,23.3893],[93.2566,23.389],[93.2575,23.3883],[93.2579,23.3878],[93.2593,23.3875],[93.2599,23.3881],[93.2596,23.3887],[93.2588,23.3894],[93.258,23.3898],[93.258,23.39],[93.261,23.3908],[93.2611,23.3908],[93.2617,23.3903],[93.2622,23.3894],[93.2629,23.389],[93.2637,23.3895],[93.2641,23.3903],[93.2646,23.3918],[93.2665,23.3881],[93.2664,23.3845],[93.2691,23.3768],[93.2693,23.3756],[93.2706,23.3688],[93.2705,23.3628],[93.275,23.3531],[93.276,23.351],[93.2779,23.3417],[93.2797,23.3386],[93.2818,23.3356],[93.2829,23.335],[93.285,23.3338],[93.2898,23.3331],[93.2914,23.3332],[93.2972,23.3334],[93.3,23.3361],[93.314,23.3479],[93.3287,23.3517],[93.3364,23.3461],[93.3365,23.3459],[93.3369,23.3456],[93.3455,23.3393],[93.3473,23.3363],[93.3519,23.3318],[93.356,23.3304],[93.3575,23.3304],[93.3769,23.3293],[93.3771,23.3288],[93.3753,23.3229],[93.3744,23.3156],[93.3747,23.3089],[93.3753,23.3027],[93.3775,23.2973],[93.3789,23.2897],[93.3759,23.2829],[93.3731,23.2788],[93.3727,23.2707],[93.375,23.2603],[93.376,23.2522],[93.3809,23.2409],[93.3861,23.2311],[93.3923,23.2203],[93.3924,23.2156],[93.385,23.2073],[93.3842,23.1981],[93.3829,23.1841],[93.3791,23.171],[93.3782,23.1631],[93.3736,23.1551],[93.3715,23.1465],[93.3767,23.1397],[93.3882,23.144],[93.392,23.1405],[93.3912,23.1347],[93.3795,23.1237],[93.3736,23.1201],[93.3666,23.1167],[93.3626,23.1129],[93.3616,23.1024],[93.3607,23.0963],[93.3596,23.0916],[93.3549,23.0872],[93.35,23.0809],[93.3487,23.0765],[93.3558,23.0741],[93.3549,23.069],[93.3505,23.061],[93.3427,23.061],[93.3382,23.0515],[93.3343,23.0399],[93.3302,23.0319],[93.3271,23.0279],[93.3216,23.0212],[93.3188,23.0182],[93.3125,23.0185],[93.3037,23.01],[93.2995,23.0047],[93.2953,23.0022],[93.2858,23.001],[93.2762,23.0021],[93.2715,23.0067],[93.2657,23.0088],[93.2567,23.0052],[93.2508,23.003],[93.2454,23.0061],[93.2388,23.0106],[93.2355,23.0141],[93.2318,23.0184],[93.2294,23.0237],[93.2259,23.0294],[93.2179,23.0417],[93.2117,23.0459],[93.2039,23.0534],[93.1989,23.0544],[93.1966,23.0553]]]]}},{"type":"Feature","properties":{"district":"Kolasib","district_hi":"कोलासिब"},"geometry":{"type":"Polygon","coordinates":[[[92.8956,24.3913],[92.8964,24.3903],[92.8971,24.389],[92.8971,24.3889],[92.8971,24.3888],[92.8969,24.3883],[92.8964,24.3871],[92.8954,24.3866],[92.8941,24.3869],[92.8921,24.3905],[92.8914,24.3869],[92.8871,24.3804],[92.8873,24.3803],[92.8884,24.3792],[92.8933,24.3787],[92.8949,24.3772],[92.8936,24.3689],[92.8927,24.3678],[92.8924,24.3678],[92.8888,24.3678],[92.8894,24.365],[92.8895,24.3649],[92.8868,24.3629],[92.8868,24.3628],[92.8886,24.3608],[92.8904,24.3565],[92.8935,24.3554],[92.8936,24.3554],[92.888,24.3509],[92.8813,24.3405],[92.8792,24.337],[92.8775,24.3331],[92.8742,24.3298],[92.8707,24.3287],[92.8673,24.326],[92.8657,24.3256],[92.8655,24.3256],[92.8642,24.3273],[92.8629,24.3242],[92.8628,24.3241],[92.8651,24.3231],[92.8667,24.3199],[92.8699,24.3201],[92.8692,24.3167],[92.8644,24.3155],[92.864,24.3153],[92.8611,24.3138],[92.8576,24.3079],[92.8575,24.3078],[92.8595,24.3062],[92.8619,24.3073],[92.8632,24.3079],[92.8647,24.3075],[92.867,24.2995],[92.867,24.2993],[92.8672,24.2993],[92.8707,24.2979],[92.8719,24.2951],[92.872,24.2951],[92.8727,24.291],[92.8731,24.2893],[92.8758,24.286],[92.8759,24.286],[92.8736,24.282],[92.8736,24.2819],[92.8736,24.2818],[92.8751,24.2796],[92.8764,24.2776],[92.8764,24.2775],[92.8765,24.2764],[92.8745,24.2759],[92.8726,24.2767],[92.8711,24.2764],[92.8698,24.276],[92.867,24.2726],[92.8669,24.2723],[92.8643,24.2691],[92.8643,24.2646],[92.8643,24.2645],[92.8673,24.2614],[92.8674,24.2613],[92.8629,24.2599],[92.8629,24.2598],[92.862,24.2578],[92.862,24.2577],[92.8624,24.2571],[92.864,24.257],[92.8659,24.2569],[92.8653,24.2537],[92.8653,24.2536],[92.8674,24.2503],[92.8674,24.2502],[92.8633,24.2484],[92.8632,24.2484],[92.8646,24.2441],[92.8646,24.244],[92.8631,24.2425],[92.8631,24.2424],[92.863,24.2424],[92.8634,24.2412],[92.8659,24.2409],[92.8754,24.2406],[92.8763,24.2398],[92.8789,24.237],[92.879,24.2369],[92.881,24.2332],[92.8837,24.2323],[92.8876,24.2356],[92.8908,24.242],[92.8909,24.242],[92.8932,24.242],[92.8961,24.2374],[92.8962,24.2372],[92.8992,24.2357],[92.9015,24.2314],[92.9017,24.2311],[92.9026,24.2215],[92.9025,24.2212],[92.9017,24.2178],[92.9014,24.2164],[92.8995,24.2127],[92.8984,24.2105],[92.8982,24.2103],[92.8982,24.2101],[92.8985,24.2101],[92.9006,24.2103],[92.9008,24.2094],[92.9009,24.2093],[92.8995,24.2073],[92.8995,24.2072],[92.8994,24.2071],[92.8996,24.207],[92.9003,24.2064],[92.9005,24.2046],[92.9005,24.2045],[92.9005,24.2044],[92.9,24.2034],[92.8999,24.2034],[92.8964,24.2022],[92.8974,24.1994],[92.8975,24.1992],[92.895,24.199],[92.8949,24.199],[92.8965,24.1901],[92.8959,24.1879],[92.8947,24.1837],[92.8949,24.1732],[92.8947,24.1724],[92.8944,24.1714],[92.8919,24.1709],[92.8874,24.1685],[92.887,24.1683],[92.8854,24.1681],[92.8853,24.1681],[92.8857,24.1671],[92.8871,24.1672],[92.8882,24.1673],[92.8886,24.1652],[92.8877,24.1601],[92.8877,24.16],[92.8854,24.1589],[92.8849,24.1578],[92.8848,24.1578],[92.8863,24.1554],[92.8859,24.153],[92.8842,24.1502],[92.8841,24.15],[92.8796,24.147],[92.8768,24.1435],[92.8748,24.139],[92.8746,24.1389],[92.8746,24.1351],[92.8788,24.129],[92.8789,24.1288],[92.8789,24.1287],[92.876,24.1273],[92.8742,24.1244],[92.8742,24.1243],[92.8719,24.1221],[92.8696,24.12],[92.8696,24.1199],[92.8696,24.1198],[92.8707,24.1162],[92.8702,24.1107],[92.8692,24.1098],[92.866,24.1073],[92.8618,24.1062],[92.861,24.1053],[92.8608,24.1039],[92.8607,24.102],[92.8605,24.0996],[92.8601,24.0986],[92.8584,24.0991],[92.8584,24.0992],[92.8588,24.0954],[92.857,24.0948],[92.8566,24.094],[92.8565,24.0939],[92.8598,24.0875],[92.8598,24.0874],[92.8588,24.0845],[92.8571,24.0793],[92.8569,24.0756],[92.8568,24.075],[92.8566,24.0714],[92.8566,24.0713],[92.8522,24.0703],[92.8514,24.0654],[92.8513,24.0654],[92.8506,24.065],[92.8487,24.0626],[92.8486,24.0626],[92.8497,24.0598],[92.8479,24.0551],[92.8484,24.0531],[92.8491,24.0504],[92.8491,24.0503],[92.8476,24.0469],[92.8476,24.0468],[92.8479,24.0454],[92.8502,24.0446],[92.8502,24.0387],[92.8502,24.0359],[92.8493,24.034],[92.848,24.0336],[92.8453,24.0341],[92.8473,24.0269],[92.8474,24.0268],[92.8473,24.0267],[92.8438,24.0246],[92.8413,24.0153],[92.8409,24.0139],[92.8389,24.0152],[92.8361,24.0218],[92.8361,24.0219],[92.8327,24.0204],[92.8318,24.0187],[92.8317,24.0186],[92.8327,24.0139],[92.8321,24.0126],[92.8298,24.0137],[92.8281,24.0167],[92.8228,24.0209],[92.8213,24.0214],[92.8175,24.0227],[92.8132,24.0221],[92.8119,24.0219],[92.8104,24.0202],[92.8061,24.0183],[92.8058,24.0183],[92.8012,24.0178],[92.7906,24.0187],[92.785,24.0179],[92.7836,24.0174],[92.779,24.0157],[92.7715,24.0118],[92.7637,24.0044],[92.7593,24.0003],[92.7587,23.9986],[92.7587,23.9985],[92.7593,23.9929],[92.7591,23.9923],[92.7587,23.9909],[92.7573,23.9897],[92.755,23.9893],[92.7479,23.9928],[92.7456,23.993],[92.7444,23.9923],[92.7445,23.9886],[92.7462,23.9876],[92.7461,23.9842],[92.7449,23.9824],[92.7398,23.9789],[92.7237,23.975],[92.7201,23.9754],[92.7166,23.9797],[92.7166,23.9798],[92.7135,23.9797],[92.7094,23.9782],[92.7091,23.9782],[92.7049,23.9815],[92.7039,23.9822],[92.7038,23.9822],[92.6997,23.9812],[92.6988,23.9821],[92.6974,23.9818],[92.6967,23.982],[92.6949,23.9825],[92.6926,23.9815],[92.6924,23.9814],[92.6923,23.9813],[92.6915,23.9823],[92.689,23.9825],[92.6889,23.9801],[92.6889,23.98],[92.6873,23.9746],[92.6856,23.9706],[92.6839,23.9668],[92.6807,23.9672],[92.6787,23.9682],[92.6745,23.9701],[92.6709,23.9703],[92.6708,23.9703],[92.6687,23.9696],[92.667,23.9679],[92.6658,23.9634],[92.6658,23.9633],[92.6641,23.9614],[92.6592,23.9571],[92.659,23.9568],[92.6589,23.9568],[92.6553,23.9557],[92.6509,23.9566],[92.6479,23.9579],[92.6461,23.96],[92.6447,23.9642],[92.6436,23.9645],[92.6435,23.9645],[92.6412,23.9632],[92.6357,23.9567],[92.6353,23.9563],[92.6353,23.9562],[92.6317,23.9556],[92.6275,23.9537],[92.6274,23.9538],[92.6202,23.9573],[92.6202,23.9609],[92.6202,23.9611],[92.6202,23.9612],[92.623,23.9699],[92.6255,23.9779],[92.6255,23.978],[92.6321,23.9855],[92.6321,23.9856],[92.6306,23.9902],[92.6307,23.9927],[92.6313,23.9949],[92.6313,23.9952],[92.6327,23.997],[92.6327,23.9971],[92.6324,24.0003],[92.6244,24.0056],[92.6231,24.0078],[92.623,24.0078],[92.6231,24.0078],[92.6257,24.0121],[92.6257,24.0123],[92.6257,24.0125],[92.6262,24.017],[92.6272,24.0202],[92.6272,24.0204],[92.6295,24.0237],[92.6298,24.026],[92.6319,24.0291],[92.6366,24.0304],[92.6378,24.0312],[92.6383,24.0327],[92.6333,24.0347],[92.6297,24.0383],[92.6274,24.039],[92.6257,24.0384],[92.6251,24.0373],[92.625,24.0371],[92.625,24.0345],[92.6263,24.0307],[92.6263,24.0306],[92.6224,24.0314],[92.6207,24.0333],[92.6205,24.0335],[92.6192,24.0359],[92.617,24.04],[92.616,24.0463],[92.6145,24.0493],[92.6114,24.0499],[92.6014,24.0499],[92.5991,24.0525],[92.5924,24.0605],[92.5883,24.0613],[92.587,24.0623],[92.5862,24.0636],[92.5861,24.0636],[92.5861,24.0637],[92.5859,24.0731],[92.5836,24.0743],[92.5835,24.0743],[92.5834,24.0743],[92.5822,24.0743],[92.5742,24.0742],[92.5741,24.0733],[92.574,24.0733],[92.5741,24.0732],[92.5769,24.0678],[92.5768,24.0661],[92.5763,24.0654],[92.5761,24.0652],[92.5728,24.0612],[92.5727,24.0587],[92.5727,24.0585],[92.5736,24.0491],[92.571,24.0458],[92.5678,24.0382],[92.5654,24.0395],[92.5611,24.0392],[92.5595,24.0401],[92.5596,24.0402],[92.5631,24.0495],[92.5632,24.0495],[92.5643,24.0523],[92.5642,24.0523],[92.5584,24.0529],[92.5586,24.057],[92.5585,24.0571],[92.5579,24.0594],[92.5553,24.0607],[92.5543,24.0606],[92.5541,24.0606],[92.554,24.0606],[92.5539,24.0604],[92.5537,24.0602],[92.5513,24.0576],[92.5507,24.0557],[92.5506,24.0555],[92.5504,24.0548],[92.5503,24.0537],[92.5503,24.0536],[92.5493,24.0444],[92.5502,24.0403],[92.5502,24.0402],[92.5502,24.0401],[92.5418,24.034],[92.5393,24.0331],[92.5391,24.0375],[92.5389,24.0383],[92.5388,24.0385],[92.5367,24.0472],[92.5368,24.0482],[92.5369,24.0486],[92.5374,24.0514],[92.5375,24.0518],[92.5385,24.0537],[92.5385,24.0579],[92.5366,24.0633],[92.5366,24.0634],[92.54,24.0726],[92.5406,24.0771],[92.5407,24.0786],[92.5407,24.0787],[92.5407,24.0792],[92.5383,24.0919],[92.5403,24.0953],[92.5403,24.0954],[92.5403,24.0955],[92.5407,24.0996],[92.5383,24.1098],[92.5393,24.1121],[92.5395,24.1127],[92.5429,24.1208],[92.5442,24.1223],[92.5438,24.1235],[92.538,24.124],[92.5377,24.1254],[92.5391,24.1281],[92.5394,24.1311],[92.5424,24.134],[92.5425,24.1343],[92.5448,24.1381],[92.5453,24.1409],[92.5438,24.147],[92.5413,24.1503],[92.5404,24.1528],[92.5294,24.1615],[92.5293,24.1644],[92.5321,24.1657],[92.5322,24.1657],[92.536,24.1709],[92.536,24.171],[92.536,24.1759],[92.5325,24.1783],[92.5324,24.1784],[92.5325,24.1784],[92.533,24.1786],[92.5326,24.1791],[92.531,24.1812],[92.5372,24.1941],[92.5373,24.1943],[92.5359,24.1976],[92.5368,24.1997],[92.541,24.204],[92.542,24.2084],[92.5418,24.2119],[92.5453,24.2177],[92.5469,24.2222],[92.5469,24.2223],[92.5473,24.2296],[92.5465,24.2325],[92.5467,24.2355],[92.5484,24.241],[92.5485,24.2412],[92.5502,24.2436],[92.5579,24.2455],[92.5585,24.2456],[92.5641,24.2478],[92.5813,24.2431],[92.5875,24.2425],[92.5909,24.2436],[92.593,24.2463],[92.5936,24.2464],[92.5955,24.2469],[92.6034,24.2468],[92.6055,24.2468],[92.6075,24.2478],[92.6111,24.251],[92.6126,24.2534],[92.615,24.2613],[92.615,24.2614],[92.6152,24.2681],[92.6153,24.2682],[92.6163,24.2729],[92.6186,24.2789],[92.6186,24.2791],[92.6189,24.2844],[92.6188,24.2847],[92.6186,24.2855],[92.6182,24.2857],[92.6181,24.2858],[92.6167,24.2867],[92.6163,24.2889],[92.6163,24.289],[92.6178,24.2973],[92.6178,24.2974],[92.6175,24.302],[92.6176,24.302],[92.6192,24.306],[92.619,24.3091],[92.6226,24.3179],[92.6226,24.318],[92.6229,24.3284],[92.623,24.3285],[92.6238,24.3303],[92.6257,24.3321],[92.63,24.331],[92.6302,24.3309],[92.6354,24.3333],[92.6356,24.3333],[92.6372,24.3331],[92.6377,24.332],[92.6368,24.3319],[92.6366,24.3319],[92.636,24.3318],[92.6362,24.3303],[92.6388,24.3293],[92.6394,24.3273],[92.6405,24.3263],[92.6445,24.3252],[92.6446,24.3254],[92.6455,24.3268],[92.6447,24.3293],[92.6482,24.3265],[92.6483,24.3265],[92.6485,24.3263],[92.6493,24.3268],[92.6493,24.3269],[92.6489,24.3284],[92.6499,24.3282],[92.6514,24.3279],[92.6515,24.3304],[92.6519,24.3328],[92.6559,24.3367],[92.6571,24.3391],[92.657,24.341],[92.6579,24.341],[92.6587,24.3415],[92.6602,24.3427],[92.6604,24.3425],[92.6605,24.3425],[92.6617,24.341],[92.6628,24.3413],[92.6636,24.3443],[92.6648,24.3427],[92.6665,24.3431],[92.6743,24.3473],[92.6791,24.3453],[92.6833,24.3449],[92.6835,24.3474],[92.6875,24.3495],[92.6901,24.3523],[92.6912,24.3539],[92.6912,24.354],[92.6912,24.3596],[92.6934,24.3611],[92.6937,24.3624],[92.6927,24.3653],[92.6945,24.367],[92.6964,24.3715],[92.6977,24.3724],[92.7019,24.3727],[92.7036,24.3737],[92.7029,24.3813],[92.707,24.3844],[92.707,24.3846],[92.7069,24.3898],[92.7137,24.4027],[92.7137,24.4029],[92.7137,24.4078],[92.7176,24.4137],[92.7233,24.4334],[92.7301,24.4502],[92.7432,24.472],[92.7483,24.4859],[92.7509,24.4917],[92.7541,24.4985],[92.754,24.4985],[92.7532,24.5044],[92.7587,24.5091],[92.7641,24.5161],[92.7648,24.5182],[92.7787,24.4838],[92.7808,24.4756],[92.7817,24.4721],[92.7821,24.4714],[92.7839,24.4685],[92.7857,24.461],[92.7894,24.4534],[92.7933,24.4413],[92.7967,24.4331],[92.7972,24.432],[92.7975,24.4316],[92.7997,24.4292],[92.8023,24.4245],[92.8027,24.4231],[92.8037,24.4203],[92.8032,24.4189],[92.7994,24.4187],[92.8002,24.4163],[92.8031,24.416],[92.8032,24.416],[92.8037,24.4162],[92.8056,24.4168],[92.8066,24.4171],[92.8068,24.417],[92.8089,24.4165],[92.8084,24.4148],[92.8082,24.4142],[92.8088,24.4124],[92.8101,24.4125],[92.8108,24.4126],[92.8107,24.4123],[92.8105,24.4109],[92.8132,24.4102],[92.8158,24.4095],[92.8167,24.4097],[92.8177,24.4099],[92.8198,24.4055],[92.8205,24.404],[92.8209,24.4037],[92.8242,24.4014],[92.8291,24.3992],[92.8297,24.399],[92.8307,24.3977],[92.831,24.3966],[92.826,24.3907],[92.8254,24.3898],[92.8244,24.3877],[92.8246,24.3862],[92.8248,24.3856],[92.8254,24.3849],[92.8276,24.3828],[92.8275,24.3765],[92.8281,24.3755],[92.8283,24.375],[92.8291,24.3747],[92.8321,24.3735],[92.8324,24.3738],[92.8356,24.3758],[92.8389,24.378],[92.8394,24.3779],[92.8436,24.3771],[92.845,24.3784],[92.8462,24.3795],[92.8469,24.3806],[92.8484,24.3833],[92.851,24.3895],[92.8538,24.3912],[92.8584,24.3955],[92.8622,24.3966],[92.8711,24.3941],[92.8731,24.3944],[92.8775,24.396],[92.8835,24.4001],[92.8873,24.3987],[92.8901,24.3994],[92.891,24.3988],[92.8936,24.3924],[92.8956,24.3913]]]}},{"type":"Feature","properties":{"district":"Lawngtlai","district_hi":"लॉंगत्लाई"},"geometry":{"type":"Polygon","coordinates":[[[92.9347,22.5546],[92.9375,22.5451],[92.9398,22.5397],[92.9411,22.5296],[92.936,22.498],[92.9365,22.482],[92.94,22.4747],[92.9461,22.467],[92.9462,22.4622],[92.9419,22.458],[92.9429,22.4385],[92.9452,22.4303],[92.9464,22.4236],[92.9482,22.4137],[92.9517,22.4067],[92.9528,22.4009],[92.9646,22.3971],[92.9667,22.3928],[92.9628,22.3775],[92.9569,22.3723],[92.9408,22.379],[92.9388,22.3842],[92.9433,22.3887],[92.9395,22.392],[92.9321,22.3948],[92.9228,22.3886],[92.9187,22.3837],[92.9107,22.3775],[92.9051,22.3722],[92.8999,22.3668],[92.8947,22.3639],[92.8872,22.3599],[92.8832,22.3569],[92.8807,22.3526],[92.875,22.3437],[92.8687,22.3278],[92.8657,22.3237],[92.8524,22.323],[92.8419,22.3312],[92.8259,22.3303],[92.8246,22.3252],[92.8285,22.3194],[92.8291,22.3138],[92.8277,22.3089],[92.8303,22.3003],[92.8371,22.2941],[92.8402,22.2874],[92.8374,22.2793],[92.8342,22.2747],[92.8363,22.2698],[92.837,22.2641],[92.8348,22.2552],[92.8358,22.2495],[92.8374,22.2448],[92.8389,22.2404],[92.8401,22.2327],[92.8406,22.2264],[92.8416,22.2164],[92.8407,22.2059],[92.8417,22.1951],[92.8412,22.1879],[92.8429,22.1819],[92.8437,22.1671],[92.8442,22.1602],[92.8461,22.1491],[92.8464,22.1416],[92.8482,22.1344],[92.8456,22.1239],[92.8452,22.1148],[92.8477,22.1054],[92.8475,22.0962],[92.8488,22.0883],[92.8483,22.0808],[92.852,22.0709],[92.8545,22.0636],[92.8465,22.0604],[92.8422,22.0662],[92.839,22.07],[92.8341,22.0744],[92.8232,22.0778],[92.8179,22.0884],[92.8147,22.0937],[92.808,22.0958],[92.8009,22.1004],[92.7928,22.1043],[92.7864,22.107],[92.7808,22.1068],[92.7751,22.108],[92.7669,22.1141],[92.7678,22.1213],[92.7634,22.1245],[92.749,22.1309],[92.7409,22.1342],[92.7356,22.1373],[92.7305,22.1478],[92.7157,22.151],[92.7058,22.1518],[92.6971,22.1467],[92.6984,22.1367],[92.6974,22.1207],[92.6949,22.0977],[92.6953,22.0846],[92.6913,22.0756],[92.6884,22.0932],[92.6874,22.1055],[92.6816,22.1037],[92.6823,22.0905],[92.6831,22.084],[92.6836,22.075],[92.6846,22.0684],[92.685,22.0616],[92.6841,22.057],[92.6844,22.0484],[92.6877,22.0395],[92.6873,22.0342],[92.6859,22.0292],[92.685,22.0223],[92.6821,22.0164],[92.6785,22.0127],[92.6693,22.0133],[92.661,22.0141],[92.6425,21.9968],[92.6388,21.9908],[92.6278,21.9836],[92.616,21.98],[92.6101,21.979],[92.6089,21.9841],[92.6157,21.9884],[92.6102,22.0016],[92.6,22.011],[92.6026,22.0213],[92.6052,22.0264],[92.6038,22.033],[92.5991,22.0377],[92.5989,22.0426],[92.6026,22.0522],[92.6026,22.0569],[92.6011,22.062],[92.5958,22.0661],[92.5948,22.0789],[92.5839,22.0986],[92.5787,22.1102],[92.5736,22.1202],[92.5696,22.1252],[92.5622,22.1281],[92.5713,22.1367],[92.5781,22.1437],[92.5843,22.1401],[92.5903,22.1351],[92.5958,22.1307],[92.6008,22.1276],[92.6052,22.124],[92.6062,22.1361],[92.6071,22.1468],[92.608,22.1583],[92.6085,22.1648],[92.6043,22.1699],[92.6008,22.1736],[92.5969,22.178],[92.5938,22.1814],[92.5929,22.1921],[92.5923,22.2009],[92.5915,22.2084],[92.5909,22.2141],[92.5903,22.2218],[92.5897,22.2291],[92.5888,22.2376],[92.5878,22.245],[92.5869,22.256],[92.5863,22.2638],[92.5856,22.2711],[92.5849,22.2797],[92.5842,22.2877],[92.5832,22.2974],[92.5817,22.3129],[92.5809,22.3219],[92.5764,22.3358],[92.5731,22.3451],[92.5698,22.3561],[92.5663,22.3672],[92.5622,22.3788],[92.559,22.3893],[92.5558,22.3992],[92.5527,22.4095],[92.5513,22.4191],[92.55,22.4314],[92.5488,22.4441],[92.5472,22.4576],[92.5458,22.4708],[92.5445,22.4825],[92.5437,22.4907],[92.5509,22.4978],[92.5437,22.4994],[92.5512,22.513],[92.545,22.5229],[92.5355,22.5383],[92.5279,22.5504],[92.5234,22.5575],[92.5219,22.5597],[92.5273,22.5692],[92.5301,22.5742],[92.5336,22.5803],[92.5368,22.5861],[92.5388,22.5895],[92.5375,22.5962],[92.5349,22.6096],[92.533,22.6189],[92.5319,22.6239],[92.5314,22.6278],[92.5306,22.632],[92.5298,22.6367],[92.5284,22.6425],[92.5263,22.6536],[92.5247,22.6618],[92.5202,22.685],[92.5172,22.7012],[92.5148,22.7122],[92.5131,22.7202],[92.5105,22.7351],[92.5093,22.741],[92.5093,22.7412],[92.51,22.7433],[92.51,22.7435],[92.5109,22.7475],[92.515,22.7501],[92.5176,22.7557],[92.5239,22.7605],[92.5285,22.7578],[92.54,22.7593],[92.5466,22.7565],[92.5503,22.7518],[92.5605,22.7443],[92.5702,22.7307],[92.5772,22.7338],[92.5806,22.7372],[92.5809,22.7445],[92.588,22.7469],[92.5939,22.7295],[92.5964,22.7291],[92.5975,22.7269],[92.5988,22.7225],[92.6018,22.7203],[92.6021,22.7122],[92.6002,22.7041],[92.6024,22.6949],[92.6058,22.6891],[92.6101,22.6858],[92.6118,22.6794],[92.6153,22.6776],[92.6223,22.6705],[92.628,22.6672],[92.634,22.6627],[92.6318,22.6598],[92.6322,22.6567],[92.6385,22.654],[92.6426,22.6503],[92.6448,22.6461],[92.6491,22.6354],[92.6475,22.6263],[92.6474,22.6169],[92.6625,22.6199],[92.675,22.6245],[92.6841,22.6245],[92.6972,22.6166],[92.6941,22.607],[92.6961,22.5955],[92.6984,22.5898],[92.7129,22.5803],[92.7147,22.5753],[92.7191,22.5682],[92.7236,22.5639],[92.7438,22.5514],[92.7471,22.5468],[92.7555,22.5416],[92.7566,22.5337],[92.7569,22.5203],[92.7628,22.5008],[92.7648,22.498],[92.7696,22.4975],[92.7759,22.5017],[92.7771,22.4991],[92.7792,22.4976],[92.7819,22.4982],[92.78,22.5136],[92.7778,22.5183],[92.7802,22.5308],[92.7828,22.5383],[92.7918,22.5476],[92.7984,22.5519],[92.7988,22.5565],[92.804,22.5669],[92.8042,22.5744],[92.8017,22.5807],[92.8009,22.5855],[92.7968,22.5975],[92.7973,22.6021],[92.7965,22.6048],[92.8037,22.6072],[92.8049,22.6121],[92.803,22.6161],[92.8032,22.6213],[92.8081,22.6272],[92.8132,22.6277],[92.8222,22.6253],[92.8257,22.6257],[92.8369,22.624],[92.845,22.6206],[92.8504,22.6128],[92.8568,22.6067],[92.8626,22.6025],[92.8658,22.5987],[92.8718,22.5949],[92.878,22.5868],[92.8838,22.5816],[92.8997,22.5823],[92.9039,22.5747],[92.9044,22.5695],[92.9089,22.5514],[92.9131,22.5448],[92.9175,22.5451],[92.9288,22.55],[92.9347,22.5546]]]}},{"type":"Feature","properties":{"district":"Lunglei","district_hi":"लुंगलेई"},"geometry":{"type":"Polygon","coordinates":[[[92.6727,23.3827],[92.6784,23.3788],[92.679,23.3726],[92.6787,23.3712],[92.6749,23.3685],[92.6847,23.3671],[92.6876,23.3631],[92.6884,23.3585],[92.6906,23.3548],[92.6901,23.3529],[92.6894,23.3439],[92.6904,23.3417],[92.6898,23.3388],[92.6894,23.3298],[92.6897,23.329],[92.6894,23.3281],[92.6891,23.3274],[92.6875,23.3267],[92.6866,23.3272],[92.6842,23.3263],[92.688,23.3173],[92.6871,23.3115],[92.6919,23.3073],[92.6896,23.2972],[92.6871,23.2907],[92.6886,23.285],[92.6866,23.2803],[92.6874,23.2795],[92.6907,23.2793],[92.6893,23.2737],[92.6915,23.2693],[92.6933,23.2606],[92.6924,23.2482],[92.6915,23.2427],[92.6934,23.2397],[92.6929,23.237],[92.6947,23.2221],[92.6969,23.2165],[92.7075,23.2076],[92.7072,23.2043],[92.7034,23.1978],[92.7067,23.1973],[92.7061,23.1953],[92.7094,23.1925],[92.7164,23.1912],[92.7223,23.1919],[92.7249,23.2059],[92.7274,23.2104],[92.726,23.2171],[92.7274,23.2222],[92.7256,23.2283],[92.7246,23.2388],[92.7251,23.2407],[92.7363,23.2392],[92.7383,23.2372],[92.7409,23.2324],[92.745,23.2342],[92.7492,23.233],[92.7535,23.2334],[92.755,23.2329],[92.7567,23.2318],[92.7586,23.2268],[92.7667,23.2309],[92.7686,23.2325],[92.7734,23.2334],[92.7796,23.2286],[92.7907,23.2306],[92.7988,23.2277],[92.8025,23.2263],[92.8166,23.2255],[92.8184,23.2264],[92.8196,23.2285],[92.8189,23.2339],[92.8201,23.2395],[92.8215,23.2414],[92.8234,23.2414],[92.8258,23.2426],[92.8354,23.2456],[92.8388,23.2445],[92.8398,23.2412],[92.8467,23.2381],[92.8491,23.2366],[92.8491,23.2353],[92.849,23.2349],[92.8489,23.2342],[92.8497,23.234],[92.849,23.2315],[92.85,23.2291],[92.8494,23.2273],[92.8514,23.2235],[92.8544,23.2215],[92.8551,23.2201],[92.8575,23.2187],[92.8606,23.2151],[92.8618,23.2108],[92.8587,23.1959],[92.8593,23.1926],[92.8623,23.1864],[92.8628,23.1839],[92.8652,23.18],[92.8641,23.1755],[92.8637,23.1739],[92.8649,23.1639],[92.8613,23.1526],[92.8613,23.1419],[92.86,23.1396],[92.8554,23.1317],[92.8556,23.1312],[92.8613,23.1204],[92.8623,23.119],[92.8655,23.1139],[92.8643,23.1079],[92.8596,23.0979],[92.8601,23.0968],[92.8649,23.0883],[92.8672,23.0842],[92.8721,23.0752],[92.8727,23.0622],[92.8728,23.0613],[92.875,23.0515],[92.875,23.0501],[92.875,23.0425],[92.8776,23.0267],[92.8786,23.0205],[92.8821,23.0003],[92.8827,22.9967],[92.8895,22.9808],[92.8899,22.98],[92.8895,22.9791],[92.8872,22.9733],[92.8863,22.9711],[92.8872,22.963],[92.8875,22.9598],[92.8886,22.9491],[92.8887,22.948],[92.8877,22.9468],[92.8691,22.9253],[92.8676,22.9236],[92.8605,22.9156],[92.8604,22.9149],[92.8626,22.9111],[92.8669,22.9039],[92.8672,22.9033],[92.8693,22.8997],[92.8696,22.8992],[92.8693,22.8987],[92.8675,22.8964],[92.8613,22.8884],[92.8544,22.88],[92.8526,22.8762],[92.8539,22.8716],[92.8547,22.8718],[92.8575,22.8727],[92.862,22.8742],[92.8691,22.8766],[92.878,22.8652],[92.8763,22.8637],[92.8721,22.8599],[92.8716,22.8587],[92.8696,22.8528],[92.8797,22.8403],[92.8798,22.8402],[92.8828,22.837],[92.8875,22.8319],[92.8868,22.823],[92.8868,22.8224],[92.8888,22.8166],[92.8908,22.8111],[92.8954,22.8072],[92.9019,22.8025],[92.9064,22.7991],[92.9122,22.7965],[92.9141,22.7916],[92.9143,22.7912],[92.9167,22.7879],[92.9214,22.7806],[92.9232,22.7778],[92.9275,22.7734],[92.925,22.7714],[92.9199,22.7642],[92.9186,22.7365],[92.9198,22.7281],[92.9211,22.7225],[92.9337,22.7137],[92.937,22.7067],[92.933,22.6842],[92.9339,22.6775],[92.934,22.6634],[92.9418,22.6451],[92.9519,22.6326],[92.9552,22.6274],[92.9517,22.6191],[92.9539,22.6019],[92.949,22.5949],[92.9503,22.5884],[92.9494,22.5752],[92.945,22.5639],[92.9409,22.5594],[92.9347,22.5546],[92.9288,22.55],[92.9175,22.5451],[92.9131,22.5448],[92.9089,22.5514],[92.9044,22.5695],[92.9039,22.5747],[92.8997,22.5823],[92.8838,22.5816],[92.878,22.5868],[92.8718,22.5949],[92.8658,22.5987],[92.8626,22.6025],[92.8568,22.6067],[92.8504,22.6128],[92.845,22.6206],[92.8369,22.624],[92.8257,22.6257],[92.8222,22.6253],[92.8132,22.6277],[92.8081,22.6272],[92.8032,22.6213],[92.803,22.6161],[92.8049,22.6121],[92.8037,22.6072],[92.7965,22.6048],[92.7973,22.6021],[92.7968,22.5975],[92.8009,22.5855],[92.8017,22.5807],[92.8042,22.5744],[92.804,22.5669],[92.7988,22.5565],[92.7984,22.5519],[92.7918,22.5476],[92.7828,22.5383],[92.7802,22.5308],[92.7778,22.5183],[92.78,22.5136],[92.7819,22.4982],[92.7792,22.4976],[92.7771,22.4991],[92.7759,22.5017],[92.7696,22.4975],[92.7648,22.498],[92.7628,22.5008],[92.7569,22.5203],[92.7566,22.5337],[92.7555,22.5416],[92.7471,22.5468],[92.7438,22.5514],[92.7236,22.5639],[92.7191,22.5682],[92.7147,22.5753],[92.7129,22.5803],[92.6984,22.5898],[92.6961,22.5955],[92.6941,22.607],[92.6972,22.6166],[92.6841,22.6245],[92.675,22.6245],[92.6625,22.6199],[92.6474,22.6169],[92.6475,22.6263],[92.6491,22.6354],[92.6448,22.6461],[92.6426,22.6503],[92.6385,22.654],[92.6322,22.6567],[92.6318,22.6598],[92.634,22.6627],[92.628,22.6672],[92.6223,22.6705],[92.6153,22.6776],[92.6118,22.6794],[92.6101,22.6858],[92.6058,22.6891],[92.6024,22.6949],[92.6002,22.7041],[92.6021,22.7122],[92.6018,22.7203],[92.5988,22.7225],[92.5975,22.7269],[92.5964,22.7291],[92.5939,22.7295],[92.588,22.7469],[92.5809,22.7445],[92.5806,22.7372],[92.5772,22.7338],[92.5702,22.7307],[92.5605,22.7443],[92.5503,22.7518],[92.5466,22.7565],[92.54,22.7593],[92.5285,22.7578],[92.5239,22.7605],[92.5176,22.7557],[92.515,22.7501],[92.5109,22.7475],[92.51,22.7435],[92.51,22.7433],[92.5093,22.7412],[92.5092,22.741],[92.508,22.737],[92.5023,22.7396],[92.4961,22.7426],[92.4909,22.745],[92.4842,22.7477],[92.478,22.751],[92.4761,22.7648],[92.4741,22.7794],[92.4722,22.789],[92.4706,22.7966],[92.466,22.804],[92.4632,22.8079],[92.4597,22.8125],[92.4565,22.8171],[92.4546,22.8193],[92.4584,22.8247],[92.4616,22.8303],[92.456,22.8377],[92.4529,22.8425],[92.4626,22.8418],[92.4565,22.8514],[92.464,22.8542],[92.4552,22.8603],[92.4527,22.8621],[92.4587,22.8689],[92.4601,22.8706],[92.4514,22.8748],[92.4485,22.8762],[92.4495,22.8881],[92.4499,22.8931],[92.444,22.8905],[92.4389,22.8882],[92.4337,22.8859],[92.4275,22.9],[92.4224,22.9113],[92.4194,22.9184],[92.4157,22.9172],[92.4009,22.9122],[92.3994,22.9179],[92.3992,22.9217],[92.4018,22.9278],[92.3975,22.9296],[92.389,22.9316],[92.3833,22.933],[92.3711,22.9362],[92.3721,22.942],[92.3732,22.9486],[92.3744,22.9555],[92.375,22.9593],[92.3756,22.9633],[92.376,22.9668],[92.374,22.9707],[92.3778,22.9755],[92.3788,22.9805],[92.3798,22.987],[92.3808,22.9929],[92.3817,22.9982],[92.3826,23.0029],[92.3833,23.008],[92.3842,23.0132],[92.3843,23.0174],[92.3851,23.0217],[92.3865,23.0266],[92.3871,23.0303],[92.3873,23.0357],[92.3883,23.0399],[92.3898,23.0454],[92.3912,23.0527],[92.3918,23.0574],[92.3897,23.0624],[92.3866,23.07],[92.3851,23.0733],[92.3837,23.0765],[92.3811,23.0828],[92.3796,23.0866],[92.3777,23.0878],[92.3746,23.0875],[92.3701,23.0937],[92.365,23.0975],[92.3609,23.1009],[92.3578,23.1031],[92.3611,23.1113],[92.3632,23.1166],[92.3657,23.1225],[92.3675,23.1269],[92.3644,23.1292],[92.3589,23.1331],[92.3569,23.1345],[92.3602,23.145],[92.3621,23.1509],[92.3642,23.157],[92.3626,23.163],[92.3609,23.1711],[92.359,23.1795],[92.3581,23.1845],[92.3564,23.1884],[92.3555,23.1942],[92.3547,23.1987],[92.3529,23.2054],[92.3524,23.2099],[92.3509,23.216],[92.3493,23.2236],[92.3464,23.2367],[92.3561,23.2367],[92.3625,23.2368],[92.3685,23.2372],[92.3736,23.2385],[92.3882,23.2385],[92.3934,23.2392],[92.3994,23.2388],[92.3988,23.2407],[92.3967,23.2452],[92.3945,23.2508],[92.393,23.2545],[92.3907,23.2595],[92.3897,23.2626],[92.3881,23.2659],[92.395,23.266],[92.4016,23.2658],[92.4041,23.2638],[92.4086,23.266],[92.4094,23.265],[92.4135,23.2616],[92.4261,23.2636],[92.4331,23.2727],[92.4409,23.2793],[92.4368,23.2817],[92.4365,23.2842],[92.4465,23.2849],[92.4538,23.2864],[92.4572,23.2974],[92.4602,23.3033],[92.4602,23.3051],[92.4635,23.3083],[92.4659,23.3183],[92.4668,23.3187],[92.4722,23.3173],[92.4751,23.3215],[92.4724,23.3269],[92.4705,23.3418],[92.4626,23.3491],[92.4638,23.3508],[92.4638,23.3564],[92.4658,23.3553],[92.4653,23.3622],[92.4608,23.3637],[92.4599,23.3651],[92.4614,23.3673],[92.4612,23.3741],[92.4602,23.3795],[92.4654,23.3843],[92.4668,23.3886],[92.4681,23.389],[92.4781,23.3897],[92.4822,23.3872],[92.4856,23.3829],[92.4908,23.3813],[92.4958,23.3839],[92.4971,23.3899],[92.5,23.388],[92.5014,23.3881],[92.5021,23.3866],[92.5079,23.3832],[92.5116,23.3786],[92.5209,23.3784],[92.5285,23.3793],[92.533,23.3776],[92.5375,23.3788],[92.5381,23.3789],[92.5436,23.3792],[92.5485,23.3781],[92.5496,23.3773],[92.5495,23.3768],[92.5515,23.3761],[92.5581,23.3693],[92.5655,23.3712],[92.5671,23.3764],[92.5686,23.3775],[92.5789,23.3767],[92.5887,23.384],[92.5905,23.3901],[92.588,23.4009],[92.5921,23.4045],[92.6018,23.4009],[92.6036,23.3967],[92.6138,23.3941],[92.6173,23.3892],[92.6216,23.3863],[92.6268,23.3858],[92.6304,23.39],[92.6372,23.3909],[92.6415,23.3879],[92.6471,23.3817],[92.6597,23.3807],[92.6657,23.3811],[92.6727,23.3827]]]}},{"type":"Feature","properties":{"district":"Mamit","district_hi":"ममित"},"geometry":{"type":"Polygon","coordinates":[[[92.6274,23.9538],[92.6275,23.9537],[92.6302,23.9449],[92.6252,23.9412],[92.623,23.9351],[92.6368,23.9317],[92.6447,23.9295],[92.6464,23.9222],[92.6579,23.9199],[92.663,23.9084],[92.6593,23.9013],[92.6455,23.8961],[92.6413,23.892],[92.6414,23.8858],[92.6431,23.8805],[92.6432,23.8723],[92.6476,23.8635],[92.6511,23.854],[92.6541,23.8478],[92.6624,23.8371],[92.6613,23.832],[92.652,23.8307],[92.6466,23.8276],[92.6462,23.8199],[92.6561,23.8184],[92.6511,23.8112],[92.6429,23.8118],[92.6381,23.8156],[92.6332,23.8079],[92.6295,23.8019],[92.6252,23.7964],[92.63,23.7929],[92.6395,23.793],[92.6424,23.7853],[92.6404,23.772],[92.6349,23.7677],[92.6296,23.7624],[92.6357,23.7584],[92.6377,23.7474],[92.6392,23.7387],[92.6417,23.7341],[92.6439,23.7282],[92.6485,23.7198],[92.652,23.7141],[92.6575,23.7114],[92.6635,23.7111],[92.6676,23.7073],[92.6607,23.6901],[92.6564,23.682],[92.6525,23.677],[92.6477,23.6679],[92.6371,23.6584],[92.6371,23.6474],[92.6407,23.6426],[92.6457,23.6395],[92.6524,23.6352],[92.6524,23.6303],[92.6584,23.6287],[92.6692,23.6265],[92.6752,23.6231],[92.6743,23.6145],[92.6749,23.6091],[92.6719,23.6],[92.6643,23.595],[92.6567,23.5934],[92.6518,23.5899],[92.6521,23.5845],[92.654,23.5768],[92.6604,23.5704],[92.6588,23.5597],[92.6567,23.5542],[92.6482,23.5532],[92.6449,23.5476],[92.6438,23.5412],[92.638,23.5395],[92.6351,23.5336],[92.6404,23.5217],[92.6466,23.5193],[92.6545,23.518],[92.6568,23.5084],[92.6593,23.5036],[92.661,23.4973],[92.6576,23.4892],[92.6578,23.4786],[92.6585,23.4667],[92.658,23.4556],[92.6586,23.4406],[92.6581,23.4315],[92.6593,23.4218],[92.6663,23.4118],[92.6696,23.4016],[92.6675,23.3908],[92.6727,23.3827],[92.6657,23.3811],[92.6597,23.3807],[92.6471,23.3817],[92.6415,23.3879],[92.6372,23.3909],[92.6304,23.39],[92.6268,23.3858],[92.6216,23.3863],[92.6173,23.3892],[92.6138,23.3941],[92.6036,23.3967],[92.6018,23.4009],[92.5921,23.4045],[92.588,23.4009],[92.5905,23.3901],[92.5887,23.384],[92.5789,23.3767],[92.5686,23.3775],[92.5671,23.3764],[92.5655,23.3712],[92.5581,23.3693],[92.5515,23.3761],[92.5495,23.3768],[92.5496,23.3773],[92.5485,23.3781],[92.5436,23.3792],[92.5381,23.3789],[92.5375,23.3788],[92.533,23.3776],[92.5285,23.3793],[92.5209,23.3784],[92.5116,23.3786],[92.5079,23.3832],[92.5021,23.3866],[92.5014,23.3881],[92.5,23.388],[92.4971,23.3899],[92.4958,23.3839],[92.4908,23.3813],[92.4856,23.3829],[92.4822,23.3872],[92.4781,23.3897],[92.4681,23.389],[92.4668,23.3886],[92.4654,23.3843],[92.4602,23.3795],[92.4612,23.3741],[92.4614,23.3673],[92.4599,23.3651],[92.4608,23.3637],[92.4653,23.3622],[92.4658,23.3553],[92.4638,23.3564],[92.4638,23.3508],[92.4626,23.3491],[92.4705,23.3418],[92.4724,23.3269],[92.4751,23.3215],[92.4722,23.3173],[92.4668,23.3187],[92.4659,23.3183],[92.4635,23.3083],[92.4602,23.3051],[92.4602,23.3033],[92.4572,23.2974],[92.4538,23.2864],[92.4465,23.2849],[92.4365,23.2842],[92.4368,23.2817],[92.4409,23.2793],[92.4331,23.2727],[92.4261,23.2636],[92.4135,23.2616],[92.4094,23.265],[92.4086,23.266],[92.4041,23.2638],[92.4016,23.2658],[92.395,23.266],[92.3935,23.2664],[92.3896,23.2722],[92.3867,23.2765],[92.3842,23.2804],[92.3809,23.2858],[92.3827,23.2942],[92.3845,23.3017],[92.3856,23.3065],[92.3801,23.311],[92.3765,23.3136],[92.3729,23.3164],[92.3678,23.3202],[92.3638,23.3232],[92.3676,23.3337],[92.3699,23.3401],[92.3716,23.3451],[92.3734,23.35],[92.3749,23.3541],[92.3778,23.3623],[92.3749,23.3664],[92.3713,23.3661],[92.3691,23.3711],[92.3599,23.3684],[92.3594,23.3751],[92.3643,23.3799],[92.36,23.3805],[92.3518,23.3815],[92.354,23.3934],[92.3546,23.3969],[92.353,23.4035],[92.3553,23.402],[92.3564,23.4068],[92.3568,23.4106],[92.3541,23.4115],[92.3473,23.4134],[92.347,23.4201],[92.3467,23.4253],[92.3464,23.4293],[92.346,23.4337],[92.3424,23.4321],[92.3366,23.4295],[92.3325,23.4295],[92.3321,23.4356],[92.3319,23.4411],[92.3315,23.4472],[92.3317,23.4532],[92.332,23.4576],[92.332,23.4623],[92.3312,23.4658],[92.3267,23.4674],[92.324,23.4676],[92.3175,23.4711],[92.3233,23.4756],[92.3263,23.4781],[92.3248,23.4803],[92.3207,23.4832],[92.3164,23.4865],[92.3165,23.4946],[92.3166,23.5033],[92.317,23.5146],[92.3172,23.5208],[92.3173,23.5276],[92.3121,23.5317],[92.3064,23.536],[92.3068,23.5509],[92.3078,23.5658],[92.3084,23.5779],[92.3055,23.5838],[92.3033,23.5889],[92.2948,23.5895],[92.2936,23.5949],[92.2877,23.5961],[92.2877,23.6038],[92.2878,23.6107],[92.2877,23.6169],[92.2908,23.6199],[92.296,23.6211],[92.2892,23.6234],[92.2787,23.6251],[92.2824,23.6382],[92.2729,23.6423],[92.2742,23.6459],[92.2773,23.6541],[92.2805,23.6623],[92.2836,23.6711],[92.2853,23.6754],[92.2883,23.6837],[92.291,23.691],[92.2886,23.6967],[92.2865,23.7023],[92.2841,23.7083],[92.2798,23.719],[92.276,23.7205],[92.2654,23.7251],[92.2638,23.7406],[92.2628,23.7532],[92.2622,23.7608],[92.2614,23.7659],[92.261,23.7718],[92.2592,23.7902],[92.2584,23.7987],[92.2577,23.8029],[92.2574,23.8081],[92.2567,23.8127],[92.2691,23.8144],[92.2761,23.8151],[92.2786,23.8151],[92.2801,23.8152],[92.282,23.8157],[92.2813,23.8168],[92.2808,23.8176],[92.2805,23.8182],[92.2803,23.8186],[92.2799,23.8193],[92.2797,23.8199],[92.279,23.8216],[92.277,23.8261],[92.2741,23.8318],[92.2718,23.836],[92.2685,23.8426],[92.2727,23.8485],[92.2755,23.8526],[92.2791,23.858],[92.2825,23.8634],[92.2848,23.8672],[92.29,23.8662],[92.2929,23.8657],[92.2942,23.8653],[92.2956,23.8649],[92.2997,23.8639],[92.3033,23.8634],[92.3072,23.8624],[92.31,23.8619],[92.3125,23.8612],[92.3146,23.8626],[92.3142,23.8642],[92.3138,23.8657],[92.3135,23.8686],[92.313,23.871],[92.3125,23.8728],[92.3123,23.8742],[92.312,23.8756],[92.3116,23.8777],[92.3111,23.8802],[92.3169,23.8792],[92.317,23.8797],[92.3167,23.8798],[92.3161,23.8799],[92.3158,23.8816],[92.3166,23.8823],[92.3188,23.8819],[92.319,23.8844],[92.3178,23.8862],[92.3185,23.8874],[92.3183,23.8879],[92.318,23.8887],[92.3187,23.8892],[92.3195,23.8881],[92.3202,23.8895],[92.3211,23.8896],[92.3225,23.9024],[92.3236,23.9028],[92.3253,23.9027],[92.3272,23.9045],[92.3293,23.9037],[92.33,23.9058],[92.3307,23.91],[92.3289,23.9171],[92.3302,23.9196],[92.3292,23.9214],[92.3275,23.9222],[92.3207,23.9243],[92.3176,23.9286],[92.3129,23.9328],[92.3123,23.9395],[92.3129,23.9416],[92.3123,23.9423],[92.3108,23.9439],[92.3122,23.9557],[92.311,23.9588],[92.3122,23.959],[92.3129,23.9592],[92.3122,23.9684],[92.3148,23.9694],[92.3146,23.9704],[92.3173,23.9703],[92.3192,23.9736],[92.3217,23.9735],[92.3223,23.978],[92.3236,23.9779],[92.3251,23.9815],[92.3274,23.9829],[92.3273,23.9839],[92.3267,23.9844],[92.3254,23.9857],[92.3286,23.9879],[92.3269,24.0001],[92.3271,24.0024],[92.3243,24.0047],[92.3167,24.0158],[92.317,24.017],[92.3185,24.0174],[92.3205,24.0162],[92.3213,24.017],[92.3179,24.0208],[92.3187,24.0237],[92.3163,24.0262],[92.3189,24.0284],[92.319,24.0295],[92.3138,24.0329],[92.3169,24.0357],[92.3172,24.0378],[92.315,24.0431],[92.3149,24.0469],[92.3165,24.0495],[92.3187,24.0483],[92.3199,24.0494],[92.3182,24.0555],[92.3214,24.057],[92.3187,24.0595],[92.3164,24.065],[92.3178,24.0673],[92.3188,24.0677],[92.3208,24.0668],[92.323,24.0678],[92.3225,24.07],[92.3233,24.0715],[92.3248,24.072],[92.327,24.0727],[92.3267,24.0746],[92.326,24.0747],[92.3225,24.0752],[92.3225,24.0757],[92.3278,24.0788],[92.3287,24.0804],[92.3281,24.0831],[92.3284,24.0873],[92.3276,24.0919],[92.3299,24.0941],[92.3312,24.0969],[92.328,24.0968],[92.3294,24.0993],[92.3292,24.101],[92.332,24.1034],[92.3321,24.105],[92.329,24.1085],[92.3316,24.11],[92.3314,24.1113],[92.3283,24.1141],[92.328,24.1227],[92.3307,24.1261],[92.3285,24.1279],[92.329,24.1298],[92.3279,24.1334],[92.328,24.1368],[92.329,24.138],[92.3321,24.1386],[92.332,24.1422],[92.333,24.1428],[92.335,24.1417],[92.336,24.1425],[92.3366,24.1449],[92.334,24.149],[92.3316,24.1617],[92.3292,24.1627],[92.3283,24.1643],[92.3296,24.1728],[92.3298,24.1782],[92.3305,24.1803],[92.3301,24.183],[92.3268,24.1843],[92.3294,24.1863],[92.3286,24.1873],[92.3292,24.1893],[92.3245,24.1929],[92.3243,24.1944],[92.3254,24.1957],[92.3249,24.1971],[92.3238,24.198],[92.32,24.2008],[92.32,24.2024],[92.3231,24.2028],[92.3246,24.2028],[92.3244,24.2039],[92.3188,24.2071],[92.3159,24.2114],[92.3125,24.2092],[92.3096,24.213],[92.3095,24.2143],[92.3134,24.2193],[92.3136,24.221],[92.3032,24.2198],[92.3007,24.2202],[92.3009,24.222],[92.301,24.2227],[92.3017,24.2233],[92.2974,24.2254],[92.299,24.2276],[92.2993,24.2298],[92.2962,24.232],[92.2961,24.2342],[92.2967,24.2363],[92.2947,24.2389],[92.2939,24.2425],[92.2951,24.2462],[92.296,24.2469],[92.297,24.2478],[92.2965,24.2499],[92.3033,24.2509],[92.3103,24.2495],[92.3139,24.2507],[92.3763,24.2493],[92.3954,24.2506],[92.4065,24.2499],[92.4162,24.2514],[92.4221,24.251],[92.4222,24.2461],[92.4198,24.2332],[92.4182,24.2196],[92.4179,24.2089],[92.4194,24.2004],[92.4186,24.1924],[92.4218,24.1865],[92.4328,24.1812],[92.4339,24.1793],[92.434,24.1721],[92.4374,24.1685],[92.4377,24.1671],[92.4348,24.1606],[92.4362,24.1504],[92.4371,24.1493],[92.4383,24.1492],[92.4414,24.1508],[92.4435,24.1511],[92.4502,24.1416],[92.4568,24.1414],[92.4626,24.1343],[92.4644,24.1345],[92.4655,24.1327],[92.4664,24.1329],[92.4681,24.1359],[92.4707,24.137],[92.4729,24.1379],[92.4729,24.14],[92.4743,24.1408],[92.4792,24.1388],[92.4804,24.1392],[92.481,24.1409],[92.4783,24.1466],[92.4802,24.148],[92.4802,24.1502],[92.4825,24.1506],[92.4831,24.1518],[92.4807,24.155],[92.4822,24.155],[92.4835,24.156],[92.4844,24.1572],[92.4845,24.1592],[92.4854,24.1601],[92.4876,24.1601],[92.4943,24.1578],[92.4997,24.1584],[92.502,24.16],[92.5028,24.1645],[92.5044,24.1652],[92.5063,24.1647],[92.5091,24.1607],[92.5123,24.1604],[92.5115,24.1626],[92.5082,24.1671],[92.5132,24.1671],[92.5143,24.1681],[92.5131,24.1714],[92.5147,24.1733],[92.5171,24.174],[92.5213,24.1708],[92.5249,24.1707],[92.5292,24.1726],[92.5294,24.1742],[92.531,24.1752],[92.5324,24.1784],[92.5325,24.1783],[92.536,24.1759],[92.536,24.171],[92.536,24.1709],[92.5322,24.1657],[92.5321,24.1657],[92.5293,24.1644],[92.5294,24.1615],[92.5404,24.1528],[92.5413,24.1503],[92.5438,24.147],[92.5453,24.1409],[92.5448,24.1381],[92.5425,24.1343],[92.5424,24.134],[92.5394,24.1311],[92.5391,24.1281],[92.5377,24.1254],[92.538,24.124],[92.5438,24.1235],[92.5442,24.1223],[92.5429,24.1208],[92.5395,24.1127],[92.5393,24.1121],[92.5383,24.1098],[92.5407,24.0996],[92.5403,24.0955],[92.5403,24.0954],[92.5403,24.0953],[92.5383,24.0919],[92.5407,24.0792],[92.5407,24.0787],[92.5407,24.0786],[92.5406,24.0771],[92.54,24.0726],[92.5366,24.0634],[92.5366,24.0633],[92.5385,24.0579],[92.5385,24.0537],[92.5375,24.0518],[92.5374,24.0514],[92.5369,24.0486],[92.5368,24.0482],[92.5367,24.0472],[92.5388,24.0385],[92.5389,24.0383],[92.5391,24.0375],[92.5393,24.0331],[92.5418,24.034],[92.5502,24.0401],[92.5502,24.0402],[92.5502,24.0403],[92.5493,24.0444],[92.5503,24.0536],[92.5503,24.0537],[92.5504,24.0548],[92.5506,24.0555],[92.5507,24.0557],[92.5513,24.0576],[92.5537,24.0602],[92.5539,24.0604],[92.554,24.0606],[92.5541,24.0606],[92.5543,24.0606],[92.5553,24.0607],[92.5579,24.0594],[92.5585,24.0571],[92.5586,24.057],[92.5584,24.0529],[92.5642,24.0523],[92.5643,24.0523],[92.5632,24.0495],[92.5631,24.0495],[92.5596,24.0402],[92.5595,24.0401],[92.5611,24.0392],[92.5654,24.0395],[92.5678,24.0382],[92.571,24.0458],[92.5736,24.0491],[92.5727,24.0585],[92.5727,24.0587],[92.5728,24.0612],[92.5761,24.0652],[92.5763,24.0654],[92.5768,24.0661],[92.5769,24.0678],[92.5741,24.0732],[92.574,24.0733],[92.5741,24.0733],[92.5742,24.0742],[92.5822,24.0743],[92.5834,24.0743],[92.5835,24.0743],[92.5836,24.0743],[92.5859,24.0731],[92.5861,24.0637],[92.5861,24.0636],[92.5862,24.0636],[92.587,24.0623],[92.5883,24.0613],[92.5924,24.0605],[92.5991,24.0525],[92.6014,24.0499],[92.6114,24.0499],[92.6145,24.0493],[92.616,24.0463],[92.617,24.04],[92.6192,24.0359],[92.6205,24.0335],[92.6207,24.0333],[92.6224,24.0314],[92.6263,24.0306],[92.6263,24.0307],[92.625,24.0345],[92.625,24.0371],[92.6251,24.0373],[92.6257,24.0384],[92.6274,24.039],[92.6297,24.0383],[92.6333,24.0347],[92.6383,24.0327],[92.6378,24.0312],[92.6366,24.0304],[92.6319,24.0291],[92.6298,24.026],[92.6295,24.0237],[92.6272,24.0204],[92.6272,24.0202],[92.6262,24.017],[92.6257,24.0125],[92.6257,24.0123],[92.6257,24.0121],[92.6231,24.0078],[92.623,24.0078],[92.6231,24.0078],[92.6244,24.0056],[92.6324,24.0003],[92.6327,23.9971],[92.6327,23.997],[92.6313,23.9952],[92.6313,23.9949],[92.6307,23.9927],[92.6306,23.9902],[92.6321,23.9856],[92.6321,23.9855],[92.6255,23.978],[92.6255,23.9779],[92.623,23.9699],[92.6202,23.9612],[92.6202,23.9611],[92.6202,23.9609],[92.6202,23.9573],[92.6274,23.9538]]]}},{"type":"Feature","properties":{"district":"Saiha","district_hi":"सैहा"},"geometry":{"type":"Polygon","coordinates":[[[92.8545,22.0636],[92.852,22.0709],[92.8483,22.0808],[92.8488,22.0883],[92.8475,22.0962],[92.8477,22.1054],[92.8452,22.1148],[92.8456,22.1239],[92.8482,22.1344],[92.8464,22.1416],[92.8461,22.1491],[92.8442,22.1602],[92.8437,22.1671],[92.8429,22.1819],[92.8412,22.1879],[92.8417,22.1951],[92.8407,22.2059],[92.8416,22.2164],[92.8406,22.2264],[92.8401,22.2327],[92.8389,22.2404],[92.8374,22.2448],[92.8358,22.2495],[92.8348,22.2552],[92.837,22.2641],[92.8363,22.2698],[92.8342,22.2747],[92.8374,22.2793],[92.8402,22.2874],[92.8371,22.2941],[92.8303,22.3003],[92.8277,22.3089],[92.8291,22.3138],[92.8285,22.3194],[92.8246,22.3252],[92.8259,22.3303],[92.8419,22.3312],[92.8524,22.323],[92.8657,22.3237],[92.8687,22.3278],[92.875,22.3437],[92.8807,22.3526],[92.8832,22.3569],[92.8872,22.3599],[92.8947,22.3639],[92.8999,22.3668],[92.9051,22.3722],[92.9107,22.3775],[92.9187,22.3837],[92.9228,22.3886],[92.9321,22.3948],[92.9395,22.392],[92.9433,22.3887],[92.9388,22.3842],[92.9408,22.379],[92.9569,22.3723],[92.9628,22.3775],[92.9667,22.3928],[92.9646,22.3971],[92.9528,22.4009],[92.9517,22.4067],[92.9482,22.4137],[92.9464,22.4236],[92.9452,22.4303],[92.9429,22.4385],[92.9419,22.458],[92.9462,22.4622],[92.9461,22.467],[92.94,22.4747],[92.9365,22.482],[92.936,22.498],[92.9411,22.5296],[92.9398,22.5397],[92.9375,22.5451],[92.9347,22.5546],[92.9409,22.5594],[92.945,22.5639],[92.9494,22.5752],[92.9503,22.5884],[92.949,22.5949],[92.9539,22.6019],[92.9517,22.6191],[92.9552,22.6274],[92.9519,22.6326],[92.9418,22.6451],[92.934,22.6634],[92.9339,22.6775],[92.933,22.6842],[92.937,22.7067],[92.9337,22.7137],[92.9211,22.7225],[92.9198,22.7281],[92.9186,22.7365],[92.9199,22.7642],[92.925,22.7714],[92.9275,22.7734],[92.9232,22.7778],[92.9214,22.7806],[92.9227,22.7806],[92.9228,22.7823],[92.9232,22.7845],[92.9238,22.7861],[92.9229,22.7876],[92.9223,22.7884],[92.9226,22.7905],[92.9238,22.7918],[92.9259,22.7927],[92.9274,22.7928],[92.9301,22.7923],[92.9314,22.7913],[92.9324,22.7908],[92.9343,22.7911],[92.9351,22.792],[92.9368,22.7919],[92.9385,22.7911],[92.94,22.7904],[92.9405,22.7904],[92.9414,22.7909],[92.9421,22.7917],[92.9431,22.791],[92.9436,22.7898],[92.944,22.7887],[92.9495,22.7859],[92.9578,22.7817],[92.9603,22.7805],[92.9604,22.7804],[92.9608,22.7798],[92.9683,22.7695],[92.9801,22.7575],[92.9885,22.7545],[92.9909,22.7537],[92.9912,22.7537],[92.9942,22.7538],[92.9999,22.7539],[93.0003,22.7539],[93.006,22.7535],[93.0088,22.7567],[93.0085,22.7626],[93.012,22.7679],[93.0131,22.7764],[93.0175,22.7797],[93.0192,22.7842],[93.0287,22.7834],[93.0315,22.7958],[93.0453,22.7936],[93.0558,22.7918],[93.061,22.7933],[93.0633,22.7939],[93.0633,22.8001],[93.0698,22.8022],[93.0786,22.8064],[93.0833,22.8049],[93.0864,22.804],[93.0833,22.8012],[93.0823,22.7978],[93.082,22.7971],[93.0903,22.7911],[93.0926,22.7897],[93.0972,22.7868],[93.1017,22.7841],[93.1056,22.7672],[93.109,22.75],[93.1103,22.7412],[93.1068,22.7348],[93.1022,22.7286],[93.0996,22.7244],[93.0985,22.7166],[93.0967,22.7113],[93.093,22.7081],[93.0956,22.6983],[93.1018,22.6932],[93.1044,22.6833],[93.1008,22.6757],[93.1011,22.6711],[93.105,22.6611],[93.1082,22.6561],[93.1121,22.6519],[93.116,22.6484],[93.1123,22.6362],[93.1218,22.627],[93.1271,22.6262],[93.1339,22.6198],[93.1366,22.6151],[93.1405,22.6046],[93.1418,22.5958],[93.143,22.5831],[93.1335,22.5785],[93.1312,22.5744],[93.1267,22.5715],[93.1219,22.5641],[93.1191,22.557],[93.113,22.5518],[93.114,22.5429],[93.1135,22.5375],[93.1092,22.5289],[93.1173,22.5258],[93.1233,22.5256],[93.1283,22.5231],[93.1311,22.517],[93.1281,22.511],[93.128,22.503],[93.1327,22.496],[93.1358,22.4836],[93.1337,22.4767],[93.132,22.4719],[93.1356,22.4664],[93.1395,22.4603],[93.1432,22.4555],[93.1541,22.4492],[93.1601,22.4507],[93.1728,22.4483],[93.1754,22.4436],[93.1795,22.4356],[93.1852,22.4306],[93.1881,22.4242],[93.1856,22.4159],[93.1862,22.4104],[93.1915,22.4058],[93.1928,22.4002],[93.1905,22.3961],[93.1896,22.3878],[93.1937,22.3811],[93.1899,22.3678],[93.1918,22.3604],[93.1944,22.3555],[93.1972,22.3405],[93.1967,22.3341],[93.1999,22.3306],[93.2038,22.3264],[93.1936,22.3216],[93.1967,22.3147],[93.1978,22.3101],[93.1985,22.303],[93.1989,22.2969],[93.1983,22.2889],[93.1988,22.2834],[93.1991,22.2778],[93.2011,22.2727],[93.2045,22.2666],[93.2058,22.258],[93.1936,22.2527],[93.1876,22.2467],[93.1809,22.2462],[93.1681,22.2467],[93.1632,22.246],[93.1576,22.2442],[93.1488,22.2452],[93.1437,22.2383],[93.1492,22.2318],[93.1537,22.2258],[93.1549,22.2202],[93.1535,22.2145],[93.1563,22.2069],[93.1631,22.2023],[93.167,22.1971],[93.1636,22.1908],[93.1602,22.1795],[93.1516,22.1754],[93.1456,22.174],[93.1359,22.174],[93.128,22.1763],[93.12,22.1862],[93.1172,22.1957],[93.1088,22.198],[93.0995,22.1961],[93.0946,22.1966],[93.0861,22.1999],[93.0789,22.2057],[93.0689,22.2055],[93.0571,22.2013],[93.0512,22.2007],[93.044,22.1951],[93.0439,22.1875],[93.051,22.1732],[93.0523,22.1628],[93.0493,22.1541],[93.0482,22.1476],[93.0453,22.1432],[93.0443,22.1361],[93.0514,22.1291],[93.0566,22.125],[93.0599,22.1183],[93.0637,22.1107],[93.0629,22.0995],[93.057,22.0972],[93.0494,22.0967],[93.0436,22.0988],[93.0365,22.1024],[93.0295,22.1024],[93.0203,22.1032],[93.0133,22.103],[93.0106,22.0957],[93.0129,22.0906],[93.0118,22.0828],[93.0091,22.077],[93.0054,22.0676],[93.0011,22.0588],[92.9981,22.0533],[92.9973,22.048],[92.9973,22.0372],[92.9989,22.0298],[93.0058,22.0175],[93.0077,22.0088],[93.0069,22.0003],[93.0075,21.9934],[93.0066,21.9816],[93.0039,21.9776],[92.9963,21.9757],[92.9897,21.9786],[92.9831,21.9878],[92.9791,21.9997],[92.9769,22.0042],[92.9705,22.0077],[92.9668,22.0119],[92.9643,22.018],[92.9639,22.0249],[92.9583,22.0279],[92.9532,22.0277],[92.9485,22.0237],[92.9395,22.0161],[92.9321,22.0179],[92.9331,22.0105],[92.9365,22.0064],[92.9296,21.9997],[92.9251,21.9938],[92.9222,21.985],[92.9196,21.9787],[92.9169,21.9717],[92.9131,21.963],[92.9119,21.9546],[92.9135,21.9473],[92.9083,21.9442],[92.9032,21.9515],[92.9022,21.9787],[92.8988,21.9883],[92.8938,22.0019],[92.8917,22.0099],[92.8869,22.0161],[92.8832,22.0195],[92.877,22.024],[92.8722,22.0281],[92.8699,22.0345],[92.8688,22.0447],[92.8677,22.0522],[92.8677,22.0588],[92.8652,22.0634],[92.8608,22.0656],[92.8545,22.0636]]]}},{"type":"Feature","properties":{"district":"Serchhip","district_hi":"सरछिप"},"geometry":{"type":"Polygon","coordinates":[[[92.6894,23.3281],[92.6916,23.3226],[92.702,23.2969],[92.7121,23.2979],[92.7362,23.3136],[92.7566,23.3047],[92.7657,23.3027],[92.7812,23.2995],[92.7912,23.2758],[92.8126,23.2728],[92.8275,23.2986],[92.8536,23.3226],[92.8312,23.3349],[92.812,23.3679],[92.82,23.3861],[92.834,23.4166],[92.8392,23.4276],[92.8523,23.4803],[92.8809,23.5187],[92.9136,23.5221],[92.9199,23.5226],[92.9476,23.5141],[92.9719,23.4776],[93.0191,23.434],[93.0362,23.4177],[93.0399,23.4147],[93.0446,23.4107],[93.0415,23.3795],[93.0408,23.3725],[93.0425,23.3606],[93.0452,23.3417],[93.0465,23.3149],[93.0449,23.3128],[93.0412,23.3079],[93.0148,23.2738],[93.0128,23.262],[93.0262,23.2495],[93.038,23.2445],[93.0506,23.2132],[93.0784,23.2066],[93.1308,23.1946],[93.1654,23.1791],[93.1836,23.1211],[93.1887,23.0981],[93.1934,23.0757],[93.1957,23.0649],[93.1966,23.0553],[93.1922,23.0569],[93.1886,23.0548],[93.1848,23.0538],[93.1807,23.0546],[93.1745,23.0497],[93.1699,23.0475],[93.1656,23.0457],[93.1598,23.0487],[93.1534,23.0548],[93.1452,23.0585],[93.1397,23.0574],[93.1381,23.0532],[93.1347,23.0501],[93.1307,23.0443],[93.1329,23.0384],[93.1336,23.032],[93.1321,23.0281],[93.1294,23.0227],[93.132,23.0167],[93.1336,23.0097],[93.128,23.0033],[93.1227,23.007],[93.1189,23.0097],[93.096,23.0255],[93.0836,23.0284],[93.082,23.0313],[93.0835,23.0339],[93.0806,23.0359],[93.0614,23.0442],[93.0461,23.0459],[93.0418,23.0495],[93.0424,23.0703],[93.0445,23.0743],[93.0433,23.0774],[93.0397,23.081],[93.0334,23.0809],[93.0271,23.0789],[93.0218,23.0789],[93.0069,23.0872],[92.9998,23.0928],[92.9952,23.0944],[92.994,23.0975],[92.9915,23.0973],[92.9903,23.099],[92.9895,23.1002],[92.9879,23.1],[92.9848,23.1043],[92.9677,23.1113],[92.9672,23.115],[92.9628,23.1147],[92.9604,23.1162],[92.9612,23.1303],[92.9622,23.1316],[92.9622,23.1345],[92.9601,23.1346],[92.961,23.1401],[92.9597,23.1415],[92.961,23.1478],[92.9578,23.1516],[92.9601,23.1575],[92.9569,23.1654],[92.9551,23.1665],[92.9508,23.1671],[92.9489,23.1692],[92.9398,23.1694],[92.9377,23.1714],[92.9363,23.1759],[92.9369,23.1807],[92.938,23.1826],[92.9383,23.1866],[92.936,23.187],[92.9322,23.1858],[92.9281,23.1861],[92.9255,23.1867],[92.9245,23.1883],[92.9222,23.1898],[92.9193,23.1848],[92.919,23.1847],[92.9175,23.1819],[92.9129,23.1803],[92.9083,23.1776],[92.9012,23.1772],[92.8975,23.1781],[92.8873,23.1692],[92.8843,23.1687],[92.8783,23.1694],[92.8753,23.1717],[92.8733,23.1742],[92.8719,23.1744],[92.8681,23.1729],[92.867,23.1744],[92.8671,23.1751],[92.8641,23.1755],[92.8652,23.18],[92.8628,23.1839],[92.8623,23.1864],[92.8593,23.1926],[92.8587,23.1959],[92.8618,23.2108],[92.8606,23.2151],[92.8575,23.2187],[92.8551,23.2201],[92.8544,23.2215],[92.8514,23.2235],[92.8494,23.2273],[92.85,23.2291],[92.849,23.2315],[92.8497,23.234],[92.8489,23.2342],[92.849,23.2349],[92.8491,23.2353],[92.8491,23.2366],[92.8467,23.2381],[92.8398,23.2412],[92.8388,23.2445],[92.8354,23.2456],[92.8258,23.2426],[92.8234,23.2414],[92.8215,23.2414],[92.8201,23.2395],[92.8189,23.2339],[92.8196,23.2285],[92.8184,23.2264],[92.8166,23.2255],[92.8025,23.2263],[92.7988,23.2277],[92.7907,23.2306],[92.7796,23.2286],[92.7734,23.2334],[92.7686,23.2325],[92.7667,23.2309],[92.7586,23.2268],[92.7567,23.2318],[92.755,23.2329],[92.7535,23.2334],[92.7492,23.233],[92.745,23.2342],[92.7409,23.2324],[92.7383,23.2372],[92.7363,23.2392],[92.7251,23.2407],[92.7246,23.2388],[92.7256,23.2283],[92.7274,23.2222],[92.726,23.2171],[92.7274,23.2104],[92.7249,23.2059],[92.7223,23.1919],[92.7164,23.1912],[92.7094,23.1925],[92.7061,23.1953],[92.7067,23.1973],[92.7034,23.1978],[92.7072,23.2043],[92.7075,23.2076],[92.6969,23.2165],[92.6947,23.2221],[92.6929,23.237],[92.6934,23.2397],[92.6915,23.2427],[92.6924,23.2482],[92.6933,23.2606],[92.6915,23.2693],[92.6893,23.2737],[92.6907,23.2793],[92.6874,23.2795],[92.6866,23.2803],[92.6886,23.285],[92.6871,23.2907],[92.6896,23.2972],[92.6919,23.3073],[92.6871,23.3115],[92.688,23.3173],[92.6842,23.3263],[92.6866,23.3272],[92.6875,23.3267],[92.6891,23.3274],[92.6894,23.3281]]]}},{"type":"Feature","properties":{"district":"Khawzawl","district_hi":"खौजोल"},"geometry":{"type":"Polygon","coordinates":[[[93.0446,23.4107],[93.0595,23.4164],[93.0449,23.4757],[93.0569,23.5556],[93.0458,23.6534],[93.0456,23.6666],[93.0467,23.6669],[93.0511,23.6667],[93.0563,23.6662],[93.0605,23.6655],[93.0636,23.6649],[93.0644,23.665],[93.0674,23.6665],[93.0772,23.6713],[93.0871,23.6532],[93.0965,23.6486],[93.1084,23.6428],[93.1086,23.6428],[93.1168,23.6434],[93.1323,23.6445],[93.1382,23.6496],[93.1447,23.6551],[93.1458,23.656],[93.1544,23.6587],[93.1626,23.6613],[93.1635,23.6632],[93.1706,23.68],[93.1683,23.7017],[93.1641,23.7089],[93.1593,23.7171],[93.1573,23.7445],[93.1608,23.7652],[93.1742,23.7711],[93.1886,23.7649],[93.1965,23.7479],[93.1967,23.7348],[93.205,23.7275],[93.228,23.729],[93.2428,23.7359],[93.2513,23.7393],[93.2598,23.7293],[93.2634,23.7134],[93.2665,23.7043],[93.2709,23.6913],[93.2753,23.6741],[93.2786,23.6583],[93.277,23.6394],[93.2748,23.6239],[93.2722,23.6117],[93.2672,23.6014],[93.2684,23.5976],[93.2707,23.5914],[93.2685,23.5884],[93.2663,23.5854],[93.2621,23.5793],[93.2602,23.572],[93.2744,23.555],[93.2765,23.5524],[93.2801,23.5409],[93.2792,23.5372],[93.2777,23.5315],[93.2736,23.5237],[93.2741,23.5194],[93.2743,23.518],[93.2747,23.5152],[93.2742,23.5109],[93.274,23.5094],[93.2739,23.5084],[93.2735,23.5053],[93.2714,23.502],[93.2707,23.501],[93.2693,23.4988],[93.2664,23.4943],[93.2615,23.4881],[93.2601,23.4863],[93.2581,23.4839],[93.2569,23.4813],[93.2538,23.4749],[93.2546,23.4742],[93.2563,23.4726],[93.2585,23.4706],[93.2597,23.4694],[93.2604,23.4603],[93.2607,23.4558],[93.2607,23.4495],[93.2607,23.4485],[93.2674,23.4497],[93.2692,23.4647],[93.2688,23.4699],[93.2682,23.4794],[93.2747,23.4847],[93.2918,23.4723],[93.2984,23.4675],[93.3139,23.4645],[93.3268,23.4692],[93.337,23.4783],[93.3554,23.4894],[93.3694,23.4935],[93.391,23.4968],[93.3946,23.4973],[93.3948,23.4958],[93.3947,23.495],[93.3952,23.4922],[93.3952,23.4916],[93.394,23.4896],[93.3941,23.4877],[93.3937,23.4865],[93.3939,23.4861],[93.3952,23.4862],[93.3958,23.4858],[93.3959,23.4854],[93.3956,23.4839],[93.3956,23.4823],[93.3953,23.4815],[93.3945,23.4809],[93.3929,23.4805],[93.3925,23.4801],[93.3921,23.479],[93.3925,23.4779],[93.3934,23.4774],[93.3938,23.4767],[93.3951,23.4752],[93.3959,23.4747],[93.3966,23.4753],[93.3975,23.4752],[93.3982,23.475],[93.3984,23.4746],[93.3981,23.4741],[93.3973,23.4739],[93.3973,23.473],[93.3978,23.4725],[93.399,23.4727],[93.3991,23.4721],[93.3983,23.471],[93.3979,23.4703],[93.3976,23.4693],[93.3974,23.4683],[93.3973,23.4665],[93.3969,23.4662],[93.3963,23.4662],[93.3949,23.4659],[93.3939,23.465],[93.3936,23.4645],[93.3935,23.4637],[93.3939,23.463],[93.3943,23.4622],[93.394,23.4617],[93.3935,23.4613],[93.3934,23.4607],[93.3935,23.4599],[93.3941,23.4592],[93.3943,23.4587],[93.394,23.4584],[93.3935,23.4582],[93.3928,23.4586],[93.3923,23.4584],[93.3918,23.4578],[93.3922,23.457],[93.3934,23.4567],[93.3941,23.4554],[93.3956,23.4545],[93.3958,23.454],[93.3956,23.4533],[93.3951,23.4528],[93.3934,23.4517],[93.3929,23.4509],[93.3927,23.4502],[93.3931,23.45],[93.3937,23.45],[93.3943,23.4495],[93.3947,23.4485],[93.3948,23.4481],[93.3946,23.4477],[93.3944,23.4478],[93.3941,23.448],[93.3932,23.448],[93.3921,23.4488],[93.3907,23.4509],[93.39,23.451],[93.3895,23.4504],[93.3884,23.4486],[93.3877,23.446],[93.388,23.4452],[93.3887,23.4442],[93.3911,23.4425],[93.3912,23.4417],[93.3909,23.4413],[93.3902,23.441],[93.3895,23.4399],[93.3895,23.4395],[93.3906,23.4373],[93.3906,23.4365],[93.39,23.4346],[93.3891,23.4331],[93.3891,23.4317],[93.3898,23.4302],[93.3905,23.4277],[93.3903,23.427],[93.3897,23.4257],[93.3896,23.4248],[93.3896,23.4234],[93.388,23.4228],[93.3878,23.4218],[93.3882,23.4206],[93.3888,23.42],[93.3901,23.4194],[93.3906,23.4188],[93.3905,23.4185],[93.3905,23.4177],[93.3901,23.4169],[93.39,23.4164],[93.3903,23.4157],[93.3903,23.4146],[93.3909,23.4121],[93.3912,23.4097],[93.3914,23.4076],[93.3921,23.4059],[93.393,23.4019],[93.3938,23.4],[93.3941,23.3989],[93.3939,23.3979],[93.3943,23.3973],[93.395,23.3972],[93.3967,23.3975],[93.3973,23.3974],[93.3978,23.3969],[93.398,23.396],[93.3979,23.3947],[93.3979,23.3933],[93.3984,23.3924],[93.4016,23.3903],[93.4023,23.3897],[93.4023,23.3891],[93.4023,23.3889],[93.4017,23.3878],[93.4012,23.3859],[93.4014,23.3843],[93.4014,23.3835],[93.4011,23.3829],[93.4004,23.3825],[93.3995,23.3825],[93.3991,23.3831],[93.3985,23.3838],[93.3978,23.384],[93.3968,23.3838],[93.3959,23.3825],[93.3959,23.3814],[93.3952,23.3801],[93.3951,23.3788],[93.3949,23.3773],[93.3945,23.3764],[93.3927,23.3751],[93.3919,23.3749],[93.3894,23.3751],[93.3872,23.3749],[93.3867,23.3745],[93.3864,23.3726],[93.3869,23.3715],[93.3881,23.3714],[93.3896,23.3715],[93.3906,23.3708],[93.3913,23.3698],[93.391,23.3694],[93.388,23.3684],[93.3876,23.3674],[93.388,23.367],[93.3887,23.367],[93.389,23.3668],[93.389,23.3662],[93.3891,23.3651],[93.3891,23.3646],[93.3883,23.3628],[93.3879,23.3608],[93.388,23.3604],[93.3876,23.3596],[93.3872,23.3594],[93.3869,23.3595],[93.386,23.36],[93.3856,23.3613],[93.385,23.3618],[93.3839,23.3622],[93.3832,23.3621],[93.3825,23.3613],[93.3824,23.3599],[93.382,23.3587],[93.3809,23.3584],[93.3805,23.3586],[93.3797,23.3604],[93.3792,23.3609],[93.3785,23.3609],[93.3778,23.3604],[93.3762,23.3599],[93.3746,23.359],[93.3732,23.3594],[93.371,23.3595],[93.37,23.3591],[93.3668,23.357],[93.3642,23.3562],[93.3622,23.3559],[93.3623,23.3562],[93.3624,23.3567],[93.3618,23.3569],[93.3613,23.3569],[93.3602,23.3562],[93.3595,23.3553],[93.3581,23.3544],[93.3563,23.3537],[93.3557,23.3533],[93.3554,23.3527],[93.3558,23.3519],[93.3558,23.3508],[93.3561,23.3502],[93.3564,23.3492],[93.357,23.3477],[93.3581,23.3467],[93.3583,23.3457],[93.3581,23.3442],[93.3577,23.3428],[93.3581,23.3422],[93.3592,23.3417],[93.36,23.3409],[93.3619,23.3373],[93.3638,23.3354],[93.3674,23.334],[93.3678,23.3338],[93.3695,23.3333],[93.3704,23.3325],[93.3706,23.3314],[93.3706,23.3312],[93.3714,23.3296],[93.3663,23.3301],[93.3575,23.3304],[93.356,23.3304],[93.3519,23.3318],[93.3473,23.3363],[93.3455,23.3393],[93.3369,23.3456],[93.3365,23.3459],[93.3364,23.3461],[93.3287,23.3517],[93.314,23.3479],[93.3,23.3361],[93.2972,23.3334],[93.2914,23.3332],[93.2898,23.3331],[93.285,23.3338],[93.2829,23.335],[93.2818,23.3356],[93.2797,23.3386],[93.2779,23.3417],[93.276,23.351],[93.275,23.3531],[93.2705,23.3628],[93.2706,23.3688],[93.2693,23.3756],[93.2691,23.3768],[93.2664,23.3845],[93.2665,23.3881],[93.2646,23.3918],[93.2641,23.3903],[93.2637,23.3895],[93.2629,23.389],[93.2622,23.3894],[93.2617,23.3903],[93.2611,23.3908],[93.261,23.3908],[93.258,23.39],[93.258,23.3898],[93.2588,23.3894],[93.2596,23.3887],[93.2599,23.3881],[93.2593,23.3875],[93.2579,23.3878],[93.2575,23.3883],[93.2566,23.389],[93.2554,23.3893],[93.2546,23.3891],[93.2465,23.3853],[93.2462,23.3846],[93.2452,23.3849],[93.2444,23.3856],[93.2441,23.386],[93.244,23.3861],[93.2427,23.3865],[93.2426,23.3865],[93.2414,23.3862],[93.2403,23.3869],[93.2402,23.3874],[93.2379,23.3881],[93.2374,23.3877],[93.2367,23.3879],[93.2294,23.3862],[93.2297,23.3855],[93.23,23.3848],[93.23,23.3842],[93.2295,23.3836],[93.2289,23.3835],[93.2288,23.3847],[93.2284,23.3851],[93.2277,23.3854],[93.2269,23.3856],[93.226,23.3835],[93.2261,23.3832],[93.2281,23.3808],[93.2282,23.3797],[93.2273,23.3787],[93.2268,23.3785],[93.2268,23.3782],[93.2266,23.3773],[93.2256,23.3773],[93.2234,23.3773],[93.2183,23.3743],[93.2183,23.3741],[93.2175,23.3738],[93.2173,23.3737],[93.2164,23.3731],[93.2163,23.3728],[93.2164,23.3722],[93.2171,23.3715],[93.218,23.3709],[93.2183,23.3702],[93.2184,23.3695],[93.218,23.3689],[93.2165,23.3687],[93.2154,23.3683],[93.2152,23.3675],[93.22,23.36],[93.2208,23.3595],[93.2211,23.3589],[93.2217,23.3581],[93.2218,23.3574],[93.2218,23.3572],[93.2219,23.3567],[93.2216,23.3561],[93.2209,23.3561],[93.2162,23.3505],[93.216,23.3501],[93.2154,23.3492],[93.2145,23.3484],[93.214,23.3483],[93.2133,23.3486],[93.2127,23.3489],[93.2099,23.3476],[93.2099,23.3469],[93.2093,23.3451],[93.209,23.3436],[93.2087,23.3421],[93.2083,23.3403],[93.2082,23.3389],[93.207,23.3389],[93.2051,23.3388],[93.2017,23.3406],[93.1923,23.3437],[93.1695,23.3452],[93.1552,23.3412],[93.1449,23.3327],[93.1398,23.3272],[93.1337,23.3238],[93.1326,23.3232],[93.1202,23.3224],[93.111,23.3214],[93.105,23.318],[93.0998,23.3148],[93.0982,23.3143],[93.0942,23.313],[93.0858,23.3129],[93.0813,23.3129],[93.0791,23.313],[93.0567,23.3134],[93.0477,23.3093],[93.0443,23.3084],[93.0429,23.3079],[93.0412,23.3079],[93.0449,23.3128],[93.0465,23.3149],[93.0452,23.3417],[93.0425,23.3606],[93.0408,23.3725],[93.0415,23.3795],[93.0446,23.4107]]]}},{"type":"Feature","properties":{"district":"Hnahthial","district_hi":"हनाहथियाल"},"geometry":{"type":"Polygon","coordinates":[[[92.9214,22.7806],[92.9167,22.7879],[92.9143,22.7912],[92.9141,22.7916],[92.9122,22.7965],[92.9064,22.7991],[92.9019,22.8025],[92.8954,22.8072],[92.8908,22.8111],[92.8888,22.8166],[92.8868,22.8224],[92.8868,22.823],[92.8875,22.8319],[92.8828,22.837],[92.8798,22.8402],[92.8797,22.8403],[92.8696,22.8528],[92.8716,22.8587],[92.8721,22.8599],[92.8763,22.8637],[92.878,22.8652],[92.8691,22.8766],[92.862,22.8742],[92.8575,22.8727],[92.8547,22.8718],[92.8539,22.8716],[92.8526,22.8762],[92.8544,22.88],[92.8613,22.8884],[92.8675,22.8964],[92.8693,22.8987],[92.8696,22.8992],[92.8693,22.8997],[92.8672,22.9033],[92.8669,22.9039],[92.8626,22.9111],[92.8604,22.9149],[92.8605,22.9156],[92.8676,22.9236],[92.8691,22.9253],[92.8877,22.9468],[92.8887,22.948],[92.8886,22.9491],[92.8875,22.9598],[92.8872,22.963],[92.8863,22.9711],[92.8872,22.9733],[92.8895,22.9791],[92.8899,22.98],[92.8895,22.9808],[92.8827,22.9967],[92.8821,23.0003],[92.8786,23.0205],[92.8776,23.0267],[92.875,23.0425],[92.875,23.0501],[92.875,23.0515],[92.8728,23.0613],[92.8727,23.0622],[92.8721,23.0752],[92.8672,23.0842],[92.8649,23.0883],[92.8601,23.0968],[92.8596,23.0979],[92.8643,23.1079],[92.8655,23.1139],[92.8623,23.119],[92.8613,23.1204],[92.8556,23.1312],[92.8554,23.1317],[92.86,23.1396],[92.8613,23.1419],[92.8613,23.1526],[92.8649,23.1639],[92.8637,23.1739],[92.8641,23.1755],[92.8671,23.1751],[92.867,23.1744],[92.8681,23.1729],[92.8719,23.1744],[92.8733,23.1742],[92.8753,23.1717],[92.8783,23.1694],[92.8843,23.1687],[92.8873,23.1692],[92.8975,23.1781],[92.9012,23.1772],[92.9083,23.1776],[92.9129,23.1803],[92.9175,23.1819],[92.919,23.1847],[92.9193,23.1848],[92.9222,23.1898],[92.9245,23.1883],[92.9255,23.1867],[92.9281,23.1861],[92.9322,23.1858],[92.936,23.187],[92.9383,23.1866],[92.938,23.1826],[92.9369,23.1807],[92.9363,23.1759],[92.9377,23.1714],[92.9398,23.1694],[92.9489,23.1692],[92.9508,23.1671],[92.9551,23.1665],[92.9569,23.1654],[92.9601,23.1575],[92.9578,23.1516],[92.961,23.1478],[92.9597,23.1415],[92.961,23.1401],[92.9601,23.1346],[92.9622,23.1345],[92.9622,23.1316],[92.9612,23.1303],[92.9604,23.1162],[92.9628,23.1147],[92.9672,23.115],[92.9677,23.1113],[92.9848,23.1043],[92.9879,23.1],[92.9895,23.1002],[92.9903,23.099],[92.9915,23.0973],[92.994,23.0975],[92.9952,23.0944],[92.9998,23.0928],[93.0069,23.0872],[93.0218,23.0789],[93.0271,23.0789],[93.0334,23.0809],[93.0397,23.081],[93.0433,23.0774],[93.0445,23.0743],[93.0424,23.0703],[93.0418,23.0495],[93.0461,23.0459],[93.0614,23.0442],[93.0806,23.0359],[93.0835,23.0339],[93.082,23.0313],[93.0836,23.0284],[93.096,23.0255],[93.1189,23.0097],[93.1227,23.007],[93.1216,23.0056],[93.1194,23.005],[93.1195,23.0031],[93.1209,23.0015],[93.1228,23.0018],[93.1255,23.0027],[93.1265,23.0019],[93.1263,22.9995],[93.127,22.9966],[93.13,22.9934],[93.1311,22.9914],[93.1336,22.9906],[93.1375,22.9916],[93.141,22.9907],[93.1412,22.9878],[93.1395,22.9866],[93.1389,22.9821],[93.1412,22.9784],[93.1437,22.9782],[93.1443,22.9762],[93.1431,22.9721],[93.1396,22.9716],[93.1355,22.9703],[93.1353,22.9679],[93.1383,22.961],[93.1412,22.9597],[93.1415,22.9554],[93.1376,22.9511],[93.1406,22.9489],[93.1448,22.9468],[93.1465,22.9429],[93.1452,22.9383],[93.1453,22.9334],[93.146,22.9277],[93.1503,22.9237],[93.1538,22.922],[93.1531,22.9202],[93.1537,22.9177],[93.1576,22.9177],[93.1618,22.9164],[93.165,22.9091],[93.1584,22.9086],[93.1503,22.9082],[93.1479,22.9107],[93.1392,22.9133],[93.1354,22.9119],[93.1297,22.9032],[93.1297,22.9006],[93.1318,22.8991],[93.1348,22.892],[93.13,22.883],[93.1275,22.879],[93.1262,22.876],[93.1278,22.8741],[93.1251,22.8682],[93.1201,22.8653],[93.1199,22.8582],[93.118,22.8548],[93.1166,22.8455],[93.1175,22.8426],[93.1149,22.8387],[93.1144,22.8356],[93.1103,22.8348],[93.1103,22.8328],[93.1131,22.8312],[93.1142,22.8298],[93.1124,22.8267],[93.1046,22.8258],[93.1041,22.8232],[93.1048,22.8209],[93.1108,22.8201],[93.1108,22.8174],[93.1084,22.8162],[93.1035,22.8115],[93.099,22.8097],[93.0953,22.8069],[93.0953,22.8037],[93.0974,22.8008],[93.0964,22.7989],[93.0965,22.7969],[93.0983,22.7957],[93.0978,22.7923],[93.0972,22.7868],[93.0926,22.7897],[93.0903,22.7911],[93.082,22.7971],[93.0823,22.7978],[93.0833,22.8012],[93.0864,22.804],[93.0833,22.8049],[93.0786,22.8064],[93.0698,22.8022],[93.0633,22.8001],[93.0633,22.7939],[93.061,22.7933],[93.0558,22.7918],[93.0453,22.7936],[93.0315,22.7958],[93.0287,22.7834],[93.0192,22.7842],[93.0175,22.7797],[93.0131,22.7764],[93.012,22.7679],[93.0085,22.7626],[93.0088,22.7567],[93.006,22.7535],[93.0003,22.7539],[92.9999,22.7539],[92.9942,22.7538],[92.9912,22.7537],[92.9909,22.7537],[92.9885,22.7545],[92.9801,22.7575],[92.9683,22.7695],[92.9608,22.7798],[92.9604,22.7804],[92.9603,22.7805],[92.9578,22.7817],[92.9495,22.7859],[92.944,22.7887],[92.9436,22.7898],[92.9431,22.791],[92.9421,22.7917],[92.9414,22.7909],[92.9405,22.7904],[92.94,22.7904],[92.9385,22.7911],[92.9368,22.7919],[92.9351,22.792],[92.9343,22.7911],[92.9324,22.7908],[92.9314,22.7913],[92.9301,22.7923],[92.9274,22.7928],[92.9259,22.7927],[92.9238,22.7918],[92.9226,22.7905],[92.9223,22.7884],[92.9229,22.7876],[92.9238,22.7861],[92.9232,22.7845],[92.9228,22.7823],[92.9227,22.7806],[92.9214,22.7806]]]}}]}