{"type":"FeatureCollection","features":[{"type":"Feature","properties":{"district":"Mon","district_hi":"मोन"},"geometry":{"type":"Polygon","coordinates":[[[95.122,26.348],[95.0821,26.3378],[95.0686,26.3375],[95.0375,26.3267],[95.0004,26.2935],[94.9669,26.297],[94.9421,26.3064],[94.9545,26.3309],[94.9524,26.3529],[94.91,26.3563],[94.9131,26.3801],[94.9128,26.3801],[94.9156,26.4031],[94.898,26.4391],[94.9018,26.46],[94.8891,26.4757],[94.8976,26.5054],[94.8824,26.5539],[94.8937,26.5602],[94.8796,26.5773],[94.8944,26.6045],[94.8835,26.6156],[94.8552,26.6101],[94.7873,26.6334],[94.7866,26.6338],[94.7877,26.6547],[94.7796,26.6586],[94.7902,26.6882],[94.7799,26.6984],[94.8054,26.6893],[94.834,26.7183],[94.8043,26.749],[94.7979,26.7608],[94.805,26.7678],[94.7944,26.7682],[94.7937,26.7685],[94.7969,26.7692],[94.8146,26.7769],[94.8142,26.78],[94.8036,26.7943],[94.7987,26.7954],[94.7909,26.7971],[94.7888,26.7975],[94.8025,26.8013],[94.7951,26.8142],[94.7955,26.8142],[94.8142,26.8198],[94.8174,26.8477],[94.8499,26.8746],[94.8658,26.9088],[94.8711,26.9133],[94.8824,26.9231],[94.8895,26.929],[94.9057,26.9374],[94.9241,26.9486],[94.9308,26.9325],[94.9587,26.9367],[94.9612,26.9371],[94.9824,26.913],[95.0167,26.921],[95.1018,26.9619],[95.1117,26.9807],[95.1934,27.0358],[95.1955,27.0351],[95.1916,26.9849],[95.2114,26.9664],[95.2022,26.958],[95.2068,26.942],[95.2301,26.9228],[95.2322,26.9029],[95.228,26.8809],[95.2086,26.8823],[95.181,26.8561],[95.2029,26.8463],[95.1973,26.8226],[95.2082,26.795],[95.2418,26.7828],[95.2425,26.7825],[95.2163,26.7556],[95.21,26.7287],[95.2329,26.7057],[95.234,26.683],[95.234,26.6823],[95.2086,26.6478],[95.181,26.6429],[95.1492,26.616],[95.1541,26.5828],[95.1393,26.556],[95.1252,26.5577],[95.1071,26.5413],[95.1142,26.5183],[95.0619,26.4499],[95.0662,26.4415],[95.0845,26.4474],[95.104,26.4206],[95.0997,26.394],[95.1291,26.385],[95.122,26.348]]]}},{"type":"Feature","properties":{"district":"Longleng","district_hi":"लोंगलेंग"},"geometry":{"type":"Polygon","coordinates":[[[94.7361,26.7497],[94.74,26.7762],[94.7584,26.7661],[94.77,26.7891],[94.7909,26.7971],[94.7987,26.7954],[94.8036,26.7943],[94.8142,26.78],[94.8146,26.7769],[94.7969,26.7692],[94.7937,26.7685],[94.7944,26.7682],[94.805,26.7678],[94.7979,26.7608],[94.8043,26.749],[94.834,26.7183],[94.8054,26.6893],[94.7799,26.6984],[94.7902,26.6882],[94.7796,26.6586],[94.7877,26.6547],[94.7866,26.6338],[94.7873,26.6334],[94.8552,26.6101],[94.8835,26.6156],[94.8944,26.6045],[94.8796,26.5773],[94.8937,26.5602],[94.8824,26.5539],[94.8976,26.5054],[94.8891,26.4757],[94.9018,26.46],[94.898,26.4391],[94.9156,26.4031],[94.9128,26.3801],[94.9124,26.3801],[94.8467,26.3822],[94.7658,26.4603],[94.7439,26.4621],[94.7093,26.446],[94.6884,26.4792],[94.6944,26.4973],[94.6877,26.5197],[94.7259,26.5654],[94.7329,26.6006],[94.7333,26.601],[94.7068,26.6383],[94.669,26.6485],[94.7195,26.6806],[94.7241,26.698],[94.7492,26.6984],[94.7435,26.7315],[94.7566,26.7294],[94.7361,26.7497]]]}},{"type":"Feature","properties":{"district":"Mokokchung","district_hi":"मोकोकचुंग"},"geometry":{"type":"Polygon","coordinates":[[[94.7361,26.7497],[94.7566,26.7294],[94.7435,26.7315],[94.7492,26.6984],[94.7241,26.698],[94.7195,26.6806],[94.669,26.6485],[94.7068,26.6383],[94.7333,26.601],[94.7329,26.6006],[94.7259,26.5654],[94.6877,26.5197],[94.6944,26.4973],[94.6884,26.4792],[94.7093,26.446],[94.7089,26.4425],[94.7075,26.4349],[94.7025,26.4083],[94.6934,26.4129],[94.6782,26.3815],[94.6573,26.3759],[94.6637,26.3714],[94.6506,26.3385],[94.6145,26.3263],[94.5926,26.2956],[94.5827,26.3009],[94.5817,26.2897],[94.5644,26.2876],[94.5637,26.2838],[94.5598,26.2558],[94.5831,26.2384],[94.5835,26.2202],[94.5835,26.2188],[94.5534,26.2017],[94.5312,26.2167],[94.4997,26.2143],[94.499,26.2143],[94.4979,26.229],[94.516,26.2394],[94.4873,26.281],[94.4806,26.2907],[94.4743,26.2817],[94.4456,26.2059],[94.4054,26.2115],[94.3711,26.193],[94.3721,26.1958],[94.3824,26.2255],[94.3728,26.2314],[94.3357,26.2401],[94.3354,26.2405],[94.335,26.2405],[94.3594,26.2687],[94.352,26.3099],[94.3661,26.3368],[94.3435,26.3316],[94.3587,26.3567],[94.3301,26.3954],[94.3248,26.4017],[94.3011,26.3773],[94.3039,26.394],[94.2902,26.4178],[94.3135,26.46],[94.3138,26.4607],[94.3167,26.4583],[94.3255,26.482],[94.3523,26.49],[94.3527,26.49],[94.3527,26.4904],[94.3478,26.5047],[94.3721,26.5061],[94.376,26.5218],[94.4008,26.5343],[94.4131,26.5773],[94.4029,26.6108],[94.4513,26.6362],[94.4654,26.6331],[94.4531,26.6526],[94.4601,26.6617],[94.4926,26.6659],[94.5082,26.6854],[94.5174,26.682],[94.5206,26.6994],[94.5623,26.7053],[94.5594,26.6865],[94.5668,26.6837],[94.5771,26.7008],[94.5937,26.6973],[94.5933,26.7151],[94.5955,26.7144],[94.6029,26.7116],[94.6015,26.713],[94.5948,26.7179],[94.5912,26.721],[94.5859,26.7252],[94.5948,26.7298],[94.5969,26.7347],[94.6082,26.7367],[94.6092,26.7371],[94.6096,26.7371],[94.6202,26.7123],[94.6923,26.7319],[94.7372,26.7626],[94.7361,26.7497]]]}},{"type":"Feature","properties":{"district":"Tuensang","district_hi":"तुएनसांग"},"geometry":{"type":"Polygon","coordinates":[[[94.7093,26.446],[94.7439,26.4621],[94.7658,26.4603],[94.8467,26.3822],[94.9124,26.3801],[94.9128,26.3801],[94.9131,26.3801],[94.91,26.3563],[94.9524,26.3529],[94.9545,26.3309],[94.9421,26.3064],[94.9669,26.297],[95.0004,26.2935],[95.0375,26.3267],[95.0686,26.3375],[95.0821,26.3378],[95.122,26.348],[95.1283,26.3396],[95.1195,26.2649],[95.1273,26.2537],[95.1146,26.2328],[95.1425,26.2115],[95.122,26.185],[95.117,26.1588],[95.1262,26.1291],[95.116,26.1075],[95.1496,26.0869],[95.1647,26.0925],[95.1856,26.0733],[95.1259,25.9861],[95.0891,25.9505],[95.0439,25.9271],[95.0308,25.9313],[95.0135,25.8911],[95.0135,25.8908],[94.9729,25.8817],[94.9679,25.9016],[94.9372,25.9128],[94.928,25.9459],[94.9252,25.9487],[94.9103,25.9484],[94.8944,25.9424],[94.864,25.948],[94.8425,25.9337],[94.8577,25.9721],[94.8881,26.0084],[94.8803,26.0182],[94.8644,26.0164],[94.8453,26.0412],[94.7866,26.0091],[94.7665,26.0231],[94.7184,26.0231],[94.6891,26.0098],[94.6693,26.0203],[94.7047,26.0489],[94.6873,26.1152],[94.7057,26.1717],[94.6965,26.1714],[94.6895,26.1982],[94.6665,26.2126],[94.6566,26.2031],[94.6382,26.2171],[94.6124,26.1934],[94.5997,26.1976],[94.5835,26.2188],[94.5835,26.2202],[94.5831,26.2384],[94.5598,26.2558],[94.5637,26.2838],[94.5644,26.2876],[94.5817,26.2897],[94.5827,26.3009],[94.5926,26.2956],[94.6145,26.3263],[94.6506,26.3385],[94.6637,26.3714],[94.6573,26.3759],[94.6782,26.3815],[94.6934,26.4129],[94.7025,26.4083],[94.7075,26.4349],[94.7089,26.4425],[94.7093,26.446]]]}},{"type":"Feature","properties":{"district":"Kiphire","district_hi":"किफिरे"},"geometry":{"type":"Polygon","coordinates":[[[94.6693,26.0203],[94.6891,26.0098],[94.7184,26.0231],[94.7665,26.0231],[94.7866,26.0091],[94.8453,26.0412],[94.8644,26.0164],[94.8803,26.0182],[94.8881,26.0084],[94.8577,25.9721],[94.8425,25.9337],[94.864,25.948],[94.8944,25.9424],[94.9103,25.9484],[94.9252,25.9487],[94.928,25.9459],[94.9372,25.9128],[94.9679,25.9016],[94.9729,25.8817],[95.0135,25.8908],[95.0135,25.8911],[95.0149,25.8915],[95.0089,25.8671],[95.0294,25.8402],[95.0329,25.8144],[95.0499,25.8007],[95.0404,25.7418],[95.0033,25.7285],[94.9704,25.6887],[94.9365,25.6681],[94.9149,25.6074],[94.8831,25.5861],[94.8661,25.6088],[94.8513,25.6105],[94.846,25.65],[94.8566,25.7173],[94.8195,25.7631],[94.8192,25.7638],[94.7552,25.7822],[94.7252,25.7484],[94.7255,25.746],[94.7269,25.7254],[94.7269,25.725],[94.7234,25.724],[94.7174,25.7222],[94.7163,25.7302],[94.7128,25.7592],[94.6873,25.7969],[94.6849,25.8004],[94.6605,25.8112],[94.6527,25.8147],[94.6513,25.8154],[94.6103,25.8178],[94.5958,25.8754],[94.5697,25.8894],[94.6693,26.0203]]]}},{"type":"Feature","properties":{"district":"Peren","district_hi":"पेरेन"},"geometry":{"type":"Polygon","coordinates":[[[93.5127,25.6751],[93.6594,25.6496],[93.7947,25.6692],[93.8834,25.6584],[93.9287,25.6709],[93.929,25.6584],[93.9294,25.6248],[93.9142,25.6224],[93.9142,25.613],[93.94,25.5861],[93.9357,25.5589],[93.8887,25.5652],[93.8612,25.5533],[93.8343,25.5606],[93.8166,25.5404],[93.765,25.5386],[93.765,25.5383],[93.7647,25.5366],[93.7583,25.5041],[93.7615,25.4996],[93.764,25.4964],[93.7665,25.4936],[93.7859,25.5027],[93.787,25.5031],[93.8004,25.4964],[93.8099,25.4839],[93.805,25.4633],[93.7742,25.4196],[93.7421,25.4039],[93.7092,25.3572],[93.6866,25.36],[93.6817,25.3289],[93.6647,25.3258],[93.6675,25.3108],[93.6053,25.1991],[93.588,25.2012],[93.5841,25.2218],[93.5562,25.2458],[93.5559,25.2458],[93.5018,25.2424],[93.5064,25.2692],[93.4721,25.2717],[93.4721,25.3034],[93.47,25.3059],[93.4484,25.3408],[93.4721,25.3837],[93.4732,25.3854],[93.4707,25.3882],[93.458,25.4312],[93.4562,25.4326],[93.4559,25.4339],[93.453,25.435],[93.4248,25.4465],[93.3901,25.4605],[93.3912,25.4825],[93.3862,25.4859],[93.3855,25.4905],[93.359,25.5153],[93.3502,25.5324],[93.3301,25.5425],[93.3301,25.5421],[93.329,25.5432],[93.3371,25.5547],[93.341,25.5582],[93.3587,25.5547],[93.4265,25.6322],[93.4442,25.6399],[93.4608,25.6325],[93.4573,25.6413],[93.4901,25.6524],[93.4965,25.6545],[93.5028,25.665],[93.5127,25.6751]]]}},{"type":"Feature","properties":{"district":"Wokha","district_hi":"वोखा"},"geometry":{"type":"Polygon","coordinates":[[[94.3138,26.4607],[94.3135,26.46],[94.2902,26.4178],[94.3039,26.394],[94.3011,26.3773],[94.3248,26.4017],[94.3301,26.3954],[94.3587,26.3567],[94.3435,26.3316],[94.3661,26.3368],[94.352,26.3099],[94.3594,26.2687],[94.335,26.2405],[94.3354,26.2405],[94.3357,26.2401],[94.3728,26.2314],[94.3824,26.2255],[94.3721,26.1958],[94.3354,26.1784],[94.387,26.1159],[94.3799,26.1005],[94.3905,26.0838],[94.3576,26.0217],[94.3626,26.0084],[94.3364,25.9993],[94.3174,26.0185],[94.317,26.0182],[94.2997,26.0063],[94.2743,26.0094],[94.275,26.0042],[94.2446,26.0018],[94.2414,26.0039],[94.2237,26.0154],[94.2191,26.0185],[94.1926,25.9892],[94.1608,25.9728],[94.1396,25.9923],[94.1,25.9854],[94.0976,25.9916],[94.0022,25.9906],[93.9725,25.9923],[93.9541,25.9693],[93.953,26.0032],[93.9622,26.0367],[93.9873,26.067],[93.9813,26.0813],[93.9979,26.1096],[93.9866,26.1141],[93.9976,26.1288],[93.9891,26.1309],[94.0022,26.1344],[93.9944,26.1483],[94.0011,26.1724],[94.0318,26.1976],[94.0477,26.2496],[94.0746,26.2646],[94.0746,26.2838],[94.0841,26.2834],[94.105,26.32],[94.1216,26.318],[94.1159,26.3298],[94.1449,26.3305],[94.1605,26.3378],[94.1718,26.3434],[94.1778,26.3462],[94.1679,26.3469],[94.1633,26.3511],[94.1711,26.363],[94.1711,26.372],[94.1718,26.43],[94.1831,26.4555],[94.2364,26.5061],[94.2435,26.519],[94.2824,26.5595],[94.2841,26.5609],[94.2898,26.4799],[94.3138,26.4607]]]}},{"type":"Feature","properties":{"district":"Zunheboto","district_hi":"जुन्हेबोटो"},"geometry":{"type":"Polygon","coordinates":[[[94.3721,26.1958],[94.3711,26.193],[94.4054,26.2115],[94.4456,26.2059],[94.4743,26.2817],[94.4806,26.2907],[94.4873,26.281],[94.516,26.2394],[94.4979,26.229],[94.499,26.2143],[94.4997,26.2143],[94.5312,26.2167],[94.5534,26.2017],[94.5835,26.2188],[94.5997,26.1976],[94.6124,26.1934],[94.6382,26.2171],[94.6566,26.2031],[94.6665,26.2126],[94.6895,26.1982],[94.6965,26.1714],[94.7057,26.1717],[94.6873,26.1152],[94.7047,26.0489],[94.6693,26.0203],[94.5697,25.8894],[94.5958,25.8754],[94.6103,25.8178],[94.6513,25.8154],[94.6527,25.8147],[94.6605,25.8112],[94.6849,25.8004],[94.6873,25.7969],[94.7128,25.7592],[94.6958,25.7575],[94.6584,25.7777],[94.6365,25.7693],[94.6068,25.7784],[94.5594,25.732],[94.5534,25.7795],[94.5354,25.7843],[94.5418,25.8119],[94.5181,25.8248],[94.511,25.8164],[94.4944,25.8315],[94.4654,25.8304],[94.4569,25.8534],[94.3803,25.8318],[94.2859,25.7882],[94.2732,25.7948],[94.2962,25.8098],[94.2679,25.8095],[94.2145,25.8758],[94.2439,25.9222],[94.2838,25.9393],[94.275,26.0042],[94.2743,26.0094],[94.2997,26.0063],[94.317,26.0182],[94.3174,26.0185],[94.3364,25.9993],[94.3626,26.0084],[94.3576,26.0217],[94.3905,26.0838],[94.3799,26.1005],[94.387,26.1159],[94.3354,26.1784],[94.3721,26.1958]]]}},{"type":"Feature","properties":{"district":"Phek","district_hi":"फेक"},"geometry":{"type":"Polygon","coordinates":[[[94.8831,25.5861],[94.8983,25.5655],[94.8457,25.5613],[94.8252,25.5425],[94.8078,25.494],[94.7838,25.4807],[94.7619,25.4821],[94.7517,25.4936],[94.7181,25.4692],[94.6835,25.4661],[94.6753,25.4455],[94.6163,25.4622],[94.6153,25.4633],[94.5767,25.4957],[94.557,25.5017],[94.5541,25.5037],[94.5665,25.5481],[94.5559,25.5547],[94.5644,25.5634],[94.5509,25.5795],[94.5835,25.6343],[94.5933,25.6357],[94.5739,25.6406],[94.5863,25.6639],[94.5803,25.6688],[94.5965,25.6824],[94.5958,25.6824],[94.5803,25.6887],[94.5732,25.6915],[94.5729,25.6915],[94.5718,25.6919],[94.5308,25.6437],[94.5209,25.6388],[94.4972,25.6137],[94.4887,25.6046],[94.481,25.614],[94.4778,25.614],[94.4251,25.5865],[94.4167,25.5366],[94.3852,25.5324],[94.3216,25.5031],[94.2845,25.5079],[94.2499,25.4943],[94.2326,25.495],[94.2145,25.4957],[94.2085,25.4961],[94.1979,25.5125],[94.1877,25.5289],[94.1859,25.5317],[94.1894,25.5477],[94.1898,25.5491],[94.1969,25.5819],[94.2142,25.6098],[94.2082,25.6283],[94.2202,25.657],[94.2131,25.6716],[94.2728,25.7948],[94.2732,25.7948],[94.2859,25.7882],[94.3803,25.8318],[94.4569,25.8534],[94.4654,25.8304],[94.4944,25.8315],[94.511,25.8164],[94.5181,25.8248],[94.5418,25.8119],[94.5354,25.7843],[94.5534,25.7795],[94.5594,25.732],[94.6068,25.7784],[94.6365,25.7693],[94.6584,25.7777],[94.6958,25.7575],[94.7128,25.7592],[94.7163,25.7302],[94.7174,25.7222],[94.7234,25.724],[94.7269,25.725],[94.7269,25.7254],[94.7255,25.746],[94.7252,25.7484],[94.7552,25.7822],[94.8192,25.7638],[94.8195,25.7631],[94.8566,25.7173],[94.846,25.65],[94.8513,25.6105],[94.8661,25.6088],[94.8831,25.5861]]]}},{"type":"Feature","properties":{"district":"Kohima","district_hi":"कोहिमा"},"geometry":{"type":"Polygon","coordinates":[[[93.9357,25.5589],[93.94,25.5861],[93.9142,25.613],[93.9142,25.6224],[93.9294,25.6248],[93.929,25.6584],[93.9287,25.6709],[93.9308,25.6723],[93.9643,25.6933],[94.0113,25.8067],[94.0174,25.8458],[93.9774,25.8828],[94.0135,25.9505],[94.0022,25.9906],[94.0976,25.9916],[94.1,25.9854],[94.1396,25.9923],[94.1608,25.9728],[94.1926,25.9892],[94.2191,26.0185],[94.2237,26.0154],[94.2414,26.0039],[94.2446,26.0018],[94.275,26.0042],[94.2838,25.9393],[94.2439,25.9222],[94.2145,25.8758],[94.2679,25.8095],[94.2962,25.8098],[94.2732,25.7948],[94.2728,25.7948],[94.2131,25.6716],[94.2202,25.657],[94.2082,25.6283],[94.2142,25.6098],[94.1969,25.5819],[94.1898,25.5491],[94.1781,25.5505],[94.1651,25.5414],[94.1562,25.5512],[94.1403,25.5195],[94.1082,25.5219],[94.0845,25.5303],[94.094,25.5373],[94.0848,25.5547],[94.0672,25.5523],[94.0481,25.5756],[94.0382,25.5701],[94.0128,25.5927],[94.0022,25.5865],[94.0071,25.5687],[94.006,25.5673],[93.9831,25.5683],[93.9573,25.5512],[93.9488,25.553],[93.9357,25.5589]]]}},{"type":"Feature","properties":{"district":"Dimapur","district_hi":"दीमापुर"},"geometry":{"type":"Polygon","coordinates":[[[93.9541,25.9693],[93.9725,25.9923],[94.0022,25.9906],[94.0135,25.9505],[93.9774,25.8828],[94.0174,25.8458],[94.0113,25.8067],[93.9643,25.6933],[93.9308,25.6723],[93.9287,25.6709],[93.8834,25.6584],[93.7947,25.6692],[93.6594,25.6496],[93.5127,25.6751],[93.5223,25.6978],[93.5272,25.6912],[93.541,25.6988],[93.5424,25.7309],[93.5615,25.7379],[93.5679,25.7585],[93.5778,25.7547],[93.6173,25.776],[93.6248,25.8025],[93.646,25.8224],[93.6682,25.822],[93.6884,25.8461],[93.7142,25.8447],[93.7021,25.8517],[93.6813,25.9044],[93.7513,25.933],[93.7456,25.9424],[93.7562,25.9466],[93.7675,25.9505],[93.7675,25.9508],[93.7679,25.9512],[93.7654,25.969],[93.7735,25.969],[93.7757,25.9686],[93.7742,25.9655],[93.7954,25.9058],[93.7774,25.85],[93.7954,25.8091],[93.8396,25.8566],[93.8817,25.8433],[93.9159,25.8838],[93.934,25.8852],[93.9378,25.8964],[93.9785,25.917],[93.9686,25.9574],[93.9541,25.9693]]]}}]}