{"type":"FeatureCollection","features":[{"type":"Feature","properties":{"district":"Bhadrak","district_hi":"भद्रक"},"geometry":{"type":"Polygon","coordinates":[[[86.6218,20.7951],[86.6171,20.7994],[86.6247,20.8114],[86.6008,20.83],[86.5987,20.8535],[86.5987,20.8542],[86.5947,20.8548],[86.4959,20.8678],[86.4557,20.8411],[86.3881,20.8652],[86.3609,20.8486],[86.3284,20.862],[86.3396,20.8753],[86.3247,20.875],[86.3153,20.8933],[86.2824,20.9047],[86.2806,20.9083],[86.2907,20.9842],[86.2929,20.9996],[86.294,21.0084],[86.2864,21.0155],[86.2842,21.0211],[86.3085,21.0172],[86.3168,21.0563],[86.3251,21.0527],[86.3269,21.0576],[86.328,21.0605],[86.3284,21.0625],[86.3266,21.0648],[86.3096,21.0853],[86.3132,21.1114],[86.2839,21.1316],[86.2755,21.1443],[86.2802,21.1547],[86.294,21.1743],[86.3143,21.1684],[86.315,21.1681],[86.3327,21.1789],[86.3454,21.186],[86.3526,21.1903],[86.353,21.2001],[86.3544,21.2362],[86.3551,21.2362],[86.3667,21.2362],[86.3667,21.2366],[86.3808,21.2281],[86.4185,21.2056],[86.4214,21.2219],[86.434,21.2206],[86.4438,21.2001],[86.4268,21.1808],[86.4275,21.1808],[86.4282,21.1805],[86.4442,21.1736],[86.4449,21.1723],[86.4326,21.1609],[86.4496,21.1541],[86.4561,21.1622],[86.5154,21.1352],[86.5306,21.1603],[86.5625,21.1573],[86.5618,21.1424],[86.59,21.1163],[86.5932,21.097],[86.6287,21.0931],[86.6352,21.0856],[86.6251,21.0723],[86.6515,21.0615],[86.653,21.0605],[86.6472,21.0788],[86.6663,21.082],[86.6696,21.0941],[86.6696,21.0951],[86.6522,21.1084],[86.6729,21.1697],[86.6946,21.1652],[86.7061,21.1841],[86.7753,21.1707],[86.7575,21.1971],[86.7716,21.2043],[86.7702,21.2258],[86.785,21.2199],[86.8017,21.2307],[86.8404,21.204],[86.8581,21.2121],[86.8596,21.2144],[86.861,21.2151],[86.8408,21.1577],[86.8523,21.0944],[86.9768,20.861],[86.9775,20.8232],[86.9681,20.7919],[86.8657,20.7837],[86.8118,20.7528],[86.806,20.7352],[86.7981,20.7371],[86.7915,20.7387],[86.781,20.7413],[86.7763,20.7374],[86.7619,20.7358],[86.7564,20.7394],[86.7546,20.7436],[86.7651,20.7563],[86.7637,20.7593],[86.7615,20.7642],[86.7601,20.7671],[86.7583,20.7668],[86.7105,20.7596],[86.7061,20.7769],[86.6591,20.7964],[86.6464,20.786],[86.632,20.7951],[86.6309,20.7961],[86.6302,20.7951],[86.6218,20.7951]]]}},{"type":"Feature","properties":{"district":"Dhenkanal","district_hi":"ढेंकानाल"},"geometry":{"type":"Polygon","coordinates":[[[85.7118,21.1388],[85.6973,21.1362],[85.6814,21.1124],[85.7016,21.0745],[85.727,21.0638],[85.7313,21.0276],[85.7208,20.981],[85.7508,20.9927],[85.77,20.9875],[85.7802,20.9722],[85.8008,20.9676],[85.8276,20.9249],[85.8453,20.9327],[85.9173,20.9282],[85.9195,20.9011],[85.8985,20.847],[85.9535,20.8333],[85.9582,20.8401],[85.9698,20.8235],[86.0306,20.8088],[86.0183,20.7658],[86.0306,20.7413],[86.0237,20.7277],[85.9813,20.7371],[85.9593,20.7215],[85.9054,20.7156],[85.9075,20.7045],[85.9155,20.7012],[85.9097,20.6921],[85.9101,20.6898],[85.8884,20.6585],[85.8496,20.6686],[85.8102,20.6602],[85.787,20.6722],[85.7812,20.6631],[85.7624,20.6618],[85.7545,20.636],[85.7328,20.6439],[85.7208,20.64],[85.7114,20.6318],[85.7056,20.6243],[85.7063,20.6207],[85.7132,20.6149],[85.7089,20.6054],[85.6897,20.5963],[85.656,20.5503],[85.5992,20.5382],[85.5851,20.5138],[85.5037,20.5366],[85.4567,20.4844],[85.4147,20.5092],[85.4056,20.5092],[85.4082,20.488],[85.3998,20.4874],[85.3821,20.5004],[85.3499,20.4972],[85.2938,20.517],[85.2511,20.5187],[85.2113,20.5483],[85.1968,20.5673],[85.2077,20.5761],[85.1784,20.6012],[85.127,20.6162],[85.1346,20.6416],[85.1136,20.6836],[85.1404,20.7312],[85.1527,20.7335],[85.1599,20.7074],[85.1748,20.7019],[85.1636,20.6755],[85.1693,20.6618],[85.1701,20.6621],[85.1755,20.666],[85.1936,20.6781],[85.1929,20.6817],[85.1889,20.7003],[85.1889,20.7009],[85.2168,20.7524],[85.1965,20.787],[85.2555,20.7961],[85.2584,20.8747],[85.2482,20.8845],[85.2627,20.8939],[85.245,20.8982],[85.2395,20.9112],[85.2417,20.9653],[85.2594,20.9784],[85.2616,20.9803],[85.2587,20.9852],[85.2537,20.994],[85.2486,21.0022],[85.2059,21.0263],[85.1697,21.0507],[85.1679,21.0579],[85.1795,21.0758],[85.1849,21.0814],[85.2298,21.0726],[85.2721,21.175],[85.2902,21.1805],[85.317,21.158],[85.3333,21.1772],[85.3781,21.1675],[85.3937,21.1834],[85.3951,21.1818],[85.4682,21.1228],[85.4715,21.1202],[85.4979,21.1153],[85.5453,21.1671],[85.6065,21.1365],[85.6253,21.1609],[85.6633,21.1665],[85.6835,21.1857],[85.7074,21.1811],[85.7056,21.1688],[85.7281,21.1414],[85.7118,21.1388]]]}},{"type":"Feature","properties":{"district":"Jajpur","district_hi":"जाजपुर"},"geometry":{"type":"Polygon","coordinates":[[[86.2864,21.0155],[86.294,21.0084],[86.2929,20.9996],[86.2907,20.9842],[86.2806,20.9083],[86.2824,20.9047],[86.3153,20.8933],[86.3247,20.875],[86.3396,20.8753],[86.3284,20.862],[86.3609,20.8486],[86.3881,20.8652],[86.4557,20.8411],[86.4959,20.8678],[86.5947,20.8548],[86.5987,20.8542],[86.5987,20.8535],[86.6008,20.83],[86.6247,20.8114],[86.6171,20.7994],[86.6218,20.7951],[86.6247,20.7925],[86.6182,20.7775],[86.6175,20.7749],[86.6168,20.7749],[86.5647,20.7743],[86.5411,20.7524],[86.5382,20.7345],[86.561,20.7381],[86.5462,20.7215],[86.556,20.7065],[86.5259,20.6882],[86.514,20.6993],[86.5111,20.6872],[86.4876,20.6794],[86.4688,20.6892],[86.4521,20.6752],[86.4507,20.6475],[86.4264,20.6452],[86.4221,20.625],[86.4,20.6243],[86.3769,20.594],[86.3302,20.609],[86.3197,20.6305],[86.3146,20.5809],[86.2802,20.5813],[86.2773,20.5836],[86.2506,20.6054],[86.2086,20.6158],[86.2014,20.6325],[86.1836,20.6259],[86.1641,20.638],[86.1887,20.6393],[86.1872,20.6582],[86.1739,20.6445],[86.1449,20.6422],[86.117,20.6139],[86.087,20.6171],[86.0776,20.5946],[86.0414,20.5924],[86.0411,20.593],[86.0248,20.6126],[86.0041,20.6377],[85.9922,20.6523],[85.9853,20.6608],[85.9817,20.6618],[85.9654,20.6667],[85.9578,20.6849],[85.9166,20.7026],[85.9155,20.7012],[85.9075,20.7045],[85.9054,20.7156],[85.9593,20.7215],[85.9813,20.7371],[86.0237,20.7277],[86.0306,20.7413],[86.0183,20.7658],[86.0306,20.8088],[85.9698,20.8235],[85.9582,20.8401],[85.9535,20.8333],[85.8985,20.847],[85.9195,20.9011],[85.9173,20.9282],[85.8453,20.9327],[85.8276,20.9249],[85.8008,20.9676],[85.7802,20.9722],[85.77,20.9875],[85.7508,20.9927],[85.7208,20.981],[85.7313,21.0276],[85.727,21.0638],[85.7016,21.0745],[85.6814,21.1124],[85.6973,21.1362],[85.7118,21.1388],[85.7404,21.1394],[85.7447,21.143],[85.7617,21.145],[85.7621,21.145],[85.774,21.1055],[85.7787,21.1055],[85.8069,21.1065],[85.8221,21.0908],[85.8862,21.0863],[85.8873,21.0863],[85.888,21.0863],[85.9169,21.0925],[85.9289,21.1362],[85.9423,21.1287],[85.9752,21.143],[86.0273,21.1381],[86.0367,21.1606],[86.0653,21.1521],[86.0848,21.1691],[86.0747,21.1534],[86.0769,21.1296],[86.0534,21.1163],[86.0291,21.0719],[86.0494,21.0217],[86.0895,21.0198],[86.0932,21.054],[86.1131,21.055],[86.1337,21.0765],[86.2708,21.0299],[86.2864,21.0155]]]}},{"type":"Feature","properties":{"district":"Subarnapur","district_hi":"सुवर्णपुर"},"geometry":{"type":"Polygon","coordinates":[[[84.2792,20.9223],[84.2763,20.9187],[84.2683,20.9132],[84.268,20.9079],[84.2665,20.8819],[84.2665,20.8815],[84.235,20.8949],[84.2321,20.8949],[84.2303,20.8959],[84.222,20.8943],[84.1985,20.8907],[84.1923,20.8894],[84.1073,20.8379],[84.0411,20.8209],[84.0125,20.8405],[83.9369,20.8421],[83.8963,20.8173],[83.837,20.8255],[83.7853,20.8013],[83.7827,20.8004],[83.7625,20.7801],[83.7578,20.7172],[83.7158,20.6403],[83.7321,20.6227],[83.7303,20.609],[83.6839,20.5588],[83.6441,20.5366],[83.6018,20.5307],[83.5978,20.5356],[83.5971,20.5461],[83.6065,20.5689],[83.596,20.5793],[83.5949,20.6064],[83.6217,20.6331],[83.6282,20.6611],[83.6416,20.6713],[83.6365,20.6797],[83.6648,20.7045],[83.6785,20.7394],[83.6535,20.7456],[83.6561,20.7704],[83.6354,20.771],[83.6347,20.7955],[83.5935,20.7994],[83.5938,20.8206],[83.6224,20.8154],[83.6268,20.8258],[83.57,20.8453],[83.5765,20.8731],[83.6199,20.9027],[83.609,20.9304],[83.6394,20.9813],[83.575,20.9731],[83.5102,20.9793],[83.4903,20.9953],[83.4694,20.995],[83.4466,21.0162],[83.4571,21.0579],[83.4589,21.0592],[83.494,21.0406],[83.4918,21.0622],[83.5482,21.0768],[83.5949,21.1078],[83.6043,21.1283],[83.7129,21.1192],[83.7621,21.1427],[83.7682,21.1547],[83.7842,21.1515],[83.7997,21.1137],[83.8399,21.0934],[83.8464,21.0993],[83.8779,21.1626],[83.8945,21.1756],[83.9025,21.1753],[83.9843,21.1313],[83.9825,21.1169],[83.993,21.1091],[83.9886,21.0781],[84.0176,21.0517],[84.1424,21.0331],[84.1399,21.0126],[84.158,20.994],[84.1558,20.9745],[84.1923,20.9764],[84.2387,20.9226],[84.2792,20.9223]]]}},{"type":"Feature","properties":{"district":"Nuapada","district_hi":"नुआपाड़ा"},"geometry":{"type":"Polygon","coordinates":[[[82.6382,21.0886],[82.6704,21.0638],[82.6935,21.0204],[82.6874,20.9731],[82.6986,20.9376],[82.6939,20.9027],[82.6809,20.8851],[82.6841,20.8124],[82.6986,20.7599],[82.6863,20.7319],[82.7008,20.7283],[82.6943,20.6833],[82.695,20.6833],[82.72,20.6768],[82.7323,20.653],[82.7283,20.638],[82.7431,20.6295],[82.7297,20.5839],[82.7113,20.5692],[82.7062,20.503],[82.6845,20.46],[82.6874,20.4564],[82.6928,20.4502],[82.6972,20.445],[82.6975,20.4248],[82.6975,20.4245],[82.7308,20.3818],[82.7138,20.3586],[82.7178,20.3583],[82.7276,20.3573],[82.7728,20.3527],[82.8046,20.384],[82.8162,20.3795],[82.8137,20.3622],[82.7912,20.3456],[82.7894,20.3227],[82.8126,20.3257],[82.8151,20.357],[82.8357,20.3348],[82.8524,20.3361],[82.847,20.2895],[82.8368,20.2941],[82.835,20.3201],[82.8169,20.3162],[82.8115,20.2941],[82.8119,20.2941],[82.8263,20.2813],[82.8296,20.2784],[82.8462,20.2888],[82.8466,20.2885],[82.8564,20.2745],[82.852,20.2416],[82.8618,20.2298],[82.8473,20.194],[82.8177,20.1874],[82.8173,20.1842],[82.8162,20.1679],[82.8158,20.1666],[82.8206,20.1656],[82.8224,20.1646],[82.8137,20.1017],[82.7883,20.1033],[82.7551,20.0548],[82.7399,20.0528],[82.7449,20.0248],[82.7283,20.0235],[82.7279,20.0228],[82.7272,20.0218],[82.7167,20.0065],[82.7171,19.9984],[82.7178,19.9889],[82.6425,20.0052],[82.61,19.9902],[82.6027,19.9902],[82.551,20.0163],[82.5101,20.0166],[82.4797,20.0365],[82.3994,20.0567],[82.3986,20.1222],[82.3867,20.1451],[82.4218,20.2044],[82.4106,20.2422],[82.4221,20.2474],[82.4113,20.2644],[82.4381,20.2934],[82.4312,20.313],[82.4004,20.3407],[82.4211,20.3928],[82.4167,20.4075],[82.4381,20.4342],[82.4258,20.4453],[82.4185,20.4802],[82.3968,20.458],[82.3896,20.517],[82.3585,20.5281],[82.332,20.562],[82.3509,20.5813],[82.3469,20.6025],[82.3766,20.6325],[82.3686,20.6497],[82.374,20.6673],[82.3534,20.7009],[82.3491,20.7185],[82.348,20.7329],[82.3534,20.7358],[82.3425,20.8046],[82.3404,20.8336],[82.3454,20.8691],[82.3458,20.8731],[82.3396,20.8744],[82.3509,20.8894],[82.3646,20.8874],[82.3657,20.8695],[82.4062,20.8688],[82.4211,20.8304],[82.4598,20.8264],[82.4612,20.8281],[82.4656,20.8333],[82.4876,20.8603],[82.488,20.9086],[82.56,20.9467],[82.6295,21.0384],[82.6118,21.0736],[82.6306,21.0778],[82.6382,21.0886]]]}},{"type":"Feature","properties":{"district":"Balangir","district_hi":"बलांगिर"},"geometry":{"type":"Polygon","coordinates":[[[83.4571,21.0579],[83.4466,21.0162],[83.4694,20.995],[83.4903,20.9953],[83.5102,20.9793],[83.575,20.9731],[83.6394,20.9813],[83.609,20.9304],[83.6199,20.9027],[83.5765,20.8731],[83.57,20.8453],[83.6268,20.8258],[83.6224,20.8154],[83.5938,20.8206],[83.5935,20.7994],[83.6347,20.7955],[83.6354,20.771],[83.6561,20.7704],[83.6535,20.7456],[83.6785,20.7394],[83.6648,20.7045],[83.6365,20.6797],[83.6416,20.6713],[83.6282,20.6611],[83.6217,20.6331],[83.5949,20.6064],[83.596,20.5793],[83.6065,20.5689],[83.5971,20.5461],[83.5978,20.5356],[83.6018,20.5307],[83.604,20.5281],[83.6018,20.5275],[83.5812,20.5216],[83.5703,20.4848],[83.5833,20.4877],[83.6177,20.4584],[83.6199,20.4453],[83.664,20.4222],[83.6658,20.4212],[83.6582,20.414],[83.6557,20.3984],[83.651,20.3886],[83.651,20.3879],[83.6521,20.3677],[83.6521,20.3671],[83.6271,20.3677],[83.6271,20.3671],[83.6264,20.3671],[83.6253,20.3635],[83.6192,20.3511],[83.5765,20.3632],[83.57,20.3873],[83.5548,20.3997],[83.4994,20.4163],[83.49,20.4052],[83.4976,20.4346],[83.4864,20.4538],[83.486,20.4535],[83.4223,20.4029],[83.4082,20.3681],[83.3872,20.3469],[83.3641,20.3433],[83.3615,20.3175],[83.3,20.3051],[83.2848,20.28],[83.2378,20.2569],[83.2392,20.2298],[83.2251,20.2044],[83.1896,20.1764],[83.1448,20.1695],[83.1267,20.1949],[83.1017,20.192],[83.0912,20.2005],[83.0608,20.1861],[83.0344,20.1868],[83.016,20.1718],[82.9262,20.1803],[82.911,20.1679],[82.9096,20.1473],[82.8206,20.1656],[82.8158,20.1666],[82.8162,20.1679],[82.8173,20.1842],[82.8177,20.1874],[82.8473,20.194],[82.8618,20.2298],[82.852,20.2416],[82.8564,20.2745],[82.8466,20.2885],[82.8462,20.2888],[82.8296,20.2784],[82.8263,20.2813],[82.8119,20.2941],[82.8115,20.2941],[82.8169,20.3162],[82.835,20.3201],[82.8368,20.2941],[82.847,20.2895],[82.8524,20.3361],[82.8357,20.3348],[82.8151,20.357],[82.8126,20.3257],[82.7894,20.3227],[82.7912,20.3456],[82.8137,20.3622],[82.8162,20.3795],[82.8046,20.384],[82.7728,20.3527],[82.7276,20.3573],[82.7178,20.3583],[82.7138,20.3586],[82.7308,20.3818],[82.6975,20.4245],[82.6975,20.4248],[82.6972,20.445],[82.6928,20.4502],[82.6874,20.4564],[82.6845,20.46],[82.7062,20.503],[82.7113,20.5692],[82.7297,20.5839],[82.7431,20.6295],[82.7283,20.638],[82.7323,20.653],[82.72,20.6768],[82.695,20.6833],[82.6943,20.6833],[82.7008,20.7283],[82.708,20.727],[82.7348,20.7221],[82.7464,20.7694],[82.7717,20.801],[82.8886,20.9076],[82.9179,20.8995],[82.9258,20.8828],[82.9671,20.8929],[82.9805,20.8457],[83.0026,20.8486],[83.0145,20.8616],[83.0326,20.8528],[83.0869,20.8577],[83.1024,20.8747],[83.1303,20.8577],[83.1448,20.8809],[83.1915,20.8959],[83.2168,20.9301],[83.2515,20.9164],[83.2526,20.8972],[83.2772,20.8682],[83.2794,20.8418],[83.2848,20.8532],[83.3185,20.86],[83.329,20.8809],[83.3507,20.8731],[83.4049,20.889],[83.4158,20.9073],[83.38,20.9399],[83.3919,20.9634],[83.3865,20.9888],[83.3612,21.0031],[83.3326,20.9806],[83.3268,20.9947],[83.2957,21.0136],[83.3221,21.056],[83.3221,21.0563],[83.3423,21.0563],[83.3521,21.071],[83.3785,21.0605],[83.3919,21.0696],[83.4248,21.0302],[83.4571,21.0579]]]}},{"type":"Feature","properties":{"district":"Boudh","district_hi":"बौध"},"geometry":{"type":"Polygon","coordinates":[[[83.6018,20.5307],[83.6441,20.5366],[83.6839,20.5588],[83.7303,20.609],[83.7321,20.6227],[83.7158,20.6403],[83.7578,20.7172],[83.7625,20.7801],[83.7827,20.8004],[83.7853,20.8013],[83.837,20.8255],[83.8963,20.8173],[83.9369,20.8421],[84.0125,20.8405],[84.0411,20.8209],[84.1073,20.8379],[84.1923,20.8894],[84.1985,20.8907],[84.222,20.8943],[84.2303,20.8959],[84.2321,20.8949],[84.235,20.8949],[84.2665,20.8815],[84.2665,20.8812],[84.3027,20.8594],[84.3479,20.8323],[84.3512,20.8258],[84.349,20.7821],[84.349,20.7818],[84.3497,20.7808],[84.3602,20.7661],[84.3696,20.7616],[84.4127,20.7404],[84.4174,20.7384],[84.4185,20.7381],[84.4626,20.7355],[84.5158,20.7022],[84.5607,20.6902],[84.6392,20.6237],[84.7619,20.608],[84.7666,20.6034],[84.7901,20.5813],[84.7869,20.5506],[84.7662,20.5317],[84.7405,20.5408],[84.7127,20.5236],[84.7112,20.5066],[84.6968,20.4975],[84.6928,20.4701],[84.6808,20.46],[84.6913,20.4502],[84.6808,20.4326],[84.6468,20.4235],[84.6182,20.4342],[84.6041,20.4199],[84.59,20.4235],[84.5636,20.4111],[84.5426,20.4186],[84.51,20.3951],[84.4818,20.384],[84.4637,20.3977],[84.4648,20.4414],[84.4648,20.4457],[84.4648,20.446],[84.4554,20.4662],[84.4257,20.4854],[84.4337,20.5089],[84.3881,20.5304],[84.3812,20.5585],[84.3943,20.5761],[84.3798,20.5884],[84.3689,20.6507],[84.357,20.6709],[84.3201,20.6872],[84.3183,20.6885],[84.3175,20.6882],[84.2767,20.6722],[84.2806,20.6354],[84.2719,20.636],[84.2568,20.6018],[84.2253,20.5819],[84.1858,20.5842],[84.1761,20.5992],[84.1449,20.578],[84.1048,20.5917],[84.0603,20.5898],[84.0049,20.5686],[83.9796,20.5858],[83.938,20.5842],[83.9296,20.5963],[83.9409,20.6047],[83.9213,20.6103],[83.9126,20.5793],[83.8735,20.5823],[83.8413,20.5451],[83.8196,20.5444],[83.8193,20.5219],[83.7957,20.5089],[83.8113,20.4629],[83.8283,20.4522],[83.8131,20.4548],[83.8146,20.4362],[83.8062,20.4313],[83.786,20.4421],[83.7802,20.4072],[83.7194,20.4352],[83.6923,20.414],[83.6763,20.429],[83.6749,20.4303],[83.6709,20.4261],[83.6658,20.4212],[83.664,20.4222],[83.6199,20.4453],[83.6177,20.4584],[83.5833,20.4877],[83.5703,20.4848],[83.5812,20.5216],[83.6018,20.5275],[83.604,20.5281],[83.6018,20.5307]]]}},{"type":"Feature","properties":{"district":"Cuttack","district_hi":"कटक"},"geometry":{"type":"Polygon","coordinates":[[[85.127,20.6162],[85.1784,20.6012],[85.2077,20.5761],[85.1968,20.5673],[85.2113,20.5483],[85.2511,20.5187],[85.2938,20.517],[85.3499,20.4972],[85.3821,20.5004],[85.3998,20.4874],[85.4082,20.488],[85.4056,20.5092],[85.4147,20.5092],[85.4567,20.4844],[85.5037,20.5366],[85.5851,20.5138],[85.5992,20.5382],[85.656,20.5503],[85.6897,20.5963],[85.7089,20.6054],[85.7132,20.6149],[85.7063,20.6207],[85.7056,20.6243],[85.7114,20.6318],[85.7208,20.64],[85.7328,20.6439],[85.7545,20.636],[85.7624,20.6618],[85.7812,20.6631],[85.787,20.6722],[85.8102,20.6602],[85.8496,20.6686],[85.8884,20.6585],[85.9101,20.6898],[85.9097,20.6921],[85.9155,20.7012],[85.9166,20.7026],[85.9578,20.6849],[85.9654,20.6667],[85.9817,20.6618],[85.9853,20.6608],[85.9922,20.6523],[86.0041,20.6377],[86.0248,20.6126],[86.0411,20.593],[86.0414,20.5924],[86.0776,20.5946],[86.087,20.6171],[86.117,20.6139],[86.1449,20.6422],[86.1739,20.6445],[86.1872,20.6582],[86.1887,20.6393],[86.1641,20.638],[86.1836,20.6259],[86.2014,20.6325],[86.2086,20.6158],[86.2506,20.6054],[86.2773,20.5836],[86.2802,20.5813],[86.2726,20.5643],[86.2661,20.5633],[86.264,20.5604],[86.2708,20.5588],[86.2491,20.5386],[86.2495,20.5363],[86.2766,20.5184],[86.2683,20.5082],[86.2777,20.4962],[86.2625,20.4854],[86.2741,20.4548],[86.2647,20.4512],[86.2752,20.4466],[86.2687,20.4254],[86.2777,20.4225],[86.2654,20.4056],[86.273,20.3879],[86.2614,20.387],[86.2574,20.3749],[86.2517,20.3798],[86.2488,20.3674],[86.248,20.3648],[86.2368,20.3645],[86.2119,20.3635],[86.1988,20.3632],[86.1945,20.3694],[86.1644,20.3791],[86.1373,20.357],[86.104,20.3739],[86.0895,20.3622],[86.0892,20.3619],[86.0273,20.4016],[86.0266,20.402],[86.011,20.3775],[86.0392,20.2875],[86.0468,20.2791],[86.0667,20.2663],[86.0776,20.2445],[86.1507,20.2139],[86.1388,20.1953],[86.1681,20.1679],[86.1464,20.1728],[86.1417,20.1441],[86.1644,20.1141],[86.154,20.0913],[86.1829,20.0567],[86.1811,20.0541],[86.171,20.0394],[86.1254,20.0375],[86.1167,20.0473],[86.1174,20.0482],[86.1236,20.0593],[86.1145,20.0642],[86.1098,20.0665],[86.087,20.0583],[86.0754,20.0776],[86.0776,20.0792],[86.0885,20.0861],[86.0877,20.0896],[86.087,20.0932],[86.0856,20.1007],[86.0809,20.1043],[86.0443,20.1314],[86.0331,20.1398],[86.0316,20.1408],[86.0327,20.1408],[86.0443,20.1408],[86.0534,20.164],[86.0374,20.1793],[86.0215,20.1676],[86.0277,20.1822],[86.0172,20.1861],[86.0041,20.2246],[85.9897,20.2259],[85.9499,20.2712],[85.9311,20.2709],[85.9383,20.2826],[85.9101,20.3195],[85.9155,20.3276],[85.9274,20.3133],[85.9267,20.3296],[85.8996,20.3537],[85.8974,20.372],[85.8789,20.3573],[85.8659,20.4],[85.8239,20.4085],[85.8236,20.4085],[85.8163,20.431],[85.7986,20.4326],[85.7852,20.4339],[85.7852,20.4117],[85.7718,20.4042],[85.7711,20.4039],[85.7675,20.416],[85.7161,20.4042],[85.677,20.3244],[85.6647,20.3319],[85.643,20.3257],[85.6235,20.2924],[85.5652,20.2996],[85.5504,20.313],[85.5486,20.3019],[85.5243,20.3058],[85.5106,20.2911],[85.4592,20.2973],[85.4512,20.2644],[85.4194,20.2735],[85.4027,20.2611],[85.3984,20.2579],[85.3966,20.2686],[85.3818,20.2869],[85.3619,20.2764],[85.3546,20.2725],[85.3344,20.2781],[85.33,20.2784],[85.3543,20.3019],[85.3503,20.3348],[85.3727,20.3518],[85.3666,20.3671],[85.2714,20.3596],[85.1965,20.3808],[85.1585,20.3785],[84.949,20.4887],[84.8781,20.5021],[84.8484,20.5281],[84.8976,20.5823],[84.9432,20.5819],[84.9797,20.5653],[84.9877,20.5803],[85.0275,20.5898],[85.0554,20.5777],[85.0738,20.5813],[85.0908,20.6188],[85.1212,20.6126],[85.1216,20.6122],[85.1216,20.6129],[85.127,20.6162]]]}},{"type":"Feature","properties":{"district":"Kandhamal","district_hi":"कंधमाल"},"geometry":{"type":"Polygon","coordinates":[[[83.651,20.3886],[83.6557,20.3984],[83.6582,20.414],[83.6658,20.4212],[83.6709,20.4261],[83.6749,20.4303],[83.6763,20.429],[83.6923,20.414],[83.7194,20.4352],[83.7802,20.4072],[83.786,20.4421],[83.8062,20.4313],[83.8146,20.4362],[83.8131,20.4548],[83.8283,20.4522],[83.8113,20.4629],[83.7957,20.5089],[83.8193,20.5219],[83.8196,20.5444],[83.8413,20.5451],[83.8735,20.5823],[83.9126,20.5793],[83.9213,20.6103],[83.9409,20.6047],[83.9296,20.5963],[83.938,20.5842],[83.9796,20.5858],[84.0049,20.5686],[84.0603,20.5898],[84.1048,20.5917],[84.1449,20.578],[84.1761,20.5992],[84.1858,20.5842],[84.2253,20.5819],[84.2568,20.6018],[84.2719,20.636],[84.2806,20.6354],[84.2767,20.6722],[84.3175,20.6882],[84.3183,20.6885],[84.3201,20.6872],[84.357,20.6709],[84.3689,20.6507],[84.3798,20.5884],[84.3943,20.5761],[84.3812,20.5585],[84.3881,20.5304],[84.4337,20.5089],[84.4257,20.4854],[84.4554,20.4662],[84.4648,20.446],[84.4648,20.4457],[84.4648,20.4414],[84.4637,20.3977],[84.4818,20.384],[84.51,20.3951],[84.5205,20.3811],[84.5184,20.369],[84.4833,20.3478],[84.4934,20.3335],[84.5119,20.3377],[84.5148,20.3192],[84.543,20.3231],[84.552,20.2839],[84.5423,20.2507],[84.5437,20.2487],[84.5868,20.1744],[84.5871,20.1734],[84.5582,20.1575],[84.5607,20.1392],[84.526,20.1441],[84.5231,20.1526],[84.509,20.1366],[84.4869,20.1408],[84.4536,20.1669],[84.4587,20.1861],[84.4594,20.1881],[84.4583,20.1897],[84.4514,20.1998],[84.4507,20.1998],[84.4351,20.2005],[84.4348,20.2005],[84.4417,20.1467],[84.4044,20.0834],[84.4181,20.0495],[84.3635,20.0257],[84.3577,20.0329],[84.3226,19.9902],[84.3222,19.9902],[84.3356,19.9781],[84.3559,19.9896],[84.3899,19.956],[84.4047,19.9625],[84.4637,19.9534],[84.4616,19.8572],[84.4442,19.8448],[84.4442,19.8357],[84.4355,19.837],[84.4315,19.8399],[84.4127,19.8406],[84.3787,19.8458],[84.3584,19.8634],[84.3244,19.8722],[84.3063,19.9087],[84.2745,19.8797],[84.1851,19.8604],[84.1999,19.8353],[84.1739,19.8233],[84.1652,19.8054],[84.1732,19.7933],[84.1305,19.7802],[84.1598,19.7385],[84.1529,19.7248],[84.1815,19.7375],[84.2014,19.734],[84.1891,19.7059],[84.1992,19.687],[84.239,19.6652],[84.2473,19.6446],[84.2242,19.627],[84.2354,19.5951],[84.234,19.5732],[84.2155,19.585],[84.205,19.5797],[84.2068,19.5921],[84.2036,19.5931],[84.1529,19.5833],[84.1301,19.63],[84.1059,19.6231],[84.0831,19.6329],[84.0433,19.6273],[84.0273,19.6368],[84.0096,19.6189],[84.0035,19.6286],[83.9665,19.6238],[83.955,19.6361],[83.9401,19.6352],[83.9238,19.6635],[83.9361,19.6714],[83.9231,19.6776],[83.9112,19.6762],[83.8728,19.6717],[83.854,19.6857],[83.845,19.7092],[83.8327,19.7069],[83.8146,19.7206],[83.7914,19.7108],[83.7664,19.716],[83.7632,19.6766],[83.7422,19.6551],[83.7288,19.6547],[83.7227,19.6717],[83.6952,19.6909],[83.6477,19.658],[83.6347,19.6714],[83.6438,19.6965],[83.6322,19.7307],[83.6257,19.7447],[83.6079,19.7503],[83.6213,19.7754],[83.6192,19.8145],[83.6069,19.8161],[83.6,19.8344],[83.5855,19.823],[83.528,19.8549],[83.528,19.8556],[83.5269,19.8777],[83.5598,19.9299],[83.4998,19.9583],[83.4958,19.9602],[83.495,19.9605],[83.5005,19.9938],[83.5233,20.0166],[83.5424,20.0205],[83.5544,20.0538],[83.5685,20.0564],[83.5721,20.0854],[83.588,20.0991],[83.5844,20.1141],[83.6358,20.0874],[83.676,20.1108],[83.7107,20.1014],[83.7158,20.1291],[83.7266,20.1252],[83.7328,20.1473],[83.7625,20.164],[83.7737,20.1594],[83.79,20.1786],[83.7827,20.2125],[83.7317,20.2096],[83.7404,20.222],[83.719,20.237],[83.7176,20.2901],[83.7006,20.3518],[83.7056,20.3681],[83.6535,20.3847],[83.6539,20.3873],[83.651,20.3886]]]}},{"type":"Feature","properties":{"district":"Nayagarh","district_hi":"नयागढ़"},"geometry":{"type":"Polygon","coordinates":[[[84.51,20.3951],[84.5426,20.4186],[84.5636,20.4111],[84.59,20.4235],[84.6041,20.4199],[84.6182,20.4342],[84.6468,20.4235],[84.6808,20.4326],[84.6913,20.4502],[84.6808,20.46],[84.6928,20.4701],[84.6968,20.4975],[84.7112,20.5066],[84.7127,20.5236],[84.7405,20.5408],[84.7662,20.5317],[84.7869,20.5506],[84.7901,20.5813],[84.7666,20.6034],[84.8484,20.5281],[84.8781,20.5021],[84.949,20.4887],[85.1585,20.3785],[85.1965,20.3808],[85.2714,20.3596],[85.3666,20.3671],[85.3727,20.3518],[85.3503,20.3348],[85.3543,20.3019],[85.33,20.2784],[85.3289,20.2771],[85.3242,20.2582],[85.3409,20.2549],[85.3401,20.2526],[85.3398,20.2513],[85.3383,20.2465],[85.326,20.2448],[85.3224,20.2298],[85.2566,20.2266],[85.2544,20.2262],[85.2457,20.2109],[85.245,20.2099],[85.2443,20.2106],[85.2323,20.2194],[85.2276,20.2227],[85.2225,20.221],[85.2055,20.1979],[85.2001,20.1884],[85.2008,20.1845],[85.2131,20.1705],[85.203,20.1558],[85.212,20.1314],[85.2352,20.119],[85.2435,20.1187],[85.271,20.1486],[85.2714,20.1486],[85.3119,20.1548],[85.3126,20.1695],[85.3134,20.1702],[85.3246,20.178],[85.3275,20.1799],[85.3398,20.1711],[85.3467,20.1874],[85.3539,20.1874],[85.3586,20.1874],[85.3615,20.1874],[85.3633,20.1839],[85.3684,20.1738],[85.3698,20.1708],[85.3553,20.1438],[85.3854,20.1561],[85.3875,20.1369],[85.4132,20.1275],[85.4158,20.1268],[85.4009,20.0906],[85.3843,20.0919],[85.3803,20.0707],[85.4002,20.0352],[85.4147,20.0332],[85.415,20.0248],[85.4357,20.0287],[85.4147,19.9941],[85.4371,19.9964],[85.4501,19.9837],[85.4549,19.9706],[85.4353,19.9397],[85.4302,19.9397],[85.4179,19.924],[85.3839,19.9403],[85.3828,19.9521],[85.3604,19.9566],[85.3278,19.926],[85.2432,19.9061],[85.2106,19.9123],[85.1636,19.9048],[85.1617,19.9045],[85.123,19.9338],[85.0261,19.9012],[84.9446,19.8976],[84.9399,19.8973],[84.928,19.9084],[84.9074,19.908],[84.9208,19.9433],[84.9171,19.9521],[84.9012,19.9918],[84.9009,19.9918],[84.8625,20.0006],[84.8571,20.0303],[84.8118,20.0668],[84.7984,20.0906],[84.806,20.1138],[84.8223,20.1196],[84.8317,20.2165],[84.8314,20.2168],[84.7652,20.2465],[84.7358,20.2442],[84.7047,20.2787],[84.6997,20.2778],[84.6729,20.2742],[84.6722,20.2742],[84.6722,20.2738],[84.6479,20.2028],[84.598,20.1764],[84.585,20.1865],[84.5868,20.1744],[84.5437,20.2487],[84.5423,20.2507],[84.552,20.2839],[84.543,20.3231],[84.5148,20.3192],[84.5119,20.3377],[84.4934,20.3335],[84.4833,20.3478],[84.5184,20.369],[84.5205,20.3811],[84.51,20.3951]]]}},{"type":"Feature","properties":{"district":"Khordha","district_hi":"खोर्धा"},"geometry":{"type":"Polygon","coordinates":[[[85.33,20.2784],[85.3344,20.2781],[85.3546,20.2725],[85.3619,20.2764],[85.3818,20.2869],[85.3966,20.2686],[85.3984,20.2579],[85.4027,20.2611],[85.4194,20.2735],[85.4512,20.2644],[85.4592,20.2973],[85.5106,20.2911],[85.5243,20.3058],[85.5486,20.3019],[85.5504,20.313],[85.5652,20.2996],[85.6235,20.2924],[85.643,20.3257],[85.6647,20.3319],[85.677,20.3244],[85.7161,20.4042],[85.7675,20.416],[85.7711,20.4039],[85.7718,20.4042],[85.7852,20.4117],[85.7852,20.4339],[85.7986,20.4326],[85.8163,20.431],[85.8236,20.4085],[85.8239,20.4085],[85.8659,20.4],[85.8789,20.3573],[85.8974,20.372],[85.8996,20.3537],[85.9267,20.3296],[85.9274,20.3133],[85.9155,20.3276],[85.9101,20.3195],[85.9383,20.2826],[85.9311,20.2709],[85.9499,20.2712],[85.9897,20.2259],[86.0041,20.2246],[86.0172,20.1861],[86.0277,20.1822],[86.0215,20.1676],[86.0374,20.1793],[86.0534,20.164],[86.0443,20.1408],[86.0327,20.1408],[86.0316,20.1408],[86.0331,20.1398],[86.0443,20.1314],[86.0809,20.1043],[86.0812,20.1037],[86.0758,20.1033],[86.0715,20.1069],[86.0237,20.0997],[86.0049,20.1141],[85.9991,20.1069],[85.9596,20.1219],[85.9524,20.1125],[85.9477,20.1193],[85.9245,20.1131],[85.9046,20.1258],[85.8992,20.1102],[85.8822,20.1115],[85.8721,20.1235],[85.9036,20.1519],[85.8873,20.1835],[85.8518,20.2037],[85.8424,20.1979],[85.8569,20.1907],[85.8561,20.1747],[85.8442,20.1757],[85.8373,20.1917],[85.8254,20.1591],[85.8058,20.1614],[85.8001,20.1503],[85.7635,20.1685],[85.7646,20.1535],[85.7527,20.1467],[85.7592,20.1398],[85.7284,20.1496],[85.7205,20.1418],[85.7248,20.1281],[85.719,20.1431],[85.7034,20.1425],[85.6904,20.1584],[85.6745,20.1242],[85.6922,20.0955],[85.6712,20.0877],[85.6792,20.0678],[85.6499,20.0671],[85.6492,20.0971],[85.6318,20.1027],[85.6437,20.0818],[85.6188,20.0688],[85.6123,20.0378],[85.6307,20.0222],[85.6137,19.9928],[85.6065,19.9957],[85.6144,20.0195],[85.5913,19.997],[85.5717,20.0257],[85.5703,19.9984],[85.562,19.9957],[85.5706,19.9801],[85.5551,19.9746],[85.5663,19.9726],[85.5638,19.9547],[85.5504,19.9527],[85.5522,19.9628],[85.5316,19.9586],[85.5261,19.9785],[85.5059,19.9527],[85.5207,19.9397],[85.5073,19.9276],[85.5265,19.9439],[85.533,19.927],[85.5703,19.9152],[85.5641,19.8529],[85.5023,19.8683],[85.5026,19.8846],[85.4382,19.8833],[85.3865,19.8314],[85.3593,19.8223],[85.3293,19.7851],[85.2526,19.7675],[85.2497,19.7441],[85.2211,19.7421],[85.2196,19.7401],[85.2153,19.7349],[85.2026,19.719],[85.2001,19.7092],[85.199,19.7053],[85.1987,19.7036],[85.2128,19.6864],[85.1824,19.6723],[85.1824,19.6727],[85.1827,19.6782],[85.1379,19.7392],[85.0839,19.7705],[85.0724,19.7946],[85.0449,19.8063],[85.0043,19.8047],[84.9841,19.8203],[84.9692,19.8546],[84.9349,19.8751],[84.9399,19.8973],[84.9446,19.8976],[85.0261,19.9012],[85.123,19.9338],[85.1617,19.9045],[85.1636,19.9048],[85.2106,19.9123],[85.2432,19.9061],[85.3278,19.926],[85.3604,19.9566],[85.3828,19.9521],[85.3839,19.9403],[85.4179,19.924],[85.4302,19.9397],[85.4353,19.9397],[85.4549,19.9706],[85.4501,19.9837],[85.4371,19.9964],[85.4147,19.9941],[85.4357,20.0287],[85.415,20.0248],[85.4147,20.0332],[85.4002,20.0352],[85.3803,20.0707],[85.3843,20.0919],[85.4009,20.0906],[85.4158,20.1268],[85.4132,20.1275],[85.3875,20.1369],[85.3854,20.1561],[85.3553,20.1438],[85.3698,20.1708],[85.3684,20.1738],[85.3633,20.1839],[85.3615,20.1874],[85.3586,20.1874],[85.3539,20.1874],[85.3467,20.1874],[85.3398,20.1711],[85.3275,20.1799],[85.3246,20.178],[85.3134,20.1702],[85.3126,20.1695],[85.3119,20.1548],[85.2714,20.1486],[85.271,20.1486],[85.2435,20.1187],[85.2352,20.119],[85.212,20.1314],[85.203,20.1558],[85.2131,20.1705],[85.2008,20.1845],[85.2001,20.1884],[85.2055,20.1979],[85.2225,20.221],[85.2276,20.2227],[85.2323,20.2194],[85.2443,20.2106],[85.245,20.2099],[85.2457,20.2109],[85.2544,20.2262],[85.2566,20.2266],[85.3224,20.2298],[85.326,20.2448],[85.3383,20.2465],[85.3398,20.2513],[85.3401,20.2526],[85.3409,20.2549],[85.3242,20.2582],[85.3289,20.2771],[85.33,20.2784]]]}},{"type":"Feature","properties":{"district":"Kalahandi","district_hi":"कालाहांडी"},"geometry":{"type":"Polygon","coordinates":[[[82.7178,19.9889],[82.7171,19.9984],[82.7167,20.0065],[82.7272,20.0218],[82.7279,20.0228],[82.7283,20.0235],[82.7449,20.0248],[82.7399,20.0528],[82.7551,20.0548],[82.7883,20.1033],[82.8137,20.1017],[82.8224,20.1646],[82.8206,20.1656],[82.9096,20.1473],[82.911,20.1679],[82.9262,20.1803],[83.016,20.1718],[83.0344,20.1868],[83.0608,20.1861],[83.0912,20.2005],[83.1017,20.192],[83.1267,20.1949],[83.1448,20.1695],[83.1896,20.1764],[83.2251,20.2044],[83.2392,20.2298],[83.2378,20.2569],[83.2848,20.28],[83.3,20.3051],[83.3615,20.3175],[83.3641,20.3433],[83.3872,20.3469],[83.4082,20.3681],[83.4223,20.4029],[83.486,20.4535],[83.4864,20.4538],[83.4976,20.4346],[83.49,20.4052],[83.4994,20.4163],[83.5548,20.3997],[83.57,20.3873],[83.5765,20.3632],[83.6192,20.3511],[83.6253,20.3635],[83.6264,20.3671],[83.6271,20.3671],[83.6271,20.3677],[83.6521,20.3671],[83.6521,20.3677],[83.651,20.3879],[83.651,20.3886],[83.6539,20.3873],[83.6535,20.3847],[83.7056,20.3681],[83.7006,20.3518],[83.7176,20.2901],[83.719,20.237],[83.7404,20.222],[83.7317,20.2096],[83.7827,20.2125],[83.79,20.1786],[83.7737,20.1594],[83.7625,20.164],[83.7328,20.1473],[83.7266,20.1252],[83.7158,20.1291],[83.7107,20.1014],[83.676,20.1108],[83.6358,20.0874],[83.5844,20.1141],[83.588,20.0991],[83.5721,20.0854],[83.5685,20.0564],[83.5544,20.0538],[83.5424,20.0205],[83.5233,20.0166],[83.5005,19.9938],[83.495,19.9605],[83.4958,19.9602],[83.4838,19.9635],[83.4509,19.9719],[83.4422,19.9335],[83.4187,19.9341],[83.4042,19.9208],[83.4306,19.8709],[83.422,19.8497],[83.439,19.8331],[83.4317,19.8259],[83.4368,19.8018],[83.4596,19.7965],[83.4505,19.7845],[83.4542,19.7369],[83.4281,19.6961],[83.384,19.6678],[83.3695,19.6198],[83.3731,19.5974],[83.3579,19.6068],[83.3195,19.5921],[83.2877,19.597],[83.2881,19.5885],[83.2664,19.6013],[83.2696,19.5771],[83.253,19.57],[83.266,19.5589],[83.2638,19.5478],[83.2483,19.5393],[83.2573,19.5279],[83.2457,19.5044],[83.2284,19.5057],[83.2052,19.4741],[83.2009,19.4601],[83.2193,19.4428],[83.2161,19.4304],[83.2016,19.4392],[83.1962,19.4533],[83.1886,19.4614],[83.1857,19.4572],[83.1839,19.4373],[83.1853,19.4236],[83.1824,19.4242],[83.1694,19.4272],[83.1484,19.4669],[83.1582,19.4832],[83.1564,19.4859],[83.1354,19.5077],[83.1223,19.4976],[83.1071,19.5087],[83.1075,19.5087],[83.114,19.5145],[83.1024,19.5243],[83.1079,19.5383],[83.088,19.537],[83.0706,19.5615],[83.042,19.5517],[83.0257,19.5093],[83.0254,19.508],[82.9993,19.4976],[82.9971,19.4673],[82.9939,19.4643],[82.9841,19.4549],[82.979,19.4497],[82.9787,19.4497],[82.9349,19.4516],[82.9226,19.4405],[82.9244,19.4363],[82.9382,19.4034],[82.9559,19.3923],[82.9454,19.3636],[82.9537,19.3466],[82.9382,19.3065],[82.9016,19.2834],[82.9183,19.2384],[82.8842,19.2179],[82.8944,19.211],[82.8875,19.2009],[82.8871,19.2006],[82.8864,19.2006],[82.8701,19.195],[82.8647,19.2045],[82.8625,19.2074],[82.8611,19.2048],[82.8564,19.2058],[82.8502,19.2068],[82.8361,19.2368],[82.7985,19.2361],[82.8245,19.2563],[82.826,19.2824],[82.8412,19.3082],[82.8531,19.3078],[82.8481,19.3238],[82.8462,19.3241],[82.8224,19.3222],[82.8115,19.3277],[82.7797,19.3431],[82.7569,19.3268],[82.7413,19.3496],[82.7257,19.345],[82.712,19.3636],[82.7084,19.4193],[82.6896,19.4203],[82.6823,19.4373],[82.674,19.434],[82.6498,19.4594],[82.649,19.4774],[82.6331,19.4819],[82.6465,19.5077],[82.6071,19.5207],[82.6161,19.5387],[82.5662,19.5445],[82.5582,19.582],[82.5293,19.585],[82.5474,19.612],[82.5246,19.6322],[82.5557,19.6453],[82.577,19.6808],[82.5676,19.6844],[82.5673,19.6847],[82.573,19.7141],[82.5636,19.7271],[82.5629,19.7281],[82.602,19.747],[82.5948,19.7754],[82.5944,19.7754],[82.5955,19.777],[82.5951,19.7786],[82.5973,19.7796],[82.627,19.7936],[82.6523,19.8321],[82.6968,19.8308],[82.7113,19.8399],[82.7247,19.8754],[82.7142,19.8777],[82.7073,19.9022],[82.7203,19.9481],[82.7178,19.9889]]]}},{"type":"Feature","properties":{"district":"Jagatsinghpur","district_hi":"जगतसिंहपुर"},"geometry":{"type":"Polygon","coordinates":[[[86.1811,20.0541],[86.1829,20.0567],[86.154,20.0913],[86.1644,20.1141],[86.1417,20.1441],[86.1464,20.1728],[86.1681,20.1679],[86.1388,20.1953],[86.1507,20.2139],[86.0776,20.2445],[86.0667,20.2663],[86.0468,20.2791],[86.0392,20.2875],[86.011,20.3775],[86.0266,20.402],[86.0273,20.4016],[86.0892,20.3619],[86.0895,20.3622],[86.104,20.3739],[86.1373,20.357],[86.1644,20.3791],[86.1945,20.3694],[86.1988,20.3632],[86.2119,20.3635],[86.2368,20.3645],[86.248,20.3648],[86.269,20.3726],[86.273,20.3573],[86.3096,20.3615],[86.3161,20.3553],[86.3175,20.354],[86.336,20.3703],[86.3555,20.3537],[86.3591,20.3505],[86.3598,20.3553],[86.3656,20.3576],[86.3895,20.354],[86.3939,20.3654],[86.4521,20.3302],[86.4731,20.3368],[86.4988,20.3283],[86.5202,20.3413],[86.5484,20.3244],[86.6041,20.341],[86.6642,20.3289],[86.6975,20.297],[86.7232,20.2986],[86.7767,20.3345],[86.7767,20.3355],[86.7782,20.3364],[86.7843,20.3322],[86.6797,20.2641],[86.6692,20.2758],[86.6801,20.2598],[86.5954,20.2246],[86.5328,20.1816],[86.4753,20.0965],[86.4326,20.0521],[86.4087,19.9948],[86.3729,19.9605],[86.37,19.9814],[86.3414,19.986],[86.3226,20.0186],[86.2697,20.0414],[86.2781,20.0548],[86.2553,20.0535],[86.2451,20.0349],[86.2303,20.043],[86.2079,20.0368],[86.2006,20.0521],[86.2003,20.0525],[86.1999,20.0521],[86.1836,20.0508],[86.1811,20.0541]]]}},{"type":"Feature","properties":{"district":"Puri","district_hi":"पुरी"},"geometry":{"type":"Polygon","coordinates":[[[86.0809,20.1043],[86.0856,20.1007],[86.087,20.0932],[86.0877,20.0896],[86.0885,20.0861],[86.0776,20.0792],[86.0754,20.0776],[86.087,20.0583],[86.1098,20.0665],[86.1145,20.0642],[86.1236,20.0593],[86.1174,20.0482],[86.1167,20.0473],[86.1254,20.0375],[86.171,20.0394],[86.1811,20.0541],[86.1836,20.0508],[86.1999,20.0521],[86.2003,20.0525],[86.2006,20.0521],[86.2079,20.0368],[86.2303,20.043],[86.2451,20.0349],[86.2553,20.0535],[86.2781,20.0548],[86.2697,20.0414],[86.3226,20.0186],[86.3414,19.986],[86.37,19.9814],[86.3729,19.9579],[86.4112,19.9746],[86.3881,19.955],[86.3074,19.9413],[86.2281,19.9015],[86.0577,19.8503],[85.8855,19.8128],[85.6792,19.745],[85.3532,19.5889],[85.1726,19.4673],[85.135,19.5214],[85.1741,19.5579],[85.1824,19.6723],[85.2128,19.6864],[85.1987,19.7036],[85.199,19.7053],[85.2001,19.7092],[85.2026,19.719],[85.2153,19.7349],[85.2196,19.7401],[85.2211,19.7421],[85.2497,19.7441],[85.2526,19.7675],[85.3293,19.7851],[85.3593,19.8223],[85.3865,19.8314],[85.4382,19.8833],[85.5026,19.8846],[85.5023,19.8683],[85.5641,19.8529],[85.5703,19.9152],[85.533,19.927],[85.5265,19.9439],[85.5073,19.9276],[85.5207,19.9397],[85.5059,19.9527],[85.5261,19.9785],[85.5316,19.9586],[85.5522,19.9628],[85.5504,19.9527],[85.5638,19.9547],[85.5663,19.9726],[85.5551,19.9746],[85.5706,19.9801],[85.562,19.9957],[85.5703,19.9984],[85.5717,20.0257],[85.5913,19.997],[85.6144,20.0195],[85.6065,19.9957],[85.6137,19.9928],[85.6307,20.0222],[85.6123,20.0378],[85.6188,20.0688],[85.6437,20.0818],[85.6318,20.1027],[85.6492,20.0971],[85.6499,20.0671],[85.6792,20.0678],[85.6712,20.0877],[85.6922,20.0955],[85.6745,20.1242],[85.6904,20.1584],[85.7034,20.1425],[85.719,20.1431],[85.7248,20.1281],[85.7205,20.1418],[85.7284,20.1496],[85.7592,20.1398],[85.7527,20.1467],[85.7646,20.1535],[85.7635,20.1685],[85.8001,20.1503],[85.8058,20.1614],[85.8254,20.1591],[85.8373,20.1917],[85.8442,20.1757],[85.8561,20.1747],[85.8569,20.1907],[85.8424,20.1979],[85.8518,20.2037],[85.8873,20.1835],[85.9036,20.1519],[85.8721,20.1235],[85.8822,20.1115],[85.8992,20.1102],[85.9046,20.1258],[85.9245,20.1131],[85.9477,20.1193],[85.9524,20.1125],[85.9596,20.1219],[85.9991,20.1069],[86.0049,20.1141],[86.0237,20.0997],[86.0715,20.1069],[86.0758,20.1033],[86.0812,20.1037],[86.0809,20.1043]]]}},{"type":"Feature","properties":{"district":"Nabarangapur","district_hi":"नबरंगपुर"},"geometry":{"type":"Polygon","coordinates":[[[82.5944,19.7754],[82.5948,19.7754],[82.602,19.747],[82.5629,19.7281],[82.5636,19.7271],[82.573,19.7141],[82.5673,19.6847],[82.5676,19.6844],[82.577,19.6808],[82.5557,19.6453],[82.5246,19.6322],[82.5474,19.612],[82.5293,19.585],[82.5582,19.582],[82.5662,19.5445],[82.6161,19.5387],[82.6071,19.5207],[82.6465,19.5077],[82.6331,19.4819],[82.649,19.4774],[82.6498,19.4594],[82.674,19.434],[82.6823,19.4373],[82.6896,19.4203],[82.7084,19.4193],[82.712,19.3636],[82.7257,19.345],[82.7413,19.3496],[82.7569,19.3268],[82.7797,19.3431],[82.8115,19.3277],[82.8224,19.3222],[82.8462,19.3241],[82.8481,19.3238],[82.8531,19.3078],[82.8412,19.3082],[82.826,19.2824],[82.8245,19.2563],[82.7985,19.2361],[82.8361,19.2368],[82.8502,19.2068],[82.8564,19.2058],[82.8538,19.1934],[82.8426,19.2006],[82.8329,19.1895],[82.8227,19.1478],[82.8173,19.1703],[82.8032,19.1514],[82.792,19.1553],[82.7883,19.1732],[82.7612,19.1647],[82.7496,19.1732],[82.7362,19.1572],[82.7228,19.1611],[82.725,19.1742],[82.7015,19.1908],[82.6856,19.1859],[82.6794,19.1973],[82.6686,19.184],[82.6537,19.1888],[82.6371,19.1755],[82.6371,19.1559],[82.6349,19.1572],[82.6331,19.1621],[82.628,19.1615],[82.6262,19.1611],[82.6237,19.1605],[82.6255,19.1543],[82.6255,19.152],[82.6186,19.1566],[82.6161,19.1585],[82.6157,19.1817],[82.6052,19.1814],[82.5879,19.2025],[82.5796,19.195],[82.5745,19.2113],[82.5734,19.2094],[82.5687,19.1983],[82.518,19.2025],[82.4887,19.1804],[82.4601,19.1846],[82.4402,19.1712],[82.4117,19.1856],[82.4019,19.1654],[82.3527,19.1843],[82.3404,19.168],[82.3114,19.1771],[82.2857,19.1481],[82.2752,19.1566],[82.2586,19.1422],[82.2296,19.1439],[82.2354,19.122],[82.2123,19.1181],[82.2058,19.121],[82.2058,19.1243],[82.1851,19.1305],[82.183,19.1311],[82.1826,19.1315],[82.1815,19.1298],[82.1725,19.1214],[82.1681,19.1292],[82.1667,19.1331],[82.1757,19.1386],[82.1739,19.1435],[82.1808,19.1507],[82.1696,19.1611],[82.1783,19.1559],[82.1862,19.1664],[82.1761,19.1722],[82.1804,19.1911],[82.1616,19.2022],[82.1689,19.213],[82.158,19.2276],[82.1584,19.2651],[82.1812,19.3235],[82.1942,19.3261],[82.1786,19.3434],[82.1489,19.3528],[82.1471,19.3652],[82.1533,19.377],[82.179,19.3789],[82.1895,19.4275],[82.1714,19.4373],[82.1262,19.4291],[82.1026,19.4663],[82.1081,19.4943],[82.0979,19.4989],[82.1001,19.5165],[82.0759,19.5237],[82.0657,19.511],[82.0292,19.5077],[82.0299,19.5097],[82.0484,19.5442],[82.0491,19.5569],[82.04,19.5977],[82.0588,19.6283],[82.0451,19.7069],[82.0447,19.7088],[82.0654,19.7907],[81.9861,19.8011],[81.9655,19.837],[81.968,19.8598],[81.8899,19.8937],[81.8696,19.9025],[81.858,19.9152],[81.8533,19.9204],[81.8522,19.9217],[81.8569,19.9475],[81.845,19.9517],[81.8468,19.9579],[81.8754,20.0499],[81.8761,20.0521],[81.8953,20.0482],[81.9459,20.1046],[81.9463,20.1053],[81.9952,20.0535],[82.0176,20.0489],[82.0216,20.0238],[82.0324,20.0156],[82.0704,20.057],[82.1269,20.015],[82.1714,20.0055],[82.1844,19.9843],[82.2101,19.9863],[82.2376,20.0036],[82.2691,19.9752],[82.3042,19.8891],[82.3454,19.836],[82.361,19.8627],[82.374,19.8604],[82.395,19.8882],[82.446,19.9103],[82.4641,19.9009],[82.4974,19.9041],[82.5311,19.8784],[82.535,19.8869],[82.5484,19.8758],[82.6002,19.8676],[82.6034,19.867],[82.6016,19.8647],[82.5759,19.8334],[82.5817,19.7832],[82.5944,19.7754]]]}},{"type":"Feature","properties":{"district":"Rayagada","district_hi":"रायगड़ा"},"geometry":{"type":"Polygon","coordinates":[[[83.4958,19.9602],[83.4998,19.9583],[83.5598,19.9299],[83.5269,19.8777],[83.528,19.8556],[83.528,19.8549],[83.5855,19.823],[83.6,19.8344],[83.6069,19.8161],[83.6192,19.8145],[83.6213,19.7754],[83.6079,19.7503],[83.6257,19.7447],[83.6322,19.7307],[83.6438,19.6965],[83.6347,19.6714],[83.6477,19.658],[83.6952,19.6909],[83.7227,19.6717],[83.7288,19.6547],[83.7422,19.6551],[83.7632,19.6766],[83.7664,19.716],[83.7914,19.7108],[83.8146,19.7206],[83.8327,19.7069],[83.845,19.7092],[83.854,19.6857],[83.8728,19.6717],[83.9112,19.6762],[83.9231,19.6776],[83.9361,19.6714],[83.9238,19.6635],[83.9401,19.6352],[83.9249,19.6264],[83.9376,19.5599],[83.9401,19.5546],[83.9792,19.5315],[83.9593,19.5077],[83.9767,19.4859],[83.9419,19.42],[83.9474,19.3965],[83.9778,19.3835],[83.9872,19.4024],[83.9901,19.3887],[84.0154,19.377],[84.0288,19.3473],[84.0143,19.3065],[84.0201,19.2906],[83.9799,19.213],[83.9977,19.1934],[83.9883,19.1866],[83.989,19.1569],[84.0338,19.1321],[84.0158,19.1181],[84.0136,19.0998],[84.032,19.0584],[84.0092,19.0571],[84.0035,19.0699],[83.9778,19.0721],[83.9647,19.0627],[83.9633,19.0428],[83.9857,19.0219],[83.9553,19.0011],[83.9503,18.9975],[83.9079,19.0196],[83.8913,18.9945],[83.8576,18.991],[83.8479,19.0053],[83.8334,19.0037],[83.8327,19.0046],[83.8323,19.0043],[83.8298,19.0076],[83.8091,19.0311],[83.8015,19.0242],[83.7947,19.0177],[83.7932,19.018],[83.7758,19.0183],[83.7802,19.0092],[83.7487,18.9981],[83.7465,18.9939],[83.757,18.9515],[83.7675,18.9557],[83.7824,18.9346],[83.7853,18.9209],[83.7853,18.9196],[83.786,18.917],[83.7784,18.9127],[83.7773,18.913],[83.7762,18.9124],[83.752,18.9261],[83.7563,18.9108],[83.7331,18.9877],[83.7096,19.002],[83.7303,19.0219],[83.7002,19.0252],[83.6854,19.0584],[83.6611,19.0809],[83.6629,19.0989],[83.6474,19.1184],[83.655,19.1295],[83.6365,19.1328],[83.6376,19.153],[83.625,19.1631],[83.6188,19.1426],[83.5971,19.1311],[83.6087,19.0969],[83.5837,19.0875],[83.5826,19.0588],[83.5616,19.0611],[83.5602,19.0868],[83.5472,19.0816],[83.5555,19.0571],[83.5399,19.0425],[83.5352,19.0115],[83.5012,19.0206],[83.4965,19.0353],[83.5149,19.0284],[83.5193,19.0389],[83.5117,19.0702],[83.499,19.0627],[83.4809,19.0783],[83.4835,19.092],[83.4661,19.094],[83.4766,19.0803],[83.4643,19.0809],[83.4603,19.0646],[83.4813,19.0343],[83.4777,19.0095],[83.448,19.0108],[83.4534,18.9923],[83.4657,18.9919],[83.4599,18.9557],[83.4455,18.958],[83.439,18.9763],[83.4158,18.99],[83.4147,19.0027],[83.4078,19.006],[83.397,19.0099],[83.3706,19.0033],[83.3659,19.017],[83.3474,19.0183],[83.3626,19.0477],[83.3405,19.0607],[83.3409,19.1021],[83.3271,19.1002],[83.2986,19.1227],[83.2877,19.1168],[83.2848,19.1194],[83.2816,19.1217],[83.2794,19.1233],[83.2595,19.0676],[83.2682,19.0545],[83.2645,19.047],[83.2606,19.0386],[83.2345,19.0265],[83.237,18.9893],[83.2009,18.9603],[83.1853,18.961],[83.1965,18.9913],[83.1846,19.0138],[83.1954,19.076],[83.1853,19.0809],[83.1896,19.0963],[83.1788,19.0982],[83.2056,19.1324],[83.2208,19.1383],[83.2251,19.1227],[83.2446,19.1279],[83.241,19.1452],[83.2573,19.1637],[83.2269,19.1732],[83.22,19.1611],[83.1983,19.169],[83.2012,19.1481],[83.1755,19.1452],[83.1618,19.1217],[83.1357,19.1364],[83.1296,19.0933],[83.1202,19.0897],[83.101,19.1113],[83.0738,19.0813],[83.0652,19.0441],[83.0217,19.0614],[83.0286,19.0865],[83.0094,19.0956],[83.0051,19.1207],[82.9805,19.1383],[82.979,19.1706],[82.979,19.1725],[82.9552,19.1559],[82.9201,19.1624],[82.9016,19.1553],[82.898,19.1742],[82.8708,19.1944],[82.8701,19.195],[82.8864,19.2006],[82.8871,19.2006],[82.8875,19.2009],[82.8944,19.211],[82.8842,19.2179],[82.9183,19.2384],[82.9016,19.2834],[82.9382,19.3065],[82.9537,19.3466],[82.9454,19.3636],[82.9559,19.3923],[82.9382,19.4034],[82.9244,19.4363],[82.9226,19.4405],[82.9349,19.4516],[82.9787,19.4497],[82.979,19.4497],[82.9841,19.4549],[82.9939,19.4643],[82.9971,19.4673],[82.9993,19.4976],[83.0254,19.508],[83.0257,19.5093],[83.042,19.5517],[83.0706,19.5615],[83.088,19.537],[83.1079,19.5383],[83.1024,19.5243],[83.114,19.5145],[83.1075,19.5087],[83.1071,19.5087],[83.1223,19.4976],[83.1354,19.5077],[83.1564,19.4859],[83.1582,19.4832],[83.1484,19.4669],[83.1694,19.4272],[83.1824,19.4242],[83.1853,19.4236],[83.1839,19.4373],[83.1857,19.4572],[83.1886,19.4614],[83.1962,19.4533],[83.2016,19.4392],[83.2161,19.4304],[83.2193,19.4428],[83.2009,19.4601],[83.2052,19.4741],[83.2284,19.5057],[83.2457,19.5044],[83.2573,19.5279],[83.2483,19.5393],[83.2638,19.5478],[83.266,19.5589],[83.253,19.57],[83.2696,19.5771],[83.2664,19.6013],[83.2881,19.5885],[83.2877,19.597],[83.3195,19.5921],[83.3579,19.6068],[83.3731,19.5974],[83.3695,19.6198],[83.384,19.6678],[83.4281,19.6961],[83.4542,19.7369],[83.4505,19.7845],[83.4596,19.7965],[83.4368,19.8018],[83.4317,19.8259],[83.439,19.8331],[83.422,19.8497],[83.4306,19.8709],[83.4042,19.9208],[83.4187,19.9341],[83.4422,19.9335],[83.4509,19.9719],[83.4838,19.9635],[83.4958,19.9602]]]}},{"type":"Feature","properties":{"district":"Koraput","district_hi":"कोरापुट"},"geometry":{"type":"Polygon","coordinates":[[[82.8564,19.2058],[82.8611,19.2048],[82.8625,19.2074],[82.8647,19.2045],[82.8701,19.195],[82.8708,19.1944],[82.898,19.1742],[82.9016,19.1553],[82.9201,19.1624],[82.9552,19.1559],[82.979,19.1725],[82.979,19.1706],[82.9805,19.1383],[83.0051,19.1207],[83.0094,19.0956],[83.0286,19.0865],[83.0217,19.0614],[83.0652,19.0441],[83.0738,19.0813],[83.101,19.1113],[83.1202,19.0897],[83.1296,19.0933],[83.1357,19.1364],[83.1618,19.1217],[83.1755,19.1452],[83.2012,19.1481],[83.1983,19.169],[83.22,19.1611],[83.2269,19.1732],[83.2573,19.1637],[83.241,19.1452],[83.2446,19.1279],[83.2251,19.1227],[83.2208,19.1383],[83.2056,19.1324],[83.1788,19.0982],[83.1896,19.0963],[83.1853,19.0809],[83.1954,19.076],[83.1846,19.0138],[83.1965,18.9913],[83.1853,18.961],[83.2009,18.9603],[83.237,18.9893],[83.2345,19.0265],[83.2606,19.0386],[83.2645,19.047],[83.2682,19.0545],[83.2595,19.0676],[83.2794,19.1233],[83.2816,19.1217],[83.2848,19.1194],[83.2877,19.1168],[83.2986,19.1227],[83.3271,19.1002],[83.3409,19.1021],[83.3405,19.0607],[83.3626,19.0477],[83.3474,19.0183],[83.3369,18.9978],[83.3087,18.9998],[83.317,18.974],[83.3329,18.9694],[83.3373,18.9535],[83.3358,18.9515],[83.3304,18.9437],[83.325,18.9359],[83.3271,18.9329],[83.3485,18.9264],[83.3503,18.9655],[83.3507,18.9655],[83.3586,18.9649],[83.3651,18.9642],[83.3651,18.9632],[83.3695,18.9437],[83.3507,18.9443],[83.3554,18.9261],[83.363,18.9147],[83.3894,18.9101],[83.3879,18.9088],[83.3764,18.898],[83.4129,18.8746],[83.4039,18.8433],[83.3774,18.8319],[83.3637,18.8439],[83.3264,18.8188],[83.329,18.8071],[83.3069,18.8103],[83.2826,18.7986],[83.2696,18.7654],[83.2229,18.7755],[83.224,18.768],[83.2262,18.7579],[83.2258,18.7569],[83.2106,18.7314],[83.2045,18.7523],[83.1759,18.7719],[83.1545,18.7693],[83.1361,18.7859],[83.1133,18.7689],[83.1202,18.7585],[83.071,18.7067],[83.0561,18.6662],[83.0152,18.6486],[83.0178,18.6359],[82.9989,18.6216],[82.9989,18.6085],[83.0134,18.6059],[83.0116,18.5952],[83.0239,18.5896],[83.0511,18.6001],[83.0511,18.589],[83.0279,18.5746],[83.0435,18.5453],[83.0619,18.542],[83.0862,18.5541],[83.093,18.5476],[83.0532,18.4866],[83.0192,18.4573],[83.0391,18.4416],[83.0406,18.4253],[83.0587,18.4367],[83.0655,18.4312],[83.0554,18.4204],[83.0742,18.4048],[83.0771,18.4035],[83.055,18.3829],[83.0536,18.3816],[83.0203,18.3924],[82.995,18.3862],[82.9685,18.3608],[82.9382,18.3614],[82.894,18.3816],[82.8951,18.424],[82.8509,18.4211],[82.8459,18.4338],[82.8296,18.441],[82.8119,18.4488],[82.8068,18.4514],[82.8046,18.4498],[82.7804,18.4315],[82.7851,18.4113],[82.7978,18.4074],[82.792,18.3868],[82.7807,18.3826],[82.7887,18.364],[82.7724,18.3412],[82.665,18.2988],[82.6411,18.3027],[82.6505,18.2819],[82.6407,18.2646],[82.6508,18.2509],[82.636,18.2375],[82.5861,18.2767],[82.5969,18.305],[82.5796,18.3158],[82.5933,18.3295],[82.6071,18.3278],[82.602,18.3523],[82.6212,18.3598],[82.606,18.366],[82.5948,18.3891],[82.5358,18.4064],[82.5358,18.4071],[82.5434,18.4188],[82.5568,18.441],[82.5607,18.4475],[82.5615,18.4485],[82.5408,18.4582],[82.5387,18.4445],[82.5195,18.4657],[82.5343,18.4778],[82.5322,18.5107],[82.5322,18.5111],[82.5032,18.514],[82.4851,18.5283],[82.4866,18.5502],[82.4855,18.5495],[82.4381,18.5159],[82.4283,18.486],[82.3878,18.4996],[82.3874,18.5016],[82.3831,18.5225],[82.403,18.5261],[82.4145,18.5629],[82.3863,18.5834],[82.3852,18.5913],[82.4084,18.6023],[82.3946,18.6216],[82.3852,18.6222],[82.3643,18.6232],[82.3635,18.6232],[82.3125,18.5756],[82.2875,18.5834],[82.2669,18.5896],[82.2658,18.5903],[82.2647,18.5916],[82.238,18.6216],[82.2329,18.6268],[82.2293,18.631],[82.2311,18.6349],[82.2224,18.6718],[82.171,18.6385],[82.1605,18.6695],[82.1461,18.6649],[82.1309,18.679],[82.1435,18.694],[82.1301,18.7217],[82.0918,18.7383],[82.0914,18.7386],[82.0896,18.7523],[82.0889,18.7601],[82.0907,18.7605],[82.1334,18.7654],[82.1334,18.7803],[82.1591,18.7882],[82.1689,18.8361],[82.1605,18.8788],[82.1609,18.8791],[82.1768,18.8873],[82.1761,18.9026],[82.1804,18.9049],[82.2184,18.9225],[82.2459,18.9192],[82.2329,19.018],[82.2021,19.0666],[82.2173,19.0956],[82.205,19.0972],[82.2058,19.121],[82.2123,19.1181],[82.2354,19.122],[82.2296,19.1439],[82.2586,19.1422],[82.2752,19.1566],[82.2857,19.1481],[82.3114,19.1771],[82.3404,19.168],[82.3527,19.1843],[82.4019,19.1654],[82.4117,19.1856],[82.4402,19.1712],[82.4601,19.1846],[82.4887,19.1804],[82.518,19.2025],[82.5687,19.1983],[82.5734,19.2094],[82.5745,19.2113],[82.5796,19.195],[82.5879,19.2025],[82.6052,19.1814],[82.6157,19.1817],[82.6161,19.1585],[82.6186,19.1566],[82.6255,19.152],[82.6255,19.1543],[82.6237,19.1605],[82.6262,19.1611],[82.628,19.1615],[82.6331,19.1621],[82.6349,19.1572],[82.6371,19.1559],[82.6371,19.1755],[82.6537,19.1888],[82.6686,19.184],[82.6794,19.1973],[82.6856,19.1859],[82.7015,19.1908],[82.725,19.1742],[82.7228,19.1611],[82.7362,19.1572],[82.7496,19.1732],[82.7612,19.1647],[82.7883,19.1732],[82.792,19.1553],[82.8032,19.1514],[82.8173,19.1703],[82.8227,19.1478],[82.8329,19.1895],[82.8426,19.2006],[82.8538,19.1934],[82.8564,19.2058]]]}},{"type":"Feature","properties":{"district":"Malkangiri","district_hi":"मलकानगिरी"},"geometry":{"type":"Polygon","coordinates":[[[82.0918,18.7383],[82.1301,18.7217],[82.1435,18.694],[82.1309,18.679],[82.1461,18.6649],[82.1605,18.6695],[82.171,18.6385],[82.2224,18.6718],[82.2311,18.6349],[82.2293,18.631],[82.2329,18.6268],[82.238,18.6216],[82.2647,18.5916],[82.2658,18.5903],[82.2669,18.5896],[82.2875,18.5834],[82.3125,18.5756],[82.3635,18.6232],[82.3643,18.6232],[82.3852,18.6222],[82.3946,18.6216],[82.4084,18.6023],[82.3852,18.5913],[82.3863,18.5834],[82.4145,18.5629],[82.403,18.5261],[82.3831,18.5225],[82.3874,18.5016],[82.3878,18.4996],[82.4283,18.486],[82.3624,18.4224],[82.378,18.4044],[82.3838,18.3683],[82.3375,18.3282],[82.3364,18.3275],[82.3541,18.3168],[82.3874,18.3291],[82.3907,18.2988],[82.3747,18.2815],[82.3429,18.2812],[82.3349,18.2414],[82.3226,18.232],[82.3353,18.2251],[82.3092,18.2049],[82.314,18.1847],[82.3516,18.1723],[82.3708,18.1489],[82.3617,18.1355],[82.3371,18.1475],[82.3342,18.1065],[82.3501,18.0775],[82.3422,18.0589],[82.3324,18.052],[82.3205,18.0605],[82.3183,18.0455],[82.2969,18.0559],[82.3002,18.07],[82.2709,18.0579],[82.26,18.0426],[82.2716,18.0233],[82.2676,17.9992],[82.2495,17.993],[82.2043,18.0194],[82.1768,18.0214],[82.1826,18.0295],[82.167,18.0527],[82.1356,18.0445],[82.1319,18.0605],[82.1005,18.0608],[82.0751,18.0758],[82.0603,18.0569],[82.0389,18.0579],[82.0313,18.0703],[82.0306,18.07],[82.0252,18.0673],[82.0071,18.0585],[82.0071,18.0579],[82.0085,18.0318],[82.0075,18.0315],[81.9778,18.0152],[81.98,18.0126],[81.9792,18.0122],[81.9774,18.0152],[81.9593,18.0005],[81.9203,17.9963],[81.9036,17.9816],[81.8092,17.9568],[81.8088,17.9565],[81.7878,17.9259],[81.7158,17.8756],[81.7111,17.874],[81.706,17.8877],[81.7002,17.9021],[81.6999,17.9027],[81.6876,17.8864],[81.668,17.8828],[81.6623,17.8815],[81.6431,17.844],[81.6416,17.8414],[81.6174,17.8232],[81.5743,17.8388],[81.5635,17.8271],[81.4922,17.8127],[81.4763,17.8385],[81.4459,17.8254],[81.4357,17.8326],[81.4169,17.814],[81.3999,17.8202],[81.3977,17.8212],[81.3974,17.8186],[81.3919,17.8153],[81.3894,17.829],[81.3891,17.83],[81.4039,17.8532],[81.3941,17.8695],[81.3999,17.8919],[81.4003,17.8936],[81.4448,17.8858],[81.4491,17.932],[81.4828,17.9767],[81.481,18.0514],[81.5132,18.0999],[81.5135,18.1394],[81.5258,18.1534],[81.507,18.1863],[81.5305,18.2405],[81.5255,18.2581],[81.5642,18.2753],[81.5975,18.3089],[81.6623,18.3213],[81.6496,18.337],[81.659,18.3467],[81.7502,18.3536],[81.7694,18.4188],[81.8548,18.4902],[81.8681,18.5251],[81.909,18.5378],[81.9014,18.5485],[81.9108,18.5707],[81.9507,18.5701],[81.9637,18.5906],[81.9279,18.6199],[81.8946,18.6291],[81.8938,18.6574],[81.8993,18.6604],[81.9007,18.6614],[81.9217,18.6431],[81.9488,18.6437],[81.9691,18.6734],[81.9608,18.6887],[81.9702,18.6982],[82.031,18.7239],[82.0849,18.7187],[82.0918,18.7383]]]}},{"type":"Feature","properties":{"district":"Angul","district_hi":"अनुगुल"},"geometry":{"type":"MultiPolygon","coordinates":[[[[84.8723,21.172],[84.8748,21.1782],[84.8752,21.1792],[84.8766,21.173],[84.8755,21.1727],[84.8723,21.172]]],[[[85.3937,21.1834],[85.3781,21.1675],[85.3333,21.1772],[85.317,21.158],[85.2902,21.1805],[85.2721,21.175],[85.2298,21.0726],[85.1849,21.0814],[85.1795,21.0758],[85.1679,21.0579],[85.1697,21.0507],[85.2059,21.0263],[85.2486,21.0022],[85.2537,20.994],[85.2587,20.9852],[85.2616,20.9803],[85.2594,20.9784],[85.2417,20.9653],[85.2395,20.9112],[85.245,20.8982],[85.2627,20.8939],[85.2482,20.8845],[85.2584,20.8747],[85.2555,20.7961],[85.1965,20.787],[85.2168,20.7524],[85.1889,20.7009],[85.1889,20.7003],[85.1929,20.6817],[85.1936,20.6781],[85.1755,20.666],[85.1701,20.6621],[85.1693,20.6618],[85.1636,20.6755],[85.1748,20.7019],[85.1599,20.7074],[85.1527,20.7335],[85.1404,20.7312],[85.1136,20.6836],[85.1346,20.6416],[85.127,20.6162],[85.1216,20.6129],[85.1216,20.6122],[85.1212,20.6126],[85.0908,20.6188],[85.0738,20.5813],[85.0554,20.5777],[85.0275,20.5898],[84.9877,20.5803],[84.9797,20.5653],[84.9432,20.5819],[84.8976,20.5823],[84.8484,20.5281],[84.7666,20.6034],[84.7619,20.608],[84.6392,20.6237],[84.5607,20.6902],[84.5158,20.7022],[84.4626,20.7355],[84.4185,20.7381],[84.4174,20.7384],[84.4127,20.7404],[84.3696,20.7616],[84.3602,20.7661],[84.3497,20.7808],[84.349,20.7818],[84.349,20.7821],[84.3512,20.8258],[84.3479,20.8323],[84.3027,20.8594],[84.2665,20.8812],[84.2665,20.8815],[84.2665,20.8819],[84.268,20.9079],[84.2683,20.9132],[84.2763,20.9187],[84.2792,20.9223],[84.3016,20.9363],[84.3114,20.9321],[84.3288,20.9516],[84.3298,20.9516],[84.366,20.9539],[84.3725,20.9546],[84.3744,20.9546],[84.4055,20.9767],[84.4138,21.0035],[84.4341,21.0152],[84.4091,21.0305],[84.4294,21.0403],[84.4388,21.0331],[84.4815,21.0807],[84.5321,21.0876],[84.5853,21.0612],[84.6454,21.0837],[84.6794,21.0631],[84.6675,21.0934],[84.6805,21.1472],[84.7232,21.1485],[84.7311,21.1691],[84.7445,21.1694],[84.7463,21.1681],[84.7952,21.1332],[84.8042,21.1365],[84.8089,21.1414],[84.7984,21.1655],[84.7992,21.1658],[84.7988,21.1665],[84.8176,21.1714],[84.8766,21.1645],[84.9186,21.1407],[84.932,21.1534],[84.928,21.1808],[84.9504,21.1707],[84.949,21.1479],[84.9624,21.1472],[84.97,21.189],[84.9396,21.1961],[84.9258,21.2336],[84.8976,21.261],[84.9569,21.2979],[84.9884,21.2871],[85.0112,21.2972],[85.0116,21.2975],[85.0174,21.2962],[85.0329,21.2933],[85.0083,21.3236],[85.0076,21.3794],[84.9917,21.4123],[84.9975,21.4358],[84.9986,21.4361],[85.0261,21.4478],[85.021,21.4583],[85.0601,21.4423],[85.0796,21.4589],[85.1541,21.4628],[85.203,21.5212],[85.2117,21.5564],[85.2041,21.5675],[85.1878,21.588],[85.144,21.5952],[85.1444,21.5952],[85.1795,21.6268],[85.1936,21.6392],[85.1943,21.6399],[85.194,21.6399],[85.1802,21.6447],[85.1889,21.6575],[85.1911,21.661],[85.1911,21.6607],[85.2016,21.6607],[85.2095,21.6754],[85.2551,21.6741],[85.2685,21.6223],[85.2938,21.5994],[85.283,21.5929],[85.2862,21.5844],[85.3123,21.5691],[85.3,21.5538],[85.3003,21.5489],[85.3025,21.5313],[85.321,21.5346],[85.322,21.5319],[85.334,21.4817],[85.334,21.4811],[85.3083,21.4618],[85.3058,21.4469],[85.2631,21.4573],[85.2551,21.4514],[85.2725,21.4279],[85.304,21.4162],[85.305,21.3963],[85.3264,21.3905],[85.3427,21.366],[85.3257,21.3204],[85.3152,21.3301],[85.2844,21.2982],[85.2728,21.3024],[85.2718,21.3028],[85.2707,21.2803],[85.2703,21.2744],[85.2703,21.2741],[85.2866,21.264],[85.2974,21.2757],[85.36,21.2447],[85.3832,21.2036],[85.3933,21.1834],[85.3937,21.1834]]]]}},{"type":"Feature","properties":{"district":"Kendrapara","district_hi":"केंद्रपाड़ा"},"geometry":{"type":"Polygon","coordinates":[[[86.6218,20.7951],[86.6302,20.7951],[86.6309,20.7961],[86.632,20.7951],[86.6464,20.786],[86.6591,20.7964],[86.7061,20.7769],[86.7105,20.7596],[86.7583,20.7668],[86.7601,20.7671],[86.7615,20.7642],[86.7637,20.7593],[86.7651,20.7563],[86.7546,20.7436],[86.7564,20.7394],[86.7619,20.7358],[86.7763,20.7374],[86.781,20.7413],[86.7915,20.7387],[86.7981,20.7371],[86.806,20.7352],[86.8194,20.7322],[86.8285,20.7557],[86.861,20.7749],[86.9023,20.7625],[87.022,20.7704],[87.0412,20.759],[87.0398,20.7423],[87.0557,20.7149],[86.7886,20.534],[86.7655,20.504],[86.7521,20.518],[86.7579,20.4942],[86.7478,20.473],[86.7232,20.4802],[86.7362,20.4613],[86.7307,20.4114],[86.7098,20.3961],[86.7246,20.3782],[86.7362,20.3971],[86.7438,20.3788],[86.7695,20.3935],[86.7825,20.3824],[86.7915,20.4333],[86.8024,20.444],[86.7944,20.4939],[86.8002,20.4874],[86.8104,20.4512],[86.7915,20.3876],[86.7973,20.3782],[86.7973,20.3964],[86.8046,20.3912],[86.7977,20.4007],[86.8053,20.399],[86.81,20.3749],[86.7763,20.3456],[86.7767,20.3355],[86.7767,20.3345],[86.7232,20.2986],[86.6975,20.297],[86.6642,20.3289],[86.6041,20.341],[86.5484,20.3244],[86.5202,20.3413],[86.4988,20.3283],[86.4731,20.3368],[86.4521,20.3302],[86.3939,20.3654],[86.3895,20.354],[86.3656,20.3576],[86.3598,20.3553],[86.3591,20.3505],[86.3555,20.3537],[86.336,20.3703],[86.3175,20.354],[86.3161,20.3553],[86.3096,20.3615],[86.273,20.3573],[86.269,20.3726],[86.248,20.3648],[86.2488,20.3674],[86.2517,20.3798],[86.2574,20.3749],[86.2614,20.387],[86.273,20.3879],[86.2654,20.4056],[86.2777,20.4225],[86.2687,20.4254],[86.2752,20.4466],[86.2647,20.4512],[86.2741,20.4548],[86.2625,20.4854],[86.2777,20.4962],[86.2683,20.5082],[86.2766,20.5184],[86.2495,20.5363],[86.2491,20.5386],[86.2708,20.5588],[86.264,20.5604],[86.2661,20.5633],[86.2726,20.5643],[86.2802,20.5813],[86.3146,20.5809],[86.3197,20.6305],[86.3302,20.609],[86.3769,20.594],[86.4,20.6243],[86.4221,20.625],[86.4264,20.6452],[86.4507,20.6475],[86.4521,20.6752],[86.4688,20.6892],[86.4876,20.6794],[86.5111,20.6872],[86.514,20.6993],[86.5259,20.6882],[86.556,20.7065],[86.5462,20.7215],[86.561,20.7381],[86.5382,20.7345],[86.5411,20.7524],[86.5647,20.7743],[86.6168,20.7749],[86.6175,20.7749],[86.6182,20.7775],[86.6247,20.7925],[86.6218,20.7951]]]}},{"type":"Feature","properties":{"district":"Ganjam","district_hi":"गंजाम"},"geometry":{"type":"MultiPolygon","coordinates":[[[[84.3519,19.1129],[84.3559,19.1126],[84.3552,19.1116],[84.3541,19.1103],[84.3534,19.1096],[84.353,19.11],[84.3519,19.1129]]],[[[84.3704,19.1188],[84.37,19.1165],[84.3682,19.1188],[84.3678,19.1197],[84.3704,19.1188]]],[[[84.234,19.5732],[84.2354,19.5951],[84.2242,19.627],[84.2473,19.6446],[84.239,19.6652],[84.1992,19.687],[84.1891,19.7059],[84.2014,19.734],[84.1815,19.7375],[84.1529,19.7248],[84.1598,19.7385],[84.1305,19.7802],[84.1732,19.7933],[84.1652,19.8054],[84.1739,19.8233],[84.1999,19.8353],[84.1851,19.8604],[84.2745,19.8797],[84.3063,19.9087],[84.3244,19.8722],[84.3584,19.8634],[84.3787,19.8458],[84.4127,19.8406],[84.4315,19.8399],[84.4355,19.837],[84.4442,19.8357],[84.4442,19.8448],[84.4616,19.8572],[84.4637,19.9534],[84.4047,19.9625],[84.3899,19.956],[84.3559,19.9896],[84.3356,19.9781],[84.3222,19.9902],[84.3226,19.9902],[84.3577,20.0329],[84.3635,20.0257],[84.4181,20.0495],[84.4044,20.0834],[84.4417,20.1467],[84.4348,20.2005],[84.4351,20.2005],[84.4507,20.1998],[84.4514,20.1998],[84.4583,20.1897],[84.4594,20.1881],[84.4587,20.1861],[84.4536,20.1669],[84.4869,20.1408],[84.509,20.1366],[84.5231,20.1526],[84.526,20.1441],[84.5607,20.1392],[84.5582,20.1575],[84.5871,20.1734],[84.5868,20.1744],[84.585,20.1865],[84.598,20.1764],[84.6479,20.2028],[84.6722,20.2738],[84.6722,20.2742],[84.6729,20.2742],[84.6997,20.2778],[84.7047,20.2787],[84.7358,20.2442],[84.7652,20.2465],[84.8314,20.2168],[84.8317,20.2165],[84.8223,20.1196],[84.806,20.1138],[84.7984,20.0906],[84.8118,20.0668],[84.8571,20.0303],[84.8625,20.0006],[84.9009,19.9918],[84.9012,19.9918],[84.9171,19.9521],[84.9208,19.9433],[84.9074,19.908],[84.928,19.9084],[84.9399,19.8973],[84.9349,19.8751],[84.9692,19.8546],[84.9841,19.8203],[85.0043,19.8047],[85.0449,19.8063],[85.0724,19.7946],[85.0839,19.7705],[85.1379,19.7392],[85.1827,19.6782],[85.1824,19.6727],[85.1824,19.6723],[85.1741,19.5579],[85.135,19.5214],[85.1726,19.4673],[85.1017,19.4109],[85.0792,19.375],[84.9815,19.3166],[84.8788,19.2312],[84.8107,19.1576],[84.7652,19.077],[84.7007,19.1188],[84.6979,19.1452],[84.7083,19.1474],[84.7098,19.1592],[84.6722,19.1664],[84.6685,19.1647],[84.6653,19.1308],[84.5933,19.1334],[84.6074,19.1018],[84.6233,19.0998],[84.6233,19.0858],[84.657,19.0953],[84.6689,19.0774],[84.6591,19.064],[84.6161,19.0669],[84.6186,19.0571],[84.6045,19.0389],[84.5947,19.0268],[84.5922,19.0232],[84.5868,19.0291],[84.5799,19.0366],[84.5752,19.0415],[84.5806,19.0738],[84.5708,19.0747],[84.5546,19.0575],[84.5144,19.0493],[84.4807,19.0174],[84.4739,18.9903],[84.4192,19.0229],[84.4297,18.9958],[84.45,18.9786],[84.4286,18.9701],[84.4225,18.9496],[84.4113,18.9388],[84.3939,18.9535],[84.4105,18.9652],[84.4073,18.9727],[84.3863,18.9688],[84.3845,18.9685],[84.3986,18.9854],[84.3935,19.0011],[84.3595,18.9926],[84.3711,19.0112],[84.3537,19.0086],[84.3642,19.0532],[84.3512,19.0679],[84.3581,19.0774],[84.3483,19.0787],[84.387,19.122],[84.3762,19.1357],[84.3885,19.1419],[84.3649,19.1611],[84.3686,19.1797],[84.3599,19.1882],[84.3986,19.2012],[84.3968,19.214],[84.4257,19.2609],[84.4196,19.2795],[84.4275,19.2997],[84.4156,19.3277],[84.4207,19.3483],[84.4395,19.3633],[84.3935,19.3717],[84.3794,19.3848],[84.3903,19.3991],[84.3704,19.4099],[84.3722,19.4265],[84.4236,19.4405],[84.4044,19.4572],[84.3957,19.4519],[84.3953,19.4702],[84.374,19.4878],[84.387,19.5149],[84.3834,19.5462],[84.4026,19.5556],[84.4011,19.5755],[84.336,19.5941],[84.3226,19.6071],[84.3197,19.5784],[84.2994,19.5749],[84.2998,19.5736],[84.3099,19.5719],[84.311,19.5716],[84.3118,19.5716],[84.3031,19.567],[84.2719,19.5511],[84.2701,19.5501],[84.2622,19.5801],[84.2528,19.5602],[84.2484,19.5657],[84.2473,19.5628],[84.2441,19.5713],[84.2365,19.5807],[84.234,19.5732]]]]}},{"type":"Feature","properties":{"district":"Gajapati","district_hi":"गजपति"},"geometry":{"type":"Polygon","coordinates":[[[83.9401,19.6352],[83.955,19.6361],[83.9665,19.6238],[84.0035,19.6286],[84.0096,19.6189],[84.0273,19.6368],[84.0433,19.6273],[84.0831,19.6329],[84.1059,19.6231],[84.1301,19.63],[84.1529,19.5833],[84.2036,19.5931],[84.2068,19.5921],[84.205,19.5797],[84.2155,19.585],[84.234,19.5732],[84.2365,19.5807],[84.2441,19.5713],[84.2473,19.5628],[84.2484,19.5657],[84.2528,19.5602],[84.2622,19.5801],[84.2701,19.5501],[84.2719,19.5511],[84.3031,19.567],[84.3118,19.5716],[84.311,19.5716],[84.3099,19.5719],[84.2998,19.5736],[84.2994,19.5749],[84.3197,19.5784],[84.3226,19.6071],[84.336,19.5941],[84.4011,19.5755],[84.4026,19.5556],[84.3834,19.5462],[84.387,19.5149],[84.374,19.4878],[84.3953,19.4702],[84.3957,19.4519],[84.4044,19.4572],[84.4236,19.4405],[84.3722,19.4265],[84.3704,19.4099],[84.3903,19.3991],[84.3794,19.3848],[84.3935,19.3717],[84.4395,19.3633],[84.4207,19.3483],[84.4156,19.3277],[84.4275,19.2997],[84.4196,19.2795],[84.4257,19.2609],[84.3968,19.214],[84.3986,19.2012],[84.3599,19.1882],[84.3686,19.1797],[84.3649,19.1611],[84.3885,19.1419],[84.3762,19.1357],[84.387,19.122],[84.3483,19.0787],[84.3581,19.0774],[84.3512,19.0679],[84.3642,19.0532],[84.3537,19.0086],[84.3711,19.0112],[84.3595,18.9926],[84.3935,19.0011],[84.3986,18.9854],[84.3845,18.9685],[84.3863,18.9688],[84.4073,18.9727],[84.4105,18.9652],[84.3939,18.9535],[84.4113,18.9388],[84.4225,18.9496],[84.4221,18.9486],[84.4232,18.9463],[84.4315,18.9306],[84.4348,18.9241],[84.4283,18.9127],[84.4268,18.9108],[84.425,18.9117],[84.4171,18.9189],[84.4167,18.9143],[84.4163,18.9039],[84.416,18.899],[84.3769,18.9055],[84.3953,18.8918],[84.3903,18.8775],[84.3581,18.8954],[84.3823,18.8755],[84.3722,18.8628],[84.3602,18.8622],[84.3367,18.8896],[84.3306,18.883],[84.3331,18.8602],[84.3628,18.84],[84.3476,18.8214],[84.3288,18.8188],[84.3425,18.8032],[84.3255,18.8002],[84.319,18.7878],[84.2868,18.8048],[84.2846,18.7934],[84.2586,18.7839],[84.2242,18.7996],[84.2162,18.7911],[84.1934,18.7927],[84.188,18.7787],[84.1572,18.7888],[84.1384,18.7781],[84.1355,18.7624],[84.1203,18.7689],[84.0892,18.7585],[84.0364,18.8172],[84.0035,18.8097],[83.9636,18.8156],[83.9481,18.8061],[83.9137,18.8289],[83.8913,18.8156],[83.8544,18.8589],[83.8482,18.8664],[83.846,18.9134],[83.8269,18.916],[83.8218,18.96],[83.8185,18.9668],[83.8128,18.9786],[83.7954,19.0138],[83.7932,19.018],[83.7947,19.0177],[83.8015,19.0242],[83.8091,19.0311],[83.8298,19.0076],[83.8323,19.0043],[83.8327,19.0046],[83.8334,19.0037],[83.8479,19.0053],[83.8576,18.991],[83.8913,18.9945],[83.9079,19.0196],[83.9503,18.9975],[83.9553,19.0011],[83.9857,19.0219],[83.9633,19.0428],[83.9647,19.0627],[83.9778,19.0721],[84.0035,19.0699],[84.0092,19.0571],[84.032,19.0584],[84.0136,19.0998],[84.0158,19.1181],[84.0338,19.1321],[83.989,19.1569],[83.9883,19.1866],[83.9977,19.1934],[83.9799,19.213],[84.0201,19.2906],[84.0143,19.3065],[84.0288,19.3473],[84.0154,19.377],[83.9901,19.3887],[83.9872,19.4024],[83.9778,19.3835],[83.9474,19.3965],[83.9419,19.42],[83.9767,19.4859],[83.9593,19.5077],[83.9792,19.5315],[83.9401,19.5546],[83.9376,19.5599],[83.9249,19.6264],[83.9401,19.6352]],[[84.3519,19.1129],[84.353,19.11],[84.3534,19.1096],[84.3541,19.1103],[84.3552,19.1116],[84.3559,19.1126],[84.3519,19.1129]],[[84.3704,19.1188],[84.3678,19.1197],[84.3682,19.1188],[84.37,19.1165],[84.3704,19.1188]]]}},{"type":"Feature","properties":{"district":"Mayurbhanj","district_hi":"मयूरभंज"},"geometry":{"type":"Polygon","coordinates":[[[87.1009,21.8638],[87.1085,21.856],[87.178,21.8133],[87.1856,21.7918],[87.1747,21.8113],[87.1737,21.7882],[87.1643,21.7882],[87.1592,21.7712],[87.1306,21.7787],[87.1244,21.7719],[87.1172,21.7892],[87.1038,21.784],[87.102,21.7716],[87.1223,21.7543],[87.0944,21.7474],[87.0959,21.7331],[87.0846,21.738],[87.0937,21.7259],[87.0868,21.7298],[87.0872,21.7158],[87.0698,21.7077],[87.0463,21.7139],[87.0463,21.7396],[87.0253,21.7429],[87.0365,21.6982],[87.0517,21.6832],[87.0521,21.6826],[87.0325,21.6738],[87.0307,21.661],[87.0159,21.6741],[87.0014,21.6741],[86.9906,21.6712],[86.9895,21.6552],[86.9895,21.6532],[87.0119,21.649],[87.0039,21.6262],[86.9931,21.6356],[86.9862,21.6284],[87.0061,21.6007],[87.0054,21.6004],[86.9605,21.5808],[86.9631,21.5939],[86.9551,21.5958],[86.9573,21.5737],[86.9207,21.5913],[86.9102,21.5808],[86.9012,21.6121],[86.8914,21.6125],[86.8755,21.6382],[86.8733,21.6223],[86.8867,21.6125],[86.8646,21.591],[86.8567,21.6033],[86.8436,21.5991],[86.8303,21.6089],[86.7995,21.6076],[86.7948,21.5978],[86.7398,21.6056],[86.6931,21.5851],[86.683,21.5968],[86.6642,21.5782],[86.6486,21.5808],[86.6374,21.5336],[86.6099,21.5186],[86.582,21.5222],[86.5299,21.4266],[86.5292,21.4257],[86.527,21.4237],[86.4575,21.3653],[86.4297,21.3419],[86.4105,21.3256],[86.4047,21.3207],[86.3606,21.3018],[86.3602,21.3031],[86.3595,21.307],[86.358,21.3142],[86.2694,21.3794],[86.2676,21.3608],[86.2267,21.323],[86.209,21.2803],[86.1898,21.2708],[86.1583,21.291],[86.1384,21.2799],[86.1377,21.2646],[86.1163,21.2728],[86.1084,21.3034],[86.0914,21.3116],[86.1069,21.3252],[86.1069,21.35],[86.1254,21.3588],[86.1221,21.3719],[86.1384,21.4009],[86.1648,21.4234],[86.1312,21.471],[86.0085,21.5336],[86.0212,21.5492],[86.0179,21.5603],[86.0487,21.5769],[86.0809,21.6288],[86.0736,21.6607],[86.0845,21.6914],[86.0595,21.6927],[86.0515,21.7171],[86.0374,21.692],[86.0266,21.695],[86.028,21.724],[86.0161,21.7504],[85.968,21.7393],[85.9383,21.7624],[85.9021,21.766],[85.875,21.795],[85.812,21.8104],[85.8073,21.887],[85.7899,21.9033],[85.7957,21.9509],[85.7498,21.977],[85.7404,21.9923],[85.7078,21.9845],[85.7078,21.9841],[85.6995,21.9913],[85.7045,22.004],[85.6712,22.0131],[85.6644,22.033],[85.6792,22.0562],[85.6832,22.0572],[85.7494,22.0735],[85.8087,22.1152],[85.8098,22.1158],[85.8229,22.1064],[85.8153,22.095],[85.8352,22.093],[85.8384,22.0797],[85.8182,22.0735],[85.7957,22.0806],[85.7773,22.0555],[85.7834,22.0314],[85.7613,22.0109],[85.766,21.9949],[85.7841,21.9845],[85.8178,21.9854],[85.8258,21.975],[85.8967,21.9838],[85.9093,21.9747],[85.918,22.0092],[85.9307,22.0233],[85.9437,22.0203],[86.0092,22.1158],[85.9965,22.1325],[86.0313,22.1898],[85.9737,22.2472],[85.9897,22.2544],[85.9882,22.2671],[86.0172,22.2971],[86.0443,22.3085],[86.0157,22.3124],[86.0291,22.3343],[85.998,22.3414],[86.0248,22.3737],[86.0266,22.3923],[86.0179,22.4259],[85.9897,22.434],[85.9864,22.435],[85.9803,22.4412],[85.9687,22.4533],[85.9578,22.464],[85.9571,22.4647],[85.9575,22.4653],[85.9625,22.4852],[85.9846,22.5152],[86.0284,22.524],[86.0338,22.5345],[86.024,22.5446],[86.0461,22.5667],[86.0534,22.5631],[86.0667,22.5569],[86.0689,22.556],[86.1185,22.4869],[86.1185,22.4865],[86.2079,22.4735],[86.226,22.4529],[86.2694,22.4422],[86.2835,22.4477],[86.3229,22.3848],[86.3595,22.3486],[86.4297,22.3167],[86.4326,22.3066],[86.4445,22.3059],[86.4467,22.3278],[86.4474,22.3274],[86.4637,22.3251],[86.4963,22.3467],[86.4966,22.3473],[86.497,22.3467],[86.51,22.3271],[86.5292,22.3229],[86.5343,22.301],[86.5408,22.3082],[86.5549,22.2984],[86.5824,22.3017],[86.5828,22.3004],[86.5958,22.2775],[86.6128,22.2824],[86.6464,22.2678],[86.6501,22.2541],[86.6551,22.2368],[86.6598,22.2381],[86.6707,22.2423],[86.6714,22.241],[86.6725,22.2414],[86.6855,22.2228],[86.7271,22.2172],[86.7271,22.2169],[86.7268,22.2159],[86.7217,22.1468],[86.7948,22.1572],[86.8042,22.1504],[86.802,22.1305],[86.814,22.1259],[86.8089,22.1191],[86.8285,22.1178],[86.8379,22.0976],[86.9649,22.0858],[86.9927,22.0549],[87.0282,22.0379],[87.0307,21.9854],[87.0021,21.9134],[87.0039,21.9105],[87.0365,21.8697],[87.0387,21.8681],[87.0398,21.8674],[87.0991,21.8655],[87.1009,21.8638]]]}},{"type":"Feature","properties":{"district":"Sundargarh","district_hi":"सुंदरगढ़"},"geometry":{"type":"Polygon","coordinates":[[[85.1911,21.661],[85.1889,21.6575],[85.1802,21.6447],[85.194,21.6399],[85.1943,21.6399],[85.1936,21.6392],[85.1795,21.6268],[85.1444,21.5952],[85.144,21.5952],[85.0774,21.6037],[85.0485,21.591],[85.0297,21.6278],[85.0264,21.6725],[84.9982,21.6819],[84.9754,21.6728],[84.9566,21.6842],[84.9537,21.665],[84.9414,21.6594],[84.9146,21.6705],[84.9012,21.6588],[84.861,21.6519],[84.8553,21.6604],[84.7901,21.6685],[84.7818,21.6493],[84.7937,21.6366],[84.7576,21.6245],[84.7413,21.6692],[84.7471,21.6826],[84.7181,21.7171],[84.6913,21.7096],[84.6751,21.7364],[84.6783,21.7491],[84.6779,21.7494],[84.6609,21.7611],[84.6573,21.7637],[84.6099,21.7664],[84.5882,21.7579],[84.5538,21.7693],[84.5676,21.7866],[84.526,21.8136],[84.5278,21.8524],[84.5394,21.8619],[84.5252,21.8723],[84.5267,21.8902],[84.4909,21.9114],[84.4949,21.9206],[84.5252,21.9258],[84.5169,21.9483],[84.5267,21.973],[84.5068,21.9584],[84.5003,21.9724],[84.5086,22.02],[84.5278,22.0457],[84.5104,22.0572],[84.5144,22.0849],[84.4952,22.0924],[84.4959,22.1377],[84.4764,22.1898],[84.4181,22.1726],[84.3845,22.1458],[84.3639,22.1501],[84.3403,22.1302],[84.2998,22.1171],[84.2777,22.1233],[84.2795,22.1093],[84.2669,22.1041],[84.2694,22.0154],[84.2694,22.0148],[84.2698,22.0083],[84.2394,21.9773],[84.2347,21.9773],[84.2039,21.9776],[84.1685,22.0011],[84.1377,21.9978],[84.1174,22.0128],[84.1062,21.992],[84.0889,21.9995],[84.0867,21.99],[84.0704,21.9897],[84.0892,21.9629],[84.0802,21.9365],[84.0628,21.9336],[84.0284,21.9532],[84.0067,21.9225],[83.9778,21.9046],[83.9593,21.9417],[83.8978,21.945],[83.8801,21.9238],[83.8518,21.9235],[83.8659,21.9105],[83.8312,21.8961],[83.829,21.8772],[83.8164,21.8847],[83.8142,21.8537],[83.7939,21.8664],[83.7382,21.8166],[83.7194,21.7859],[83.6901,21.7895],[83.6868,21.8016],[83.6365,21.8188],[83.6246,21.8479],[83.5913,21.825],[83.5794,21.8303],[83.5909,21.8511],[83.5743,21.8749],[83.5779,21.8896],[83.6054,21.9137],[83.5906,21.9297],[83.5569,21.9352],[83.5616,21.9479],[83.5392,21.9659],[83.5435,21.9942],[83.5555,22.007],[83.5396,22.0206],[83.5392,22.0233],[83.5374,22.0425],[83.537,22.0444],[83.5374,22.0448],[83.5428,22.0523],[83.5479,22.0591],[83.5482,22.0591],[83.5866,22.049],[83.5899,22.051],[83.6065,22.0663],[83.6065,22.0666],[83.5642,22.1015],[83.5627,22.1028],[83.6061,22.1517],[83.6079,22.154],[83.6275,22.2039],[83.63,22.2058],[83.6336,22.2094],[83.6496,22.2234],[83.6756,22.2345],[83.6973,22.2436],[83.7042,22.2466],[83.7574,22.2404],[83.7657,22.2498],[83.795,22.286],[83.7968,22.2864],[83.803,22.2935],[83.8091,22.289],[83.812,22.2896],[83.8261,22.2935],[83.8232,22.3066],[83.8218,22.3128],[83.8218,22.3131],[83.8381,22.3245],[83.8641,22.3434],[83.8906,22.3366],[83.9235,22.3584],[84.0103,22.3714],[84.0136,22.3975],[84.0472,22.4383],[84.0472,22.4692],[83.9799,22.5025],[83.9774,22.5103],[83.9767,22.5136],[83.976,22.5149],[83.9973,22.5312],[84.0089,22.5283],[84.0118,22.5276],[84.0599,22.5165],[84.1116,22.4771],[84.141,22.4738],[84.141,22.4256],[84.1562,22.4076],[84.1967,22.378],[84.2502,22.3789],[84.2915,22.3428],[84.4294,22.3525],[84.4308,22.3731],[84.4851,22.3894],[84.4757,22.4011],[84.48,22.4132],[84.5354,22.4272],[84.6287,22.4344],[84.6667,22.4197],[84.75,22.419],[84.759,22.4468],[84.8104,22.4533],[84.8176,22.437],[84.8368,22.4314],[84.8802,22.449],[84.886,22.4203],[84.8893,22.4207],[84.9128,22.4252],[84.9258,22.435],[84.9215,22.4441],[84.9544,22.4588],[84.9591,22.4451],[85.0358,22.4767],[85.0384,22.4839],[85.0499,22.4829],[85.0695,22.4908],[85.0669,22.4842],[85.0727,22.4807],[85.0756,22.4803],[85.076,22.4787],[85.0771,22.4637],[85.0597,22.4487],[85.0865,22.3998],[85.0767,22.3561],[85.0955,22.3447],[85.0919,22.316],[85.118,22.3176],[85.1169,22.2945],[85.0709,22.2746],[85.0782,22.2573],[85.0496,22.1947],[85.0543,22.1837],[85.0297,22.1625],[85.0286,22.122],[84.9848,22.0956],[84.9844,22.0858],[85.0007,22.0829],[85.0242,22.1093],[85.0355,22.1116],[85.0492,22.1142],[85.0554,22.1155],[85.0984,22.1061],[85.1219,22.0709],[85.1563,22.0761],[85.1589,22.0764],[85.1657,22.063],[85.1708,22.0562],[85.1675,22.0692],[85.1802,22.0735],[85.1806,22.0728],[85.1871,22.0581],[85.2142,22.0493],[85.2218,22.018],[85.2385,22.0099],[85.2392,22.0096],[85.2341,21.9972],[85.2334,21.9959],[85.279,21.9584],[85.2902,21.9551],[85.3141,21.9587],[85.3781,21.9356],[85.364,21.8593],[85.3409,21.8247],[85.3097,21.8195],[85.2909,21.8374],[85.245,21.8035],[85.2265,21.8201],[85.2001,21.7621],[85.2149,21.7383],[85.1845,21.709],[85.1929,21.6966],[85.1914,21.6614],[85.1911,21.661]]]}},{"type":"Feature","properties":{"district":"Kendujhar","district_hi":"केन्दूझर"},"geometry":{"type":"Polygon","coordinates":[[[86.3667,21.2366],[86.3667,21.2362],[86.3551,21.2362],[86.3544,21.2362],[86.353,21.2001],[86.3526,21.1903],[86.3454,21.186],[86.3327,21.1789],[86.315,21.1681],[86.3143,21.1684],[86.294,21.1743],[86.2802,21.1547],[86.2755,21.1443],[86.2839,21.1316],[86.3132,21.1114],[86.3096,21.0853],[86.3266,21.0648],[86.3284,21.0625],[86.328,21.0605],[86.3269,21.0576],[86.3251,21.0527],[86.3168,21.0563],[86.3085,21.0172],[86.2842,21.0211],[86.2864,21.0155],[86.2708,21.0299],[86.1337,21.0765],[86.1131,21.055],[86.0932,21.054],[86.0895,21.0198],[86.0494,21.0217],[86.0291,21.0719],[86.0534,21.1163],[86.0769,21.1296],[86.0747,21.1534],[86.0848,21.1691],[86.0653,21.1521],[86.0367,21.1606],[86.0273,21.1381],[85.9752,21.143],[85.9423,21.1287],[85.9289,21.1362],[85.9169,21.0925],[85.888,21.0863],[85.8873,21.0863],[85.8862,21.0863],[85.8221,21.0908],[85.8069,21.1065],[85.7787,21.1055],[85.774,21.1055],[85.7621,21.145],[85.7617,21.145],[85.7447,21.143],[85.7404,21.1394],[85.7118,21.1388],[85.7281,21.1414],[85.7056,21.1688],[85.7074,21.1811],[85.6835,21.1857],[85.6633,21.1665],[85.6253,21.1609],[85.6065,21.1365],[85.5453,21.1671],[85.4979,21.1153],[85.4715,21.1202],[85.4682,21.1228],[85.3951,21.1818],[85.3937,21.1834],[85.3933,21.1834],[85.3832,21.2036],[85.36,21.2447],[85.2974,21.2757],[85.2866,21.264],[85.2703,21.2741],[85.2703,21.2744],[85.2707,21.2803],[85.2718,21.3028],[85.2728,21.3024],[85.2844,21.2982],[85.3152,21.3301],[85.3257,21.3204],[85.3427,21.366],[85.3264,21.3905],[85.305,21.3963],[85.304,21.4162],[85.2725,21.4279],[85.2551,21.4514],[85.2631,21.4573],[85.3058,21.4469],[85.3083,21.4618],[85.334,21.4811],[85.334,21.4817],[85.322,21.5319],[85.321,21.5346],[85.3025,21.5313],[85.3003,21.5489],[85.3,21.5538],[85.3123,21.5691],[85.2862,21.5844],[85.283,21.5929],[85.2938,21.5994],[85.2685,21.6223],[85.2551,21.6741],[85.2095,21.6754],[85.2016,21.6607],[85.1911,21.6607],[85.1911,21.661],[85.1914,21.6614],[85.1929,21.6966],[85.1845,21.709],[85.2149,21.7383],[85.2001,21.7621],[85.2265,21.8201],[85.245,21.8035],[85.2909,21.8374],[85.3097,21.8195],[85.3409,21.8247],[85.364,21.8593],[85.3781,21.9356],[85.3141,21.9587],[85.2902,21.9551],[85.279,21.9584],[85.2334,21.9959],[85.2341,21.9972],[85.2392,22.0096],[85.2385,22.0099],[85.275,22.0823],[85.2794,22.0868],[85.2812,22.0904],[85.2938,22.1015],[85.3148,22.1201],[85.3231,22.1276],[85.334,22.1263],[85.3666,22.123],[85.3662,22.153],[85.3662,22.1589],[85.3702,22.1595],[85.3785,22.1605],[85.3977,22.1631],[85.4085,22.1589],[85.4921,22.125],[85.5171,22.1149],[85.5218,22.111],[85.5453,22.0898],[85.5627,22.0953],[85.5992,22.0784],[85.6539,22.0927],[85.656,22.0933],[85.681,22.0614],[85.6803,22.0604],[85.6832,22.0572],[85.6792,22.0562],[85.6644,22.033],[85.6712,22.0131],[85.7045,22.004],[85.6995,21.9913],[85.7078,21.9841],[85.7078,21.9845],[85.7404,21.9923],[85.7498,21.977],[85.7957,21.9509],[85.7899,21.9033],[85.8073,21.887],[85.812,21.8104],[85.875,21.795],[85.9021,21.766],[85.9383,21.7624],[85.968,21.7393],[86.0161,21.7504],[86.028,21.724],[86.0266,21.695],[86.0374,21.692],[86.0515,21.7171],[86.0595,21.6927],[86.0845,21.6914],[86.0736,21.6607],[86.0809,21.6288],[86.0487,21.5769],[86.0179,21.5603],[86.0212,21.5492],[86.0085,21.5336],[86.1312,21.471],[86.1648,21.4234],[86.1384,21.4009],[86.1221,21.3719],[86.1254,21.3588],[86.1069,21.35],[86.1069,21.3252],[86.0914,21.3116],[86.1084,21.3034],[86.1163,21.2728],[86.1377,21.2646],[86.1384,21.2799],[86.1583,21.291],[86.1898,21.2708],[86.209,21.2803],[86.2267,21.323],[86.2676,21.3608],[86.2694,21.3794],[86.358,21.3142],[86.3595,21.307],[86.3602,21.3031],[86.358,21.3021],[86.353,21.2835],[86.3722,21.2584],[86.3667,21.2366]]]}},{"type":"Feature","properties":{"district":"Balasore","district_hi":"बालेश्वर"},"geometry":{"type":"Polygon","coordinates":[[[86.8596,21.2144],[86.8581,21.2121],[86.8404,21.204],[86.8017,21.2307],[86.785,21.2199],[86.7702,21.2258],[86.7716,21.2043],[86.7575,21.1971],[86.7753,21.1707],[86.7061,21.1841],[86.6946,21.1652],[86.6729,21.1697],[86.6522,21.1084],[86.6696,21.0951],[86.6696,21.0941],[86.6663,21.082],[86.6472,21.0788],[86.653,21.0605],[86.6515,21.0615],[86.6251,21.0723],[86.6352,21.0856],[86.6287,21.0931],[86.5932,21.097],[86.59,21.1163],[86.5618,21.1424],[86.5625,21.1573],[86.5306,21.1603],[86.5154,21.1352],[86.4561,21.1622],[86.4496,21.1541],[86.4326,21.1609],[86.4449,21.1723],[86.4442,21.1736],[86.4282,21.1805],[86.4275,21.1808],[86.4268,21.1808],[86.4438,21.2001],[86.434,21.2206],[86.4214,21.2219],[86.4185,21.2056],[86.3808,21.2281],[86.3667,21.2366],[86.3722,21.2584],[86.353,21.2835],[86.358,21.3021],[86.3602,21.3031],[86.3606,21.3018],[86.4047,21.3207],[86.4105,21.3256],[86.4297,21.3419],[86.4575,21.3653],[86.527,21.4237],[86.5292,21.4257],[86.5299,21.4266],[86.582,21.5222],[86.6099,21.5186],[86.6374,21.5336],[86.6486,21.5808],[86.6642,21.5782],[86.683,21.5968],[86.6931,21.5851],[86.7398,21.6056],[86.7948,21.5978],[86.7995,21.6076],[86.8303,21.6089],[86.8436,21.5991],[86.8567,21.6033],[86.8646,21.591],[86.8867,21.6125],[86.8733,21.6223],[86.8755,21.6382],[86.8914,21.6125],[86.9012,21.6121],[86.9102,21.5808],[86.9207,21.5913],[86.9573,21.5737],[86.9551,21.5958],[86.9631,21.5939],[86.9605,21.5808],[87.0054,21.6004],[87.0061,21.6007],[86.9862,21.6284],[86.9931,21.6356],[87.0039,21.6262],[87.0119,21.649],[86.9895,21.6532],[86.9895,21.6552],[86.9906,21.6712],[87.0014,21.6741],[87.0159,21.6741],[87.0307,21.661],[87.0325,21.6738],[87.0521,21.6826],[87.0517,21.6832],[87.0365,21.6982],[87.0253,21.7429],[87.0463,21.7396],[87.0463,21.7139],[87.0698,21.7077],[87.0872,21.7158],[87.0868,21.7298],[87.0937,21.7259],[87.0846,21.738],[87.0959,21.7331],[87.0944,21.7474],[87.1223,21.7543],[87.102,21.7716],[87.1038,21.784],[87.1172,21.7892],[87.1244,21.7719],[87.1306,21.7787],[87.1592,21.7712],[87.1643,21.7882],[87.1737,21.7882],[87.1747,21.8113],[87.1856,21.7918],[87.178,21.8133],[87.1085,21.856],[87.1009,21.8638],[87.0984,21.8733],[87.0908,21.8997],[87.0966,21.9082],[87.1085,21.9251],[87.1375,21.9235],[87.1614,21.9356],[87.1711,21.9786],[87.1715,21.9792],[87.1881,21.9659],[87.1965,21.9597],[87.2113,21.9662],[87.2392,21.9561],[87.2435,21.9639],[87.2359,21.9437],[87.2536,21.9241],[87.2446,21.9091],[87.2388,21.9016],[87.2392,21.9003],[87.2515,21.8749],[87.2489,21.8537],[87.2706,21.8276],[87.2641,21.8192],[87.2638,21.8188],[87.2761,21.8084],[87.279,21.8058],[87.2826,21.8029],[87.2978,21.8107],[87.3104,21.7924],[87.3354,21.7934],[87.3379,21.7836],[87.3553,21.7911],[87.3701,21.7699],[87.3723,21.7667],[87.3738,21.7641],[87.3857,21.7758],[87.3958,21.766],[87.4414,21.768],[87.445,21.7432],[87.4534,21.7396],[87.4443,21.7341],[87.4693,21.7321],[87.4718,21.6839],[87.4617,21.6513],[87.4758,21.647],[87.4773,21.6444],[87.4849,21.6151],[87.4841,21.6027],[87.4353,21.5815],[87.4078,21.5456],[87.3821,21.5737],[87.3361,21.5773],[87.3712,21.5632],[87.394,21.5329],[87.3589,21.5421],[87.2207,21.5362],[87.148,21.5088],[87.0861,21.4599],[87.0676,21.4628],[87.0503,21.4296],[86.9489,21.3585],[86.8596,21.2144]]]}},{"type":"Feature","properties":{"district":"Jharsuguda","district_hi":"झारसुगुड़ा"},"geometry":{"type":"Polygon","coordinates":[[[83.5913,21.825],[83.6246,21.8479],[83.6365,21.8188],[83.6868,21.8016],[83.6901,21.7895],[83.7194,21.7859],[83.7382,21.8166],[83.7939,21.8664],[83.8142,21.8537],[83.8164,21.8847],[83.829,21.8772],[83.8312,21.8961],[83.8659,21.9105],[83.8518,21.9235],[83.8801,21.9238],[83.8978,21.945],[83.9593,21.9417],[83.9778,21.9046],[84.0067,21.9225],[84.0284,21.9532],[84.0628,21.9336],[84.0802,21.9365],[84.0892,21.9629],[84.0704,21.9897],[84.0867,21.99],[84.0889,21.9995],[84.1062,21.992],[84.1174,22.0128],[84.1377,21.9978],[84.1685,22.0011],[84.2039,21.9776],[84.2347,21.9773],[84.2394,21.9773],[84.2698,22.0083],[84.2694,22.0148],[84.2741,22.0151],[84.2868,22.0138],[84.2875,22.0154],[84.2984,22.035],[84.3237,22.0376],[84.3584,22.0379],[84.3924,22.0229],[84.383,22.0151],[84.3805,21.9779],[84.3639,21.9828],[84.3736,21.9554],[84.3291,21.8625],[84.3295,21.8322],[84.289,21.7712],[84.2654,21.765],[84.2535,21.796],[84.2383,21.8055],[84.1645,21.7869],[84.158,21.7735],[84.1164,21.7872],[84.0892,21.7706],[84.0574,21.7732],[84.0378,21.7553],[84.0212,21.7849],[84.0067,21.7869],[84.0016,21.7729],[83.981,21.7804],[83.9846,21.7562],[83.9705,21.7605],[83.9553,21.7328],[83.9434,21.7289],[83.9741,21.7031],[83.9716,21.5887],[83.9676,21.5808],[83.8996,21.576],[83.8815,21.5763],[83.8645,21.5795],[83.8109,21.5903],[83.8088,21.5906],[83.7997,21.5632],[83.7313,21.6252],[83.6966,21.6985],[83.6944,21.6998],[83.6886,21.7028],[83.6496,21.7223],[83.5692,21.7429],[83.5678,21.7432],[83.5663,21.7435],[83.5457,21.7282],[83.5265,21.6731],[83.4871,21.6434],[83.4867,21.6434],[83.418,21.68],[83.4321,21.6998],[83.4607,21.6976],[83.4907,21.7445],[83.4762,21.7517],[83.482,21.766],[83.469,21.7872],[83.4849,21.7934],[83.4922,21.8172],[83.5417,21.7983],[83.5417,21.7986],[83.5338,21.8257],[83.5327,21.8296],[83.5374,21.8342],[83.5453,21.8381],[83.5913,21.825]]]}},{"type":"Feature","properties":{"district":"Bargarh","district_hi":"बरगढ़"},"geometry":{"type":"Polygon","coordinates":[[[83.8945,21.1756],[83.8779,21.1626],[83.8464,21.0993],[83.8399,21.0934],[83.7997,21.1137],[83.7842,21.1515],[83.7682,21.1547],[83.7621,21.1427],[83.7129,21.1192],[83.6043,21.1283],[83.5949,21.1078],[83.5482,21.0768],[83.4918,21.0622],[83.494,21.0406],[83.4589,21.0592],[83.4571,21.0579],[83.4248,21.0302],[83.3919,21.0696],[83.3785,21.0605],[83.3521,21.071],[83.3423,21.0563],[83.3221,21.0563],[83.3221,21.056],[83.2957,21.0136],[83.3268,20.9947],[83.3326,20.9806],[83.3612,21.0031],[83.3865,20.9888],[83.3919,20.9634],[83.38,20.9399],[83.4158,20.9073],[83.4049,20.889],[83.3507,20.8731],[83.329,20.8809],[83.3185,20.86],[83.2848,20.8532],[83.2794,20.8418],[83.2772,20.8682],[83.2526,20.8972],[83.2515,20.9164],[83.2168,20.9301],[83.1915,20.8959],[83.1448,20.8809],[83.1303,20.8577],[83.1024,20.8747],[83.0869,20.8577],[83.0326,20.8528],[83.0145,20.8616],[83.0026,20.8486],[82.9805,20.8457],[82.9671,20.8929],[82.9258,20.8828],[82.9179,20.8995],[82.8886,20.9076],[82.7717,20.801],[82.7464,20.7694],[82.7348,20.7221],[82.708,20.727],[82.7008,20.7283],[82.6863,20.7319],[82.6986,20.7599],[82.6841,20.8124],[82.6809,20.8851],[82.6939,20.9027],[82.6986,20.9376],[82.6874,20.9731],[82.6935,21.0204],[82.6704,21.0638],[82.6382,21.0886],[82.6375,21.0892],[82.6356,21.0905],[82.6501,21.1065],[82.6414,21.1169],[82.6403,21.1182],[82.653,21.1293],[82.6375,21.1446],[82.64,21.1544],[82.6403,21.1544],[82.7558,21.1668],[82.7938,21.1427],[82.8003,21.1557],[82.8509,21.1684],[82.8531,21.1593],[82.8766,21.1635],[82.8824,21.1482],[82.9023,21.1668],[82.9378,21.1697],[82.9479,21.1616],[82.9439,21.1779],[82.9649,21.1932],[82.9657,21.1753],[82.9881,21.1828],[82.9805,21.1701],[83.0033,21.1681],[82.9859,21.1508],[82.9903,21.1397],[83.016,21.1463],[83.0778,21.1117],[83.1314,21.1058],[83.1668,21.1388],[83.1922,21.1391],[83.2146,21.1948],[83.2218,21.2659],[83.2508,21.2822],[83.2711,21.2724],[83.2787,21.2894],[83.2577,21.3184],[83.258,21.3197],[83.2573,21.3204],[83.2721,21.3706],[83.2692,21.3777],[83.2689,21.3784],[83.2718,21.3774],[83.274,21.3768],[83.3789,21.3445],[83.3832,21.3455],[83.3919,21.3425],[83.3995,21.35],[83.4046,21.3552],[83.4082,21.3585],[83.3966,21.3673],[83.3988,21.4051],[83.3731,21.4429],[83.3539,21.4482],[83.338,21.5013],[83.3727,21.558],[83.3698,21.6004],[83.3825,21.6203],[83.4433,21.6555],[83.4509,21.6506],[83.444,21.6239],[83.4563,21.6099],[83.4661,21.6095],[83.4737,21.6324],[83.4889,21.6307],[83.4893,21.6304],[83.4867,21.6434],[83.4871,21.6434],[83.5265,21.6731],[83.5457,21.7282],[83.5663,21.7435],[83.5678,21.7432],[83.5692,21.7429],[83.6496,21.7223],[83.6886,21.7028],[83.6944,21.6998],[83.6966,21.6985],[83.7313,21.6252],[83.7997,21.5632],[83.8167,21.5355],[83.8471,21.5257],[83.8504,21.5192],[83.8866,21.4377],[83.8808,21.4257],[83.846,21.4139],[83.8804,21.3872],[83.8725,21.3057],[83.8721,21.3047],[83.8732,21.3024],[83.8775,21.2936],[83.8783,21.292],[83.8916,21.2936],[83.8895,21.2803],[83.8902,21.279],[83.9105,21.2385],[83.8985,21.2049],[83.8887,21.1759],[83.8945,21.1756]]]}},{"type":"Feature","properties":{"district":"Deogarh","district_hi":"देवगढ़"},"geometry":{"type":"Polygon","coordinates":[[[85.144,21.5952],[85.1878,21.588],[85.2041,21.5675],[85.2117,21.5564],[85.203,21.5212],[85.1541,21.4628],[85.0796,21.4589],[85.0601,21.4423],[85.021,21.4583],[85.0261,21.4478],[84.9986,21.4361],[84.9975,21.4358],[84.9917,21.4123],[85.0076,21.3794],[85.0083,21.3236],[85.0329,21.2933],[85.0174,21.2962],[85.0116,21.2975],[85.0112,21.2972],[84.9884,21.2871],[84.9569,21.2979],[84.8976,21.261],[84.9258,21.2336],[84.9396,21.1961],[84.97,21.189],[84.9624,21.1472],[84.949,21.1479],[84.9504,21.1707],[84.928,21.1808],[84.932,21.1534],[84.9186,21.1407],[84.8766,21.1645],[84.8176,21.1714],[84.7988,21.1665],[84.7992,21.1658],[84.7984,21.1655],[84.8089,21.1414],[84.8042,21.1365],[84.7952,21.1332],[84.7463,21.1681],[84.7445,21.1694],[84.7453,21.1697],[84.7409,21.1942],[84.7178,21.2085],[84.7232,21.2271],[84.751,21.2294],[84.7579,21.2301],[84.759,21.2304],[84.7702,21.2525],[84.7536,21.2578],[84.7608,21.2773],[84.7112,21.3184],[84.6855,21.3223],[84.658,21.3138],[84.6664,21.3037],[84.6461,21.3005],[84.6305,21.2754],[84.6125,21.277],[84.603,21.2623],[84.5661,21.2493],[84.5676,21.322],[84.5473,21.3732],[84.5448,21.3738],[84.5176,21.382],[84.4985,21.3751],[84.5003,21.3637],[84.4876,21.3693],[84.4909,21.3905],[84.4721,21.3944],[84.4623,21.3921],[84.4033,21.3794],[84.395,21.4211],[84.3946,21.427],[84.4163,21.454],[84.4095,21.4759],[84.446,21.4905],[84.4467,21.4909],[84.4438,21.5173],[84.4598,21.515],[84.4728,21.5381],[84.4934,21.5303],[84.5021,21.5427],[84.5017,21.5434],[84.4901,21.5773],[84.5111,21.5714],[84.5119,21.5805],[84.5357,21.5675],[84.5441,21.5828],[84.5712,21.5805],[84.5332,21.6056],[84.5263,21.6239],[84.5024,21.6232],[84.4865,21.6392],[84.5032,21.6826],[84.5372,21.6793],[84.5433,21.6787],[84.5437,21.6787],[84.5683,21.7025],[84.6309,21.6976],[84.64,21.7223],[84.6327,21.7386],[84.6479,21.7426],[84.6609,21.7611],[84.6779,21.7494],[84.6783,21.7491],[84.6751,21.7364],[84.6913,21.7096],[84.7181,21.7171],[84.7471,21.6826],[84.7413,21.6692],[84.7576,21.6245],[84.7937,21.6366],[84.7818,21.6493],[84.7901,21.6685],[84.8553,21.6604],[84.861,21.6519],[84.9012,21.6588],[84.9146,21.6705],[84.9414,21.6594],[84.9537,21.665],[84.9566,21.6842],[84.9754,21.6728],[84.9982,21.6819],[85.0264,21.6725],[85.0297,21.6278],[85.0485,21.591],[85.0774,21.6037],[85.144,21.5952]],[[84.8723,21.172],[84.8755,21.1727],[84.8766,21.173],[84.8752,21.1792],[84.8748,21.1782],[84.8723,21.172]]]}},{"type":"Feature","properties":{"district":"Sambalpur","district_hi":"संबलपुर"},"geometry":{"type":"Polygon","coordinates":[[[84.2792,20.9223],[84.2387,20.9226],[84.1923,20.9764],[84.1558,20.9745],[84.158,20.994],[84.1399,21.0126],[84.1424,21.0331],[84.0176,21.0517],[83.9886,21.0781],[83.993,21.1091],[83.9825,21.1169],[83.9843,21.1313],[83.9025,21.1753],[83.8945,21.1756],[83.8887,21.1759],[83.8985,21.2049],[83.9105,21.2385],[83.8902,21.279],[83.8895,21.2803],[83.8916,21.2936],[83.8783,21.292],[83.8775,21.2936],[83.8732,21.3024],[83.8721,21.3047],[83.8725,21.3057],[83.8804,21.3872],[83.846,21.4139],[83.8808,21.4257],[83.8866,21.4377],[83.8504,21.5192],[83.8471,21.5257],[83.8167,21.5355],[83.7997,21.5632],[83.8088,21.5906],[83.8109,21.5903],[83.8645,21.5795],[83.8815,21.5763],[83.8996,21.576],[83.9676,21.5808],[83.9716,21.5887],[83.9741,21.7031],[83.9434,21.7289],[83.9553,21.7328],[83.9705,21.7605],[83.9846,21.7562],[83.981,21.7804],[84.0016,21.7729],[84.0067,21.7869],[84.0212,21.7849],[84.0378,21.7553],[84.0574,21.7732],[84.0892,21.7706],[84.1164,21.7872],[84.158,21.7735],[84.1645,21.7869],[84.2383,21.8055],[84.2535,21.796],[84.2654,21.765],[84.289,21.7712],[84.3295,21.8322],[84.3291,21.8625],[84.3736,21.9554],[84.3639,21.9828],[84.3805,21.9779],[84.383,22.0151],[84.3924,22.0229],[84.3584,22.0379],[84.3237,22.0376],[84.2984,22.035],[84.2875,22.0154],[84.2868,22.0138],[84.2741,22.0151],[84.2694,22.0148],[84.2694,22.0154],[84.2669,22.1041],[84.2795,22.1093],[84.2777,22.1233],[84.2998,22.1171],[84.3403,22.1302],[84.3639,22.1501],[84.3845,22.1458],[84.4181,22.1726],[84.4764,22.1898],[84.4959,22.1377],[84.4952,22.0924],[84.5144,22.0849],[84.5104,22.0572],[84.5278,22.0457],[84.5086,22.02],[84.5003,21.9724],[84.5068,21.9584],[84.5267,21.973],[84.5169,21.9483],[84.5252,21.9258],[84.4949,21.9206],[84.4909,21.9114],[84.5267,21.8902],[84.5252,21.8723],[84.5394,21.8619],[84.5278,21.8524],[84.526,21.8136],[84.5676,21.7866],[84.5538,21.7693],[84.5882,21.7579],[84.6099,21.7664],[84.6573,21.7637],[84.6609,21.7611],[84.6479,21.7426],[84.6327,21.7386],[84.64,21.7223],[84.6309,21.6976],[84.5683,21.7025],[84.5437,21.6787],[84.5433,21.6787],[84.5372,21.6793],[84.5032,21.6826],[84.4865,21.6392],[84.5024,21.6232],[84.5263,21.6239],[84.5332,21.6056],[84.5712,21.5805],[84.5441,21.5828],[84.5357,21.5675],[84.5119,21.5805],[84.5111,21.5714],[84.4901,21.5773],[84.5017,21.5434],[84.5021,21.5427],[84.4934,21.5303],[84.4728,21.5381],[84.4598,21.515],[84.4438,21.5173],[84.4467,21.4909],[84.446,21.4905],[84.4095,21.4759],[84.4163,21.454],[84.3946,21.427],[84.395,21.4211],[84.4033,21.3794],[84.4623,21.3921],[84.4721,21.3944],[84.4909,21.3905],[84.4876,21.3693],[84.5003,21.3637],[84.4985,21.3751],[84.5176,21.382],[84.5448,21.3738],[84.5473,21.3732],[84.5676,21.322],[84.5661,21.2493],[84.603,21.2623],[84.6125,21.277],[84.6305,21.2754],[84.6461,21.3005],[84.6664,21.3037],[84.658,21.3138],[84.6855,21.3223],[84.7112,21.3184],[84.7608,21.2773],[84.7536,21.2578],[84.7702,21.2525],[84.759,21.2304],[84.7579,21.2301],[84.751,21.2294],[84.7232,21.2271],[84.7178,21.2085],[84.7409,21.1942],[84.7453,21.1697],[84.7445,21.1694],[84.7311,21.1691],[84.7232,21.1485],[84.6805,21.1472],[84.6675,21.0934],[84.6794,21.0631],[84.6454,21.0837],[84.5853,21.0612],[84.5321,21.0876],[84.4815,21.0807],[84.4388,21.0331],[84.4294,21.0403],[84.4091,21.0305],[84.4341,21.0152],[84.4138,21.0035],[84.4055,20.9767],[84.3744,20.9546],[84.3725,20.9546],[84.366,20.9539],[84.3298,20.9516],[84.3288,20.9516],[84.3114,20.9321],[84.3016,20.9363],[84.2792,20.9223]]]}}]}