{"type":"FeatureCollection","features":[{"type":"Feature","properties":{"district":"Puducherry","district_hi":"पुडुचेरी"},"geometry":{"type":"MultiPolygon","coordinates":[[[[79.6797,11.8107],[79.6842,11.812],[79.6904,11.8086],[79.6904,11.8084],[79.6812,11.7963],[79.6797,11.8107]]],[[[79.7025,11.8134],[79.692,11.8141],[79.6969,11.8185],[79.7025,11.8134]]],[[[79.7975,11.8247],[79.7979,11.8336],[79.8069,11.8336],[79.7958,11.7854],[79.7719,11.7823],[79.7659,11.7918],[79.7551,11.7753],[79.7131,11.7912],[79.7244,11.8105],[79.7356,11.8094],[79.7293,11.837],[79.7377,11.8429],[79.7397,11.8423],[79.7672,11.8245],[79.7688,11.8234],[79.77,11.8226],[79.7751,11.8281],[79.7794,11.8313],[79.7975,11.8247]]],[[[79.6551,11.8406],[79.6713,11.8149],[79.6465,11.8213],[79.6468,11.8321],[79.6527,11.8412],[79.6551,11.8406]]],[[[79.699,11.8612],[79.6959,11.8603],[79.6994,11.8722],[79.699,11.8612]]],[[[79.6457,11.8769],[79.6627,11.8673],[79.6578,11.8527],[79.6269,11.8542],[79.6285,11.8699],[79.6019,11.8578],[79.5994,11.883],[79.6083,11.8771],[79.6085,11.8771],[79.6091,11.8777],[79.6232,11.8894],[79.6271,11.8873],[79.6343,11.8832],[79.6457,11.8769]]],[[[79.6846,11.9535],[79.6549,11.9537],[79.6621,11.9692],[79.682,11.9725],[79.6846,11.9535]]],[[[79.6853,11.8834],[79.674,11.8807],[79.6738,11.8917],[79.6953,11.8949],[79.6961,11.9193],[79.7186,11.9191],[79.7065,11.9136],[79.7111,11.8907],[79.7287,11.8902],[79.7407,11.9055],[79.7174,11.9291],[79.7209,11.945],[79.7096,11.9501],[79.7111,11.9331],[79.6969,11.9465],[79.6957,11.9641],[79.7151,11.9677],[79.7123,11.9865],[79.7555,12.0044],[79.7604,11.9893],[79.7418,11.9776],[79.7264,11.9857],[79.7235,11.977],[79.7446,11.9649],[79.7502,11.9199],[79.7622,11.9286],[79.7598,11.9437],[79.7846,11.9598],[79.805,11.9532],[79.8126,11.9778],[79.8405,11.9558],[79.8077,11.8366],[79.8073,11.8376],[79.8081,11.8453],[79.8038,11.8472],[79.7825,11.8559],[79.7823,11.8559],[79.7821,11.8559],[79.7813,11.8548],[79.769,11.84],[79.768,11.8402],[79.7668,11.851],[79.7641,11.876],[79.7639,11.8771],[79.7635,11.876],[79.7518,11.8484],[79.7504,11.8484],[79.75,11.8484],[79.7397,11.8648],[79.7393,11.8646],[79.7393,11.8648],[79.7211,11.8624],[79.7192,11.855],[79.7182,11.8544],[79.7174,11.8554],[79.71,11.8885],[79.71,11.8892],[79.7098,11.8892],[79.709,11.8892],[79.701,11.8892],[79.6846,11.886],[79.6853,11.8834]],[[79.795,11.8953],[79.7819,11.9023],[79.7751,11.9015],[79.7692,11.9006],[79.7737,11.8858],[79.7764,11.8767],[79.7805,11.8629],[79.7833,11.868],[79.7917,11.8845],[79.7968,11.8943],[79.795,11.8953]]],[[[79.7917,12.0228],[79.794,12.0256],[79.8055,12.0222],[79.7932,12.0201],[79.7917,12.0228]]],[[[79.6201,12.0016],[79.6277,12.0313],[79.6513,12.0224],[79.6375,11.9827],[79.6484,11.9672],[79.6427,11.9422],[79.6574,11.9481],[79.6707,11.9316],[79.6638,11.9157],[79.6486,11.9076],[79.6337,11.9019],[79.6318,11.9021],[79.6271,11.9134],[79.6232,11.9229],[79.6187,11.9341],[79.6187,11.9367],[79.6285,11.9452],[79.6171,11.9895],[79.6261,11.9997],[79.6201,12.0016]]],[[[79.7047,12.0319],[79.7027,12.0112],[79.7196,11.9923],[79.6853,11.9916],[79.6809,11.9834],[79.6738,11.995],[79.657,11.9916],[79.6613,12.0122],[79.6723,12.0097],[79.6943,12.0349],[79.7047,12.0319]]],[[[79.8405,12.0133],[79.8497,12.0519],[79.8738,12.0425],[79.8571,12.0069],[79.8405,12.0133]]]]}},{"type":"Feature","properties":{"district":"Karaikal","district_hi":"कराईकल"},"geometry":{"type":"MultiPolygon","coordinates":[[[[79.8079,10.8788],[79.8059,10.8796],[79.8097,10.8805],[79.8079,10.8788]]],[[[79.7393,10.921],[79.7397,10.9201],[79.7389,10.9206],[79.7389,10.9208],[79.7393,10.921]]],[[[79.7217,10.9354],[79.7201,10.9361],[79.7215,10.9369],[79.7217,10.9354]]],[[[79.7244,10.9329],[79.7293,10.9341],[79.724,10.9418],[79.7326,10.9524],[79.7366,10.9573],[79.7197,10.9522],[79.7192,10.9685],[79.7446,10.9662],[79.7463,10.9564],[79.7635,10.9602],[79.7639,10.9602],[79.7553,10.98],[79.7526,10.9861],[79.7481,10.9965],[79.7469,10.9969],[79.7467,11.0005],[79.7528,11.0027],[79.7571,11.0029],[79.786,10.9974],[79.7977,10.9825],[79.8151,11.0037],[79.845,10.9957],[79.8515,10.9872],[79.8507,10.8279],[79.831,10.8274],[79.828,10.8497],[79.8079,10.8557],[79.8075,10.8654],[79.8249,10.865],[79.8112,10.8805],[79.8269,10.8843],[79.8276,10.8845],[79.7903,10.8949],[79.7837,10.8885],[79.7954,10.9028],[79.7893,10.9085],[79.7563,10.8917],[79.7624,10.9144],[79.7426,10.9216],[79.7426,10.9246],[79.7248,10.9291],[79.7244,10.9329]]]]}},{"type":"Feature","properties":{"district":"Mahe","district_hi":"माहे"},"geometry":{"type":"MultiPolygon","coordinates":[[[[75.5329,11.7065],[75.537,11.7057],[75.5421,11.6987],[75.5302,11.7021],[75.5329,11.7065]]],[[[75.5556,11.7218],[75.5366,11.7195],[75.5311,11.7084],[75.5266,11.726],[75.5417,11.7388],[75.5313,11.7587],[75.538,11.7625],[75.5556,11.7218]]]]}},{"type":"Feature","properties":{"district":"Yanam","district_hi":"यानम"},"geometry":{"type":"Polygon","coordinates":[[[82.1863,16.7371],[82.2056,16.7345],[82.225,16.7574],[82.2291,16.7568],[82.2312,16.7553],[82.2176,16.7328],[82.2697,16.7218],[82.2897,16.7267],[82.3055,16.7483],[82.3104,16.7188],[82.2668,16.6946],[82.2391,16.7163],[82.1992,16.721],[82.1912,16.7267],[82.1863,16.7371]]]}}]}