{"type":"FeatureCollection","features":[{"type":"Feature","properties":{"district":"Gurdaspur","district_hi":"गुरदासपुर"},"geometry":{"type":"Polygon","coordinates":[[[75.3793,32.1833],[75.4007,32.1903],[75.4208,32.1642],[75.4422,32.1668],[75.4344,32.149],[75.4807,32.1598],[75.506,32.1453],[75.5433,32.1458],[75.5514,32.1334],[75.5874,32.1412],[75.5826,32.1075],[75.5942,32.1116],[75.6001,32.0948],[75.6007,32.0932],[75.5978,32.0822],[75.579,32.0733],[75.5777,32.073],[75.5774,32.0719],[75.5589,32.0349],[75.5339,32.0312],[75.5582,32.0007],[75.531,31.9414],[75.5689,31.8747],[75.5696,31.8548],[75.5479,31.8488],[75.5676,31.8011],[75.5524,31.7765],[75.5294,31.7822],[75.5427,31.7504],[75.494,31.6981],[75.4743,31.6503],[75.4752,31.65],[75.4681,31.6366],[75.4681,31.6363],[75.4256,31.6277],[75.4042,31.5937],[75.3728,31.6247],[75.3387,31.6411],[75.327,31.6355],[75.3021,31.653],[75.3131,31.6673],[75.2842,31.6819],[75.2849,31.6983],[75.2275,31.6843],[75.2129,31.7056],[75.1938,31.711],[75.2038,31.7226],[75.2009,31.7266],[75.1967,31.732],[75.1905,31.7404],[75.1892,31.7407],[75.1552,31.7469],[75.1445,31.759],[75.1049,31.755],[75.0997,31.7644],[75.1108,31.7806],[75.1114,31.7817],[75.0825,31.7922],[75.0718,31.8062],[75.0706,31.8076],[75.0397,31.8027],[75.0235,31.8167],[75.0281,31.8229],[75.0132,31.8205],[75.0125,31.8208],[75.0005,31.8329],[74.9908,31.8324],[74.9691,31.8313],[74.9619,31.854],[74.9418,31.8607],[74.9444,31.8704],[74.9165,31.8793],[74.9194,31.8928],[74.9065,31.8947],[74.9061,31.8955],[74.8906,31.9287],[74.9074,31.9351],[74.9386,31.9414],[74.9716,31.9602],[74.972,31.9624],[74.9736,31.9745],[74.9729,31.9745],[74.9392,31.9627],[74.9172,31.9753],[74.9207,32.0026],[74.9353,32.0118],[74.9353,32.012],[74.9227,32.0393],[74.9136,32.0436],[74.9084,32.0514],[74.9246,32.0662],[74.9739,32.0536],[74.9716,32.0425],[75.0122,32.0358],[75.0216,32.0487],[75.0407,32.0428],[75.0686,32.0673],[75.0838,32.06],[75.091,32.0719],[75.1049,32.0587],[75.1228,32.0816],[75.1575,32.0819],[75.174,32.0676],[75.1983,32.083],[75.2025,32.1202],[75.2155,32.1213],[75.2236,32.0983],[75.2353,32.1035],[75.2314,32.0916],[75.2619,32.1024],[75.2628,32.1121],[75.2794,32.118],[75.2855,32.1517],[75.2995,32.1536],[75.3225,32.1798],[75.3102,32.1949],[75.3163,32.2081],[75.3342,32.2092],[75.3793,32.1833]]]}},{"type":"Feature","properties":{"district":"Hoshiarpur","district_hi":"होशियारपुर"},"geometry":{"type":"Polygon","coordinates":[[[75.4752,31.65],[75.4743,31.6503],[75.494,31.6981],[75.5427,31.7504],[75.5294,31.7822],[75.5524,31.7765],[75.5676,31.8011],[75.5479,31.8488],[75.5696,31.8548],[75.5689,31.8747],[75.531,31.9414],[75.5582,32.0007],[75.5339,32.0312],[75.5589,32.0349],[75.5774,32.0719],[75.5777,32.073],[75.579,32.0733],[75.5978,32.0822],[75.5946,32.0703],[75.6007,32.0708],[75.6503,32.0768],[75.6552,32.0773],[75.6617,32.0754],[75.7233,32.0331],[75.7505,32.0376],[75.7797,32.0047],[75.7989,31.9948],[75.8008,31.9937],[75.8112,31.988],[75.8682,31.9729],[75.9104,31.9503],[75.96,31.8569],[75.9808,31.8219],[75.9866,31.8181],[75.984,31.8165],[75.9821,31.8151],[75.9785,31.813],[75.9675,31.8235],[75.9367,31.8154],[75.9603,31.7811],[76.009,31.6533],[76.0184,31.649],[76.0177,31.6322],[76.0459,31.6034],[76.055,31.6055],[76.056,31.5856],[76.1208,31.4976],[76.117,31.4831],[76.1306,31.4712],[76.1332,31.4521],[76.1685,31.4097],[76.1685,31.3962],[76.1478,31.3787],[76.1474,31.3746],[76.1491,31.3563],[76.1523,31.352],[76.1789,31.3407],[76.1799,31.3069],[76.1805,31.3064],[76.2003,31.3024],[76.269,31.3131],[76.2755,31.301],[76.2895,31.3069],[76.2888,31.3026],[76.2882,31.2972],[76.3102,31.2908],[76.3086,31.2775],[76.3297,31.2662],[76.3391,31.2506],[76.3462,31.2387],[76.3478,31.236],[76.3303,31.2231],[76.318,31.2142],[76.2363,31.2441],[76.2389,31.2266],[76.2246,31.1982],[76.2366,31.2069],[76.246,31.1964],[76.2347,31.1858],[76.2084,31.1912],[76.1958,31.1837],[76.21,31.1373],[76.1701,31.1343],[76.1562,31.1408],[76.1559,31.1529],[76.1371,31.147],[76.1296,31.1694],[76.1166,31.1672],[76.1163,31.1669],[76.1127,31.1702],[76.0975,31.1829],[76.0936,31.1864],[76.0926,31.191],[76.0855,31.2258],[76.0492,31.2136],[76.0547,31.2263],[76.0278,31.2425],[76.0252,31.2592],[76.0061,31.246],[76.0035,31.2444],[75.9931,31.2587],[75.9529,31.2554],[75.9425,31.274],[75.9308,31.2686],[75.9153,31.2843],[75.9007,31.2792],[75.8903,31.2757],[75.8896,31.2754],[75.8819,31.2902],[75.8647,31.2819],[75.8556,31.2891],[75.8566,31.291],[75.8712,31.3247],[75.8802,31.3226],[75.9059,31.345],[75.8909,31.3407],[75.8786,31.355],[75.8569,31.3498],[75.8498,31.3728],[75.8297,31.3701],[75.8335,31.3625],[75.8219,31.3571],[75.8018,31.3725],[75.7878,31.3647],[75.7862,31.369],[75.7859,31.3687],[75.781,31.3822],[75.8206,31.4046],[75.7995,31.4539],[75.7881,31.4523],[75.7869,31.4521],[75.7784,31.4717],[75.7359,31.4949],[75.733,31.5171],[75.7025,31.5292],[75.7035,31.5559],[75.6954,31.5543],[75.6815,31.5742],[75.6691,31.6069],[75.6659,31.608],[75.65,31.6072],[75.6393,31.6179],[75.6247,31.6036],[75.5988,31.6053],[75.5761,31.6066],[75.5735,31.6177],[75.567,31.6109],[75.5722,31.6355],[75.5508,31.6339],[75.5326,31.6487],[75.532,31.6471],[75.5258,31.6349],[75.5248,31.6328],[75.4752,31.65]]]}},{"type":"Feature","properties":{"district":"Amritsar","district_hi":"अमृतसर"},"geometry":{"type":"Polygon","coordinates":[[[74.9136,32.0436],[74.9227,32.0393],[74.9353,32.012],[74.9353,32.0118],[74.9207,32.0026],[74.9172,31.9753],[74.9392,31.9627],[74.9729,31.9745],[74.9736,31.9745],[74.972,31.9624],[74.9716,31.9602],[74.9386,31.9414],[74.9074,31.9351],[74.8906,31.9287],[74.9061,31.8955],[74.9065,31.8947],[74.9194,31.8928],[74.9165,31.8793],[74.9444,31.8704],[74.9418,31.8607],[74.9619,31.854],[74.9691,31.8313],[74.9908,31.8324],[75.0005,31.8329],[75.0125,31.8208],[75.0132,31.8205],[75.0281,31.8229],[75.0235,31.8167],[75.0397,31.8027],[75.0706,31.8076],[75.0718,31.8062],[75.0825,31.7922],[75.1114,31.7817],[75.1108,31.7806],[75.0997,31.7644],[75.1049,31.755],[75.1445,31.759],[75.1552,31.7469],[75.1892,31.7407],[75.1905,31.7404],[75.1967,31.732],[75.2009,31.7266],[75.2038,31.7226],[75.1938,31.711],[75.2129,31.7056],[75.2275,31.6843],[75.2849,31.6983],[75.2842,31.6819],[75.3131,31.6673],[75.3021,31.653],[75.327,31.6355],[75.3387,31.6411],[75.3728,31.6247],[75.4042,31.5937],[75.3958,31.5804],[75.3621,31.5697],[75.3553,31.5643],[75.3371,31.551],[75.2904,31.4912],[75.2505,31.5025],[75.2281,31.4914],[75.1951,31.4998],[75.1782,31.5297],[75.1617,31.5109],[75.138,31.5084],[75.1247,31.4952],[75.1046,31.5233],[75.0706,31.5287],[75.0482,31.5171],[75.0359,31.527],[75.0086,31.5254],[74.9924,31.5044],[74.982,31.5268],[74.9525,31.4968],[74.9373,31.5235],[74.9013,31.5238],[74.899,31.5527],[74.8445,31.5311],[74.8228,31.5368],[74.8189,31.5564],[74.7943,31.5707],[74.7732,31.5594],[74.7294,31.5635],[74.7067,31.5395],[74.6801,31.5502],[74.6681,31.5327],[74.6493,31.5405],[74.6172,31.506],[74.614,31.4993],[74.6111,31.4995],[74.5754,31.5009],[74.5871,31.5041],[74.5842,31.5208],[74.6127,31.5273],[74.6188,31.5516],[74.6065,31.5624],[74.6159,31.5691],[74.5919,31.574],[74.5754,31.6039],[74.5553,31.608],[74.5404,31.66],[74.5287,31.6665],[74.5349,31.6776],[74.5018,31.6956],[74.4882,31.7204],[74.5028,31.7285],[74.5037,31.7404],[74.5595,31.7579],[74.5514,31.779],[74.5673,31.7965],[74.5579,31.8049],[74.5731,31.8159],[74.5722,31.8391],[74.6065,31.8685],[74.6078,31.8898],[74.6367,31.8839],[74.6665,31.9225],[74.719,31.9238],[74.7197,31.9414],[74.756,31.9438],[74.7554,31.9559],[74.7683,31.9476],[74.8059,31.9629],[74.8189,31.9586],[74.8293,31.9999],[74.8533,32.0134],[74.8484,32.0204],[74.8656,32.0234],[74.8627,32.0296],[74.8689,32.022],[74.8799,32.032],[74.8692,32.0428],[74.8912,32.0546],[74.9136,32.0436]]]}},{"type":"Feature","properties":{"district":"Jalandhar","district_hi":"जालंधर"},"geometry":{"type":"Polygon","coordinates":[[[75.5988,31.6053],[75.6247,31.6036],[75.6393,31.6179],[75.65,31.6072],[75.6659,31.608],[75.6691,31.6069],[75.6815,31.5742],[75.6954,31.5543],[75.7035,31.5559],[75.7025,31.5292],[75.733,31.5171],[75.7359,31.4949],[75.7784,31.4717],[75.7869,31.4521],[75.7881,31.4523],[75.7995,31.4539],[75.8206,31.4046],[75.781,31.3822],[75.7859,31.3687],[75.7862,31.369],[75.7878,31.3647],[75.7885,31.3625],[75.7648,31.3517],[75.7554,31.3282],[75.7395,31.3215],[75.7385,31.3229],[75.7282,31.342],[75.7025,31.3439],[75.7012,31.3431],[75.7223,31.3164],[75.6831,31.3153],[75.7042,31.2856],[75.6773,31.2916],[75.673,31.2689],[75.6828,31.2538],[75.6704,31.25],[75.6792,31.246],[75.6701,31.2379],[75.6834,31.2306],[75.6983,31.2457],[75.699,31.2463],[75.7003,31.2438],[75.7123,31.2201],[75.6867,31.1964],[75.7074,31.1659],[75.7723,31.1656],[75.7768,31.1764],[75.7758,31.1891],[75.7979,31.216],[75.7982,31.216],[75.7881,31.1985],[75.8514,31.1829],[75.8728,31.1626],[75.8858,31.1661],[75.8858,31.1494],[75.8981,31.1554],[75.9127,31.0992],[75.9266,31.0941],[75.9376,31.062],[75.9451,31.0588],[75.9503,31.024],[75.9526,31.0102],[75.9107,31.0162],[75.9055,31.0167],[75.8984,31.0048],[75.8673,31.0081],[75.8034,30.9951],[75.7976,30.9946],[75.7849,30.9992],[75.747,31.0127],[75.6153,30.9722],[75.6036,30.9703],[75.5942,30.9687],[75.543,30.976],[75.5372,30.9663],[75.5148,30.9762],[75.482,30.9679],[75.4739,30.9808],[75.4623,30.9746],[75.4542,30.983],[75.4373,30.9816],[75.4088,30.9789],[75.399,30.9959],[75.3981,30.9957],[75.3974,30.9965],[75.3799,30.9932],[75.3747,30.9984],[75.3627,30.9951],[75.3591,30.9941],[75.3585,30.9992],[75.3582,30.9994],[75.3416,30.9878],[75.3277,31.01],[75.2949,31.0148],[75.2816,31.0421],[75.2538,31.0445],[75.2557,31.0299],[75.2301,31.0372],[75.2038,31.0202],[75.2067,31.0542],[75.1789,31.0591],[75.174,31.0601],[75.1834,31.0777],[75.1626,31.0895],[75.1458,31.0858],[75.1477,31.0917],[75.149,31.0955],[75.126,31.1211],[75.077,31.1343],[75.077,31.1349],[75.0787,31.1478],[75.0809,31.1478],[75.0819,31.151],[75.1039,31.1508],[75.1124,31.1572],[75.1257,31.1694],[75.1283,31.1691],[75.1844,31.1651],[75.2051,31.185],[75.2226,31.1767],[75.2304,31.1527],[75.27,31.1481],[75.2768,31.1874],[75.2949,31.1915],[75.3014,31.2063],[75.3206,31.2071],[75.3446,31.232],[75.3637,31.226],[75.3679,31.2398],[75.3767,31.2309],[75.3893,31.2444],[75.4178,31.2498],[75.423,31.2295],[75.4399,31.2411],[75.461,31.2355],[75.472,31.2538],[75.4629,31.28],[75.4376,31.2894],[75.4428,31.3064],[75.4341,31.3177],[75.4684,31.3247],[75.482,31.3644],[75.461,31.3609],[75.4558,31.3719],[75.4798,31.3722],[75.4908,31.3849],[75.472,31.3957],[75.4603,31.3814],[75.4366,31.3849],[75.437,31.4259],[75.4529,31.4294],[75.4503,31.444],[75.458,31.4375],[75.4665,31.4467],[75.4577,31.4728],[75.4448,31.4731],[75.4412,31.4947],[75.4743,31.4963],[75.4901,31.4709],[75.5128,31.4593],[75.5086,31.4801],[75.5197,31.4998],[75.5122,31.5173],[75.5391,31.5163],[75.5404,31.5284],[75.5245,31.5438],[75.5676,31.5365],[75.5696,31.5376],[75.5793,31.5626],[75.5959,31.5551],[75.6023,31.5632],[75.592,31.5753],[75.5949,31.5861],[75.6027,31.584],[75.603,31.5842],[75.6027,31.5848],[75.5988,31.6053]]]}},{"type":"Feature","properties":{"district":"Tarn Taran","district_hi":"तरनतारन"},"geometry":{"type":"Polygon","coordinates":[[[74.6111,31.4995],[74.614,31.4993],[74.6172,31.506],[74.6493,31.5405],[74.6681,31.5327],[74.6801,31.5502],[74.7067,31.5395],[74.7294,31.5635],[74.7732,31.5594],[74.7943,31.5707],[74.8189,31.5564],[74.8228,31.5368],[74.8445,31.5311],[74.899,31.5527],[74.9013,31.5238],[74.9373,31.5235],[74.9525,31.4968],[74.982,31.5268],[74.9924,31.5044],[75.0086,31.5254],[75.0359,31.527],[75.0482,31.5171],[75.0706,31.5287],[75.1046,31.5233],[75.1247,31.4952],[75.138,31.5084],[75.1617,31.5109],[75.1782,31.5297],[75.1951,31.4998],[75.2281,31.4914],[75.2505,31.5025],[75.2904,31.4912],[75.2784,31.482],[75.2431,31.4553],[75.235,31.4593],[75.2246,31.4218],[75.2142,31.4218],[75.21,31.4351],[75.1915,31.4332],[75.1863,31.4148],[75.1944,31.4081],[75.1633,31.383],[75.1562,31.3652],[75.1643,31.3568],[75.1461,31.3369],[75.1477,31.3202],[75.1344,31.3104],[75.1069,31.3169],[75.0932,31.284],[75.1039,31.2797],[75.0822,31.2738],[75.0809,31.2498],[75.0592,31.2309],[75.0472,31.1907],[75.0469,31.1901],[75.0378,31.1861],[74.9648,31.1535],[74.898,31.1607],[74.8442,31.1324],[74.8144,31.1378],[74.8017,31.1295],[74.8004,31.1149],[74.7891,31.13],[74.7417,31.1187],[74.7414,31.1038],[74.7207,31.1017],[74.7077,31.072],[74.6908,31.0814],[74.7025,31.0917],[74.6892,31.1281],[74.6665,31.1243],[74.6591,31.134],[74.6364,31.1181],[74.6308,31.1327],[74.6023,31.1332],[74.5965,31.1273],[74.6104,31.0992],[74.6007,31.0879],[74.553,31.0855],[74.5485,31.1222],[74.5102,31.1319],[74.5105,31.181],[74.5196,31.1842],[74.5261,31.212],[74.517,31.2284],[74.5326,31.2498],[74.5209,31.2721],[74.542,31.3037],[74.5264,31.3123],[74.5488,31.335],[74.552,31.3649],[74.5845,31.3803],[74.5965,31.4162],[74.6192,31.42],[74.6224,31.4302],[74.6425,31.4162],[74.6545,31.4259],[74.6386,31.4442],[74.6522,31.4572],[74.6276,31.4769],[74.6367,31.4847],[74.6221,31.482],[74.6107,31.499],[74.6111,31.4995]]]}},{"type":"Feature","properties":{"district":"Rupnagar","district_hi":"रूपनगर"},"geometry":{"type":"Polygon","coordinates":[[[76.3303,31.2231],[76.3478,31.236],[76.3462,31.2387],[76.3391,31.2506],[76.3297,31.2662],[76.3086,31.2775],[76.3102,31.2908],[76.2882,31.2972],[76.2888,31.3026],[76.2895,31.3069],[76.2901,31.3072],[76.3225,31.3218],[76.3076,31.3425],[76.3543,31.345],[76.3423,31.3547],[76.3417,31.3782],[76.3297,31.3787],[76.331,31.4013],[76.3679,31.404],[76.3747,31.4356],[76.3906,31.4084],[76.3923,31.4127],[76.4033,31.3968],[76.3926,31.3895],[76.4318,31.3269],[76.4639,31.3015],[76.4396,31.2792],[76.4795,31.3083],[76.4973,31.2705],[76.5275,31.2773],[76.5239,31.2581],[76.5395,31.2611],[76.543,31.2824],[76.5511,31.2789],[76.5492,31.2527],[76.5862,31.2735],[76.5878,31.2743],[76.6121,31.2479],[76.5884,31.2228],[76.5933,31.2117],[76.6277,31.2266],[76.6416,31.2228],[76.6345,31.2179],[76.6455,31.209],[76.6001,31.1785],[76.6092,31.1734],[76.6017,31.1532],[76.6124,31.1483],[76.6021,31.1238],[76.6361,31.1162],[76.6387,31.1081],[76.6179,31.0782],[76.6225,31.055],[76.6108,31.0458],[76.629,31.0235],[76.6248,30.9989],[76.6731,30.969],[76.7094,30.9698],[76.71,30.9695],[76.7353,30.9447],[76.7327,30.9379],[76.7311,30.9339],[76.7207,30.9334],[76.6873,30.921],[76.6802,30.9147],[76.6069,30.8907],[76.5969,30.8748],[76.6027,30.8581],[76.5917,30.8522],[76.5803,30.8562],[76.5839,30.8516],[76.5531,30.8384],[76.5651,30.8182],[76.5589,30.7858],[76.531,30.7686],[76.495,30.7462],[76.4694,30.7456],[76.4623,30.7497],[76.4441,30.7594],[76.4367,30.7985],[76.4341,30.7993],[76.4325,30.8193],[76.4085,30.8195],[76.4081,30.8263],[76.4068,30.847],[76.3848,30.8489],[76.3679,30.8721],[76.3485,30.8654],[76.3485,30.8738],[76.3293,30.8762],[76.3235,30.877],[76.3193,30.8775],[76.3128,30.9247],[76.3238,30.9301],[76.3232,30.9323],[76.3229,30.9347],[76.3122,30.9881],[76.3066,30.99],[76.3063,30.9903],[76.306,30.9922],[76.3264,30.9943],[76.3251,30.9792],[76.3449,30.9806],[76.3589,30.969],[76.4938,30.9754],[76.5145,30.9881],[76.5184,30.9954],[76.4668,31.0315],[76.4257,31.096],[76.4292,31.1162],[76.3848,31.1518],[76.3845,31.1527],[76.3835,31.1535],[76.3407,31.2158],[76.331,31.2225],[76.3303,31.2231]],[[76.5774,30.8573],[76.5745,30.8584],[76.5781,30.8694],[76.5664,30.8673],[76.5696,30.8514],[76.5774,30.8573]]]}},{"type":"Feature","properties":{"district":"Shahid Bhagat Singh Nagar","district_hi":"नवांशहर"},"geometry":{"type":"Polygon","coordinates":[[[75.8903,31.2757],[75.9007,31.2792],[75.9153,31.2843],[75.9308,31.2686],[75.9425,31.274],[75.9529,31.2554],[75.9931,31.2587],[76.0035,31.2444],[76.0061,31.246],[76.0252,31.2592],[76.0278,31.2425],[76.0547,31.2263],[76.0492,31.2136],[76.0855,31.2258],[76.0926,31.191],[76.0936,31.1864],[76.0975,31.1829],[76.1127,31.1702],[76.1163,31.1669],[76.1166,31.1672],[76.1296,31.1694],[76.1371,31.147],[76.1559,31.1529],[76.1562,31.1408],[76.1701,31.1343],[76.21,31.1373],[76.1958,31.1837],[76.2084,31.1912],[76.2347,31.1858],[76.246,31.1964],[76.2366,31.2069],[76.2246,31.1982],[76.2389,31.2266],[76.2363,31.2441],[76.318,31.2142],[76.3303,31.2231],[76.331,31.2225],[76.3407,31.2158],[76.3835,31.1535],[76.3845,31.1527],[76.3848,31.1518],[76.4292,31.1162],[76.4257,31.096],[76.4668,31.0315],[76.5184,30.9954],[76.5145,30.9881],[76.4938,30.9754],[76.3589,30.969],[76.3449,30.9806],[76.3251,30.9792],[76.3264,30.9943],[76.306,30.9922],[76.3063,30.9903],[76.3057,30.9903],[76.2947,30.9941],[76.2768,31.0003],[76.2895,31.0046],[76.2771,31.0151],[76.2762,31.0143],[76.2638,31.0032],[76.2564,31.0102],[76.2246,31.0027],[76.211,31.0121],[76.2045,31.0],[76.1818,31.0054],[76.188,30.9959],[76.1805,30.9922],[76.1432,30.9857],[76.1361,30.9976],[75.971,31.004],[75.9594,31.0183],[75.9526,31.0102],[75.9503,31.024],[75.9451,31.0588],[75.9376,31.062],[75.9266,31.0941],[75.9127,31.0992],[75.8981,31.1554],[75.8858,31.1494],[75.8858,31.1661],[75.8728,31.1626],[75.8514,31.1829],[75.7881,31.1985],[75.7982,31.216],[75.7989,31.2166],[75.8553,31.236],[75.8572,31.2365],[75.8559,31.2384],[75.8413,31.2622],[75.8417,31.2681],[75.8423,31.277],[75.8472,31.281],[75.8686,31.274],[75.8702,31.2732],[75.8689,31.2454],[75.8734,31.2473],[75.9094,31.2603],[75.9101,31.2608],[75.9081,31.2614],[75.8958,31.2659],[75.8903,31.2757]]]}},{"type":"Feature","properties":{"district":"Fazilka","district_hi":"फाजिल्का"},"geometry":{"type":"Polygon","coordinates":[[[74.448,29.9472],[74.2982,29.9553],[74.2982,29.9542],[74.2969,29.9545],[74.2969,29.9556],[73.8948,29.9739],[73.8863,30.012],[73.9042,30.05],[73.9752,30.1201],[73.9726,30.1981],[73.9674,30.194],[73.9596,30.2701],[73.9308,30.32],[73.8798,30.3596],[73.9645,30.4241],[73.9739,30.4438],[73.9265,30.4389],[73.9372,30.4449],[73.9278,30.4659],[73.9346,30.4902],[73.9476,30.484],[73.9502,30.46],[73.9642,30.4565],[73.9635,30.4848],[73.982,30.5039],[73.9927,30.5142],[74.0199,30.5142],[74.0118,30.5336],[74.031,30.5269],[74.0391,30.5425],[74.0572,30.5185],[74.0721,30.5228],[74.0909,30.5493],[74.0734,30.5547],[74.102,30.5792],[74.0958,30.6113],[74.1049,30.6191],[74.1179,30.6078],[74.1273,30.6348],[74.149,30.6315],[74.2161,30.6911],[74.4165,30.6137],[74.4201,30.6124],[74.4194,30.597],[74.3669,30.5859],[74.375,30.5487],[74.4009,30.5352],[74.3731,30.5126],[74.3831,30.4999],[74.3756,30.4848],[74.3461,30.4843],[74.3439,30.4635],[74.3277,30.4454],[74.244,30.4273],[74.3575,30.4028],[74.3568,30.3988],[74.3533,30.3823],[74.3147,30.3872],[74.3079,30.3702],[74.3254,30.3294],[74.3033,30.3089],[74.2975,30.2652],[74.2826,30.2744],[74.2635,30.2472],[74.2865,30.2334],[74.3238,30.245],[74.3581,30.2407],[74.3358,30.1633],[74.3747,30.1533],[74.3812,30.1309],[74.4129,30.0977],[74.3818,30.1118],[74.3656,30.0872],[74.3889,30.0743],[74.4142,30.0357],[74.4058,30.0284],[74.4515,30.0298],[74.4613,30.0141],[74.46,30.0063],[74.422,29.9977],[74.448,29.9472]]]}},{"type":"Feature","properties":{"district":"Moga","district_hi":"मोगा"},"geometry":{"type":"Polygon","coordinates":[[[75.1477,31.0917],[75.1458,31.0858],[75.1626,31.0895],[75.1834,31.0777],[75.174,31.0601],[75.1789,31.0591],[75.2067,31.0542],[75.2038,31.0202],[75.2301,31.0372],[75.2557,31.0299],[75.2538,31.0445],[75.2816,31.0421],[75.2949,31.0148],[75.3277,31.01],[75.3416,30.9878],[75.3582,30.9994],[75.3585,30.9992],[75.3591,30.9941],[75.3569,30.9932],[75.3604,30.9851],[75.3637,30.9649],[75.3608,30.9611],[75.3663,30.9366],[75.3698,30.9253],[75.3825,30.925],[75.378,30.9067],[75.3932,30.904],[75.4062,30.884],[75.3673,30.8354],[75.3763,30.8139],[75.3958,30.805],[75.3721,30.7346],[75.3861,30.7189],[75.3682,30.7071],[75.3676,30.6866],[75.3818,30.6688],[75.3702,30.6469],[75.3786,30.6394],[75.3737,30.6261],[75.401,30.6178],[75.3971,30.5943],[75.4032,30.5889],[75.4088,30.5841],[75.4042,30.5663],[75.4195,30.5487],[75.4,30.5282],[75.3608,30.5131],[75.3604,30.5131],[75.3591,30.5137],[75.3348,30.5209],[75.33,30.5277],[75.3173,30.5339],[75.2975,30.5169],[75.2878,30.5088],[75.2622,30.5209],[75.2275,30.5077],[75.2119,30.5164],[75.2019,30.5072],[75.1944,30.5083],[75.1818,30.5104],[75.1795,30.5517],[75.1652,30.5792],[75.1464,30.5819],[75.1211,30.5617],[75.1283,30.5223],[75.0848,30.532],[75.0618,30.5015],[75.0323,30.5042],[75.0206,30.491],[75.0031,30.4888],[74.9992,30.4867],[74.9986,30.4883],[74.9973,30.4937],[74.9901,30.5207],[74.9956,30.5366],[74.9444,30.5719],[74.9554,30.594],[74.9467,30.6094],[74.9577,30.6701],[74.9558,30.6779],[74.9152,30.6833],[74.9039,30.7044],[74.9058,30.7365],[74.9058,30.737],[74.9087,30.7365],[74.913,30.7688],[74.9227,30.7855],[74.9308,30.7891],[74.9292,30.7974],[74.947,30.8287],[74.9425,30.8778],[74.9522,30.8918],[75.0303,30.8969],[75.0407,30.9223],[75.0783,30.9463],[75.0939,30.9754],[75.103,30.9722],[75.0962,30.9916],[75.1033,31.0154],[75.053,31.0429],[75.0517,31.0626],[75.0621,31.0677],[75.0728,31.0469],[75.0942,31.0472],[75.0965,31.0588],[75.0835,31.0688],[75.1039,31.0663],[75.0994,31.0774],[75.1202,31.0817],[75.1338,31.0739],[75.1477,31.0917]]]}},{"type":"Feature","properties":{"district":"Ludhiana","district_hi":"लुधियाना"},"geometry":{"type":"Polygon","coordinates":[[[75.3591,30.9941],[75.3627,30.9951],[75.3747,30.9984],[75.3799,30.9932],[75.3974,30.9965],[75.3981,30.9957],[75.399,30.9959],[75.4088,30.9789],[75.4373,30.9816],[75.4542,30.983],[75.4623,30.9746],[75.4739,30.9808],[75.482,30.9679],[75.5148,30.9762],[75.5372,30.9663],[75.543,30.976],[75.5942,30.9687],[75.6036,30.9703],[75.6153,30.9722],[75.747,31.0127],[75.7849,30.9992],[75.7976,30.9946],[75.8034,30.9951],[75.8673,31.0081],[75.8984,31.0048],[75.9055,31.0167],[75.9107,31.0162],[75.9526,31.0102],[75.9594,31.0183],[75.971,31.004],[76.1361,30.9976],[76.1432,30.9857],[76.1805,30.9922],[76.188,30.9959],[76.1818,31.0054],[76.2045,31.0],[76.211,31.0121],[76.2246,31.0027],[76.2564,31.0102],[76.2638,31.0032],[76.2762,31.0143],[76.2771,31.0151],[76.2895,31.0046],[76.2768,31.0003],[76.2947,30.9941],[76.3057,30.9903],[76.3063,30.9903],[76.3066,30.99],[76.3122,30.9881],[76.3229,30.9347],[76.3232,30.9323],[76.3238,30.9301],[76.3128,30.9247],[76.3193,30.8775],[76.3196,30.8773],[76.3128,30.874],[76.2992,30.8678],[76.3112,30.8425],[76.2814,30.8303],[76.2891,30.8082],[76.2619,30.7866],[76.2723,30.7758],[76.2898,30.7826],[76.305,30.768],[76.3109,30.7561],[76.281,30.7464],[76.2758,30.734],[76.3054,30.7087],[76.3196,30.6965],[76.3232,30.6933],[76.3196,30.6906],[76.3034,30.6785],[76.2749,30.6755],[76.2188,30.6793],[76.188,30.6677],[76.1737,30.6793],[76.1692,30.6617],[76.152,30.655],[76.1526,30.6399],[76.1163,30.6148],[76.1254,30.597],[76.1101,30.5873],[76.1076,30.5622],[76.0978,30.5606],[76.0858,30.5619],[76.0839,30.5622],[76.0699,30.5638],[76.0696,30.5673],[76.0677,30.5824],[76.066,30.5827],[76.0352,30.5889],[76.0278,30.6153],[76.0099,30.6159],[75.9354,30.5681],[75.9208,30.5919],[75.9292,30.5973],[75.9234,30.6089],[75.8877,30.607],[75.888,30.6205],[75.8725,30.6288],[75.8725,30.6394],[75.8981,30.6474],[75.8955,30.6596],[75.8793,30.6763],[75.8524,30.6701],[75.8339,30.6922],[75.8164,30.6871],[75.8151,30.6642],[75.7859,30.6569],[75.7817,30.6712],[75.7648,30.6704],[75.7651,30.658],[75.7969,30.6321],[75.7891,30.6234],[75.7609,30.6375],[75.7382,30.6318],[75.7035,30.6035],[75.7032,30.6032],[75.6828,30.6062],[75.6769,30.5975],[75.6844,30.5905],[75.6614,30.5946],[75.6549,30.5911],[75.6267,30.6008],[75.604,30.5943],[75.579,30.5698],[75.5488,30.5803],[75.5355,30.5703],[75.5323,30.5679],[75.5291,30.5849],[75.5287,30.5851],[75.5015,30.5735],[75.4876,30.583],[75.496,30.5986],[75.4658,30.6056],[75.4315,30.5843],[75.4088,30.5841],[75.4032,30.5889],[75.3971,30.5943],[75.401,30.6178],[75.3737,30.6261],[75.3786,30.6394],[75.3702,30.6469],[75.3818,30.6688],[75.3676,30.6866],[75.3682,30.7071],[75.3861,30.7189],[75.3721,30.7346],[75.3958,30.805],[75.3763,30.8139],[75.3673,30.8354],[75.4062,30.884],[75.3932,30.904],[75.378,30.9067],[75.3825,30.925],[75.3698,30.9253],[75.3663,30.9366],[75.3608,30.9611],[75.3637,30.9649],[75.3604,30.9851],[75.3569,30.9932],[75.3591,30.9941]]]}},{"type":"Feature","properties":{"district":"S.A.S. Nagar","district_hi":"मोहाली"},"geometry":{"type":"MultiPolygon","coordinates":[[[[76.531,30.7686],[76.5589,30.7858],[76.5651,30.8182],[76.5531,30.8384],[76.5839,30.8516],[76.5803,30.8562],[76.5917,30.8522],[76.6027,30.8581],[76.5969,30.8748],[76.6069,30.8907],[76.6802,30.9147],[76.6873,30.921],[76.7207,30.9334],[76.7311,30.9339],[76.7327,30.9379],[76.7373,30.9396],[76.747,30.9334],[76.7707,30.9104],[76.7765,30.9045],[76.7843,30.8778],[76.8148,30.8524],[76.8141,30.843],[76.8466,30.8338],[76.8453,30.8071],[76.8569,30.7947],[76.8381,30.7551],[76.8378,30.7545],[76.8264,30.7634],[76.8151,30.7529],[76.805,30.7653],[76.8164,30.7764],[76.8157,30.7772],[76.8132,30.7802],[76.7879,30.7723],[76.7827,30.7707],[76.7827,30.7796],[76.7716,30.795],[76.7441,30.7696],[76.71,30.7607],[76.7052,30.7429],[76.7311,30.7235],[76.7392,30.693],[76.7639,30.6863],[76.7765,30.6704],[76.7898,30.6758],[76.806,30.6677],[76.8076,30.6674],[76.8268,30.682],[76.8274,30.6822],[76.8277,30.6804],[76.832,30.665],[76.8459,30.6688],[76.8521,30.6588],[76.8764,30.6806],[76.8712,30.642],[76.8851,30.6453],[76.8955,30.6291],[76.9101,30.6261],[76.9134,30.6116],[76.926,30.6102],[76.9202,30.5932],[76.9098,30.5919],[76.9198,30.5851],[76.9088,30.5649],[76.9163,30.5538],[76.9049,30.5431],[76.889,30.549],[76.9318,30.5223],[76.9312,30.501],[76.9017,30.484],[76.9124,30.4659],[76.9108,30.4635],[76.9072,30.4589],[76.9036,30.454],[76.8978,30.4454],[76.8864,30.4298],[76.9065,30.4357],[76.8988,30.4257],[76.9075,30.4255],[76.9114,30.4252],[76.9137,30.4182],[76.9111,30.3998],[76.938,30.3934],[76.9062,30.3621],[76.9056,30.3621],[76.8903,30.3694],[76.8978,30.382],[76.8809,30.3939],[76.8832,30.4087],[76.856,30.4176],[76.8469,30.4381],[76.8232,30.4117],[76.7895,30.4149],[76.7775,30.4249],[76.7875,30.4335],[76.7772,30.4414],[76.748,30.4292],[76.7473,30.436],[76.7584,30.4511],[76.7532,30.4697],[76.7655,30.4754],[76.7691,30.5034],[76.7869,30.5191],[76.7535,30.5366],[76.7515,30.5471],[76.7519,30.5522],[76.7691,30.5517],[76.7619,30.5592],[76.7879,30.5973],[76.7759,30.6078],[76.7729,30.6105],[76.7661,30.6032],[76.7515,30.5965],[76.7337,30.5733],[76.7188,30.59],[76.7032,30.587],[76.699,30.5727],[76.6951,30.5714],[76.6906,30.5722],[76.6864,30.5762],[76.6893,30.5938],[76.663,30.5832],[76.6656,30.611],[76.6484,30.6245],[76.6439,30.628],[76.6345,30.6194],[76.6332,30.6189],[76.6296,30.6315],[76.6286,30.6394],[76.627,30.6404],[76.6121,30.6504],[76.5875,30.6671],[76.5761,30.6652],[76.5541,30.6906],[76.5515,30.7079],[76.5511,30.7087],[76.5346,30.71],[76.5272,30.7373],[76.5317,30.741],[76.522,30.7572],[76.531,30.7686]]],[[[76.5774,30.8573],[76.5696,30.8514],[76.5664,30.8673],[76.5781,30.8694],[76.5745,30.8584],[76.5774,30.8573]]]]}},{"type":"Feature","properties":{"district":"Faridkot","district_hi":"फरीदकोट"},"geometry":{"type":"Polygon","coordinates":[[[74.9058,30.737],[74.9058,30.7365],[74.9039,30.7044],[74.9152,30.6833],[74.9558,30.6779],[74.9577,30.6701],[74.9467,30.6094],[74.9554,30.594],[74.9444,30.5719],[74.9956,30.5366],[74.9901,30.5207],[74.9973,30.4937],[74.9986,30.4883],[74.9992,30.4867],[75.0031,30.4888],[75.0206,30.491],[75.054,30.4586],[75.0342,30.4584],[75.0209,30.4422],[75.0229,30.4265],[75.0524,30.4095],[75.044,30.3818],[75.0329,30.3815],[75.019,30.3845],[74.996,30.4047],[74.9707,30.4047],[74.9616,30.3888],[74.9214,30.3664],[74.8753,30.3896],[74.8533,30.3753],[74.8218,30.3928],[74.8072,30.4012],[74.7573,30.3947],[74.7567,30.4103],[74.7593,30.4228],[74.7557,30.4271],[74.7294,30.457],[74.7628,30.484],[74.7609,30.4934],[74.7375,30.4929],[74.7142,30.5126],[74.6996,30.5158],[74.6902,30.5215],[74.709,30.559],[74.6454,30.597],[74.6419,30.5989],[74.6318,30.617],[74.6192,30.6396],[74.5968,30.6507],[74.5793,30.6596],[74.5718,30.6634],[74.5199,30.6677],[74.5063,30.6688],[74.5002,30.6666],[74.5044,30.6688],[74.4865,30.6723],[74.4801,30.6733],[74.4716,30.7494],[74.5209,30.771],[74.5423,30.7926],[74.5965,30.8093],[74.624,30.8363],[74.6464,30.8185],[74.6633,30.8341],[74.7713,30.8155],[74.7836,30.7947],[74.8072,30.7893],[74.8141,30.7677],[74.8355,30.7704],[74.8582,30.7437],[74.9058,30.737]]]}},{"type":"Feature","properties":{"district":"Fatehgarh Sahib","district_hi":"फतेहगढ़ साहिब"},"geometry":{"type":"Polygon","coordinates":[[[76.3193,30.8775],[76.3235,30.877],[76.3293,30.8762],[76.3485,30.8738],[76.3485,30.8654],[76.3679,30.8721],[76.3848,30.8489],[76.4068,30.847],[76.4081,30.8263],[76.4085,30.8195],[76.4325,30.8193],[76.4341,30.7993],[76.4367,30.7985],[76.4441,30.7594],[76.4623,30.7497],[76.4694,30.7456],[76.495,30.7462],[76.531,30.7686],[76.522,30.7572],[76.5317,30.741],[76.5272,30.7373],[76.5346,30.71],[76.5511,30.7087],[76.5515,30.7079],[76.5541,30.6906],[76.5761,30.6652],[76.5875,30.6671],[76.6121,30.6504],[76.627,30.6404],[76.6286,30.6394],[76.6296,30.6315],[76.6332,30.6189],[76.6345,30.6194],[76.6312,30.6167],[76.6286,30.6143],[76.5956,30.5946],[76.5748,30.5668],[76.5349,30.5598],[76.5203,30.536],[76.5012,30.5509],[76.5012,30.5511],[76.5012,30.5509],[76.5025,30.5274],[76.4912,30.5193],[76.4986,30.4648],[76.4704,30.4737],[76.4691,30.4546],[76.4594,30.4594],[76.4344,30.4438],[76.4305,30.4487],[76.4172,30.464],[76.4068,30.4481],[76.4065,30.4484],[76.3822,30.4716],[76.3524,30.4602],[76.3281,30.4988],[76.3284,30.5404],[76.2836,30.5449],[76.2564,30.5673],[76.2444,30.5498],[76.2295,30.57],[76.1831,30.5414],[76.1731,30.5471],[76.1656,30.5352],[76.1542,30.5444],[76.1361,30.5236],[76.1199,30.5455],[76.1079,30.5293],[76.1072,30.5296],[76.0858,30.5371],[76.0858,30.5369],[76.0758,30.5466],[76.0858,30.5619],[76.0978,30.5606],[76.1076,30.5622],[76.1101,30.5873],[76.1254,30.597],[76.1163,30.6148],[76.1526,30.6399],[76.152,30.655],[76.1692,30.6617],[76.1737,30.6793],[76.188,30.6677],[76.2188,30.6793],[76.2749,30.6755],[76.3034,30.6785],[76.3196,30.6906],[76.3232,30.6933],[76.3196,30.6965],[76.3054,30.7087],[76.2758,30.734],[76.281,30.7464],[76.3109,30.7561],[76.305,30.768],[76.2898,30.7826],[76.2723,30.7758],[76.2619,30.7866],[76.2891,30.8082],[76.2814,30.8303],[76.3112,30.8425],[76.2992,30.8678],[76.3128,30.874],[76.3196,30.8773],[76.3193,30.8775]]]}},{"type":"Feature","properties":{"district":"Sri Muktsar Sahib","district_hi":"मुक्तसर"},"geometry":{"type":"Polygon","coordinates":[[[74.448,29.9472],[74.422,29.9977],[74.46,30.0063],[74.4613,30.0141],[74.4515,30.0298],[74.4058,30.0284],[74.4142,30.0357],[74.3889,30.0743],[74.3656,30.0872],[74.3818,30.1118],[74.4129,30.0977],[74.3812,30.1309],[74.3747,30.1533],[74.3358,30.1633],[74.3581,30.2407],[74.3238,30.245],[74.2865,30.2334],[74.2635,30.2472],[74.2826,30.2744],[74.2975,30.2652],[74.3033,30.3089],[74.3254,30.3294],[74.3079,30.3702],[74.3147,30.3872],[74.3533,30.3823],[74.3568,30.3988],[74.3575,30.4028],[74.244,30.4273],[74.3277,30.4454],[74.3439,30.4635],[74.3461,30.4843],[74.3756,30.4848],[74.3831,30.4999],[74.3731,30.5126],[74.4009,30.5352],[74.375,30.5487],[74.3669,30.5859],[74.4194,30.597],[74.4201,30.6124],[74.4165,30.6137],[74.4402,30.6261],[74.4431,30.6237],[74.4619,30.6083],[74.458,30.6205],[74.494,30.6372],[74.4762,30.6466],[74.4778,30.6536],[74.4788,30.6563],[74.4794,30.6596],[74.5002,30.6666],[74.5063,30.6688],[74.5199,30.6677],[74.5718,30.6634],[74.5793,30.6596],[74.5968,30.6507],[74.6192,30.6396],[74.6318,30.617],[74.6419,30.5989],[74.6454,30.597],[74.709,30.559],[74.6902,30.5215],[74.6996,30.5158],[74.7142,30.5126],[74.7375,30.4929],[74.7609,30.4934],[74.7628,30.484],[74.7294,30.457],[74.7557,30.4271],[74.7593,30.4228],[74.7567,30.4103],[74.7573,30.3947],[74.8072,30.4012],[74.8218,30.3928],[74.792,30.337],[74.7239,30.3661],[74.6999,30.3567],[74.7025,30.3561],[74.7852,30.3367],[74.7242,30.3087],[74.7521,30.2871],[74.7343,30.2787],[74.7181,30.2485],[74.7255,30.2299],[74.7119,30.197],[74.7343,30.1924],[74.7349,30.1751],[74.7032,30.16],[74.6863,30.1679],[74.6561,30.163],[74.6292,30.1296],[74.6487,30.1104],[74.6831,30.1099],[74.6762,30.0815],[74.7048,30.0646],[74.6944,30.0335],[74.7171,30.0133],[74.7006,29.9871],[74.7051,29.9747],[74.6821,29.9434],[74.6516,29.9264],[74.6467,29.9113],[74.6542,29.9057],[74.5968,29.9122],[74.5316,29.9491],[74.5264,29.9413],[74.5271,29.9429],[74.4486,29.9469],[74.448,29.9472]]]}},{"type":"Feature","properties":{"district":"Sangrur","district_hi":"संगरूर"},"geometry":{"type":"Polygon","coordinates":[[[75.6844,30.5905],[75.6769,30.5975],[75.6828,30.6062],[75.7032,30.6032],[75.7035,30.6035],[75.7382,30.6318],[75.7609,30.6375],[75.7891,30.6234],[75.7969,30.6321],[75.7651,30.658],[75.7648,30.6704],[75.7817,30.6712],[75.7859,30.6569],[75.8151,30.6642],[75.8164,30.6871],[75.8339,30.6922],[75.8524,30.6701],[75.8793,30.6763],[75.8955,30.6596],[75.8981,30.6474],[75.8725,30.6394],[75.8725,30.6288],[75.888,30.6205],[75.8877,30.607],[75.9234,30.6089],[75.9292,30.5973],[75.9208,30.5919],[75.9354,30.5681],[76.0099,30.6159],[76.0278,30.6153],[76.0352,30.5889],[76.066,30.5827],[76.0677,30.5824],[76.0696,30.5673],[76.0699,30.5638],[76.0839,30.5622],[76.0858,30.5619],[76.0758,30.5466],[76.0858,30.5369],[76.0891,30.5339],[76.081,30.5021],[76.0635,30.4886],[76.0881,30.4581],[76.0495,30.4357],[76.0527,30.4276],[76.0317,30.4087],[76.0359,30.402],[76.0109,30.3642],[75.9892,30.3688],[75.9879,30.3399],[76.0236,30.3265],[76.0479,30.3389],[76.0881,30.31],[76.1111,30.3216],[76.1335,30.3122],[76.1669,30.3208],[76.1672,30.3025],[76.1799,30.3084],[76.2039,30.2836],[76.1945,30.2725],[76.1825,30.2752],[76.1828,30.2569],[76.1662,30.2399],[76.1536,30.248],[76.138,30.2334],[76.1228,30.2375],[76.1072,30.221],[76.1066,30.2205],[76.0777,30.225],[76.0654,30.2086],[76.0492,30.1867],[76.0735,30.1519],[76.0625,30.1447],[76.079,30.136],[76.0719,30.1244],[76.0836,30.1198],[76.0793,30.112],[76.0939,30.1155],[76.0968,30.1161],[76.0972,30.1163],[76.1046,30.1037],[76.081,30.0637],[76.0874,30.0548],[76.057,30.0667],[76.0437,30.0524],[76.0518,30.0494],[76.0414,30.0481],[76.042,30.0276],[76.0067,29.9836],[76.0268,29.9723],[76.0265,29.9599],[75.9898,29.9456],[75.9834,29.9065],[76.0119,29.8906],[76.02,29.869],[76.033,29.8825],[76.055,29.8706],[76.0651,29.8418],[76.1228,29.8574],[76.1105,29.8183],[76.1066,29.8156],[76.0988,29.8102],[76.0965,29.8088],[76.0842,29.7932],[76.0826,29.7811],[76.0664,29.7714],[76.0508,29.7519],[76.0485,29.7468],[76.0463,29.7465],[76.0404,29.7452],[76.0359,29.7441],[76.0262,29.756],[75.9843,29.7271],[75.9474,29.7293],[75.9461,29.7301],[75.9386,29.7306],[75.9062,29.7541],[75.8987,29.7463],[75.8702,29.7492],[75.8666,29.7665],[75.8371,29.7943],[75.8355,29.8124],[75.8277,29.8105],[75.8157,29.8043],[75.8115,29.8064],[75.7794,29.8223],[75.7791,29.8221],[75.757,29.8051],[75.7567,29.8053],[75.756,29.8051],[75.7207,29.8134],[75.7732,29.8347],[75.7755,29.8534],[75.7573,29.8614],[75.7642,29.9184],[75.7324,29.9348],[75.7087,29.9345],[75.7055,29.9186],[75.6756,29.9089],[75.664,29.931],[75.6409,29.937],[75.6474,29.9836],[75.688,30.0125],[75.688,30.0176],[75.676,30.0373],[75.674,30.0397],[75.6487,30.0233],[75.638,30.0295],[75.64,30.0659],[75.6224,30.0848],[75.6542,30.115],[75.6341,30.1161],[75.6254,30.1428],[75.6056,30.136],[75.5767,30.1439],[75.5764,30.1444],[75.5553,30.1773],[75.5573,30.1956],[75.5573,30.1978],[75.5852,30.2161],[75.5839,30.2283],[75.6137,30.2172],[75.6484,30.238],[75.6805,30.2399],[75.6912,30.2302],[75.6876,30.2396],[75.7288,30.2733],[75.6753,30.2879],[75.6737,30.29],[75.6665,30.2976],[75.6555,30.31],[75.6549,30.3213],[75.6542,30.3335],[75.6539,30.3373],[75.6588,30.3364],[75.6841,30.3515],[75.6659,30.388],[75.6698,30.4201],[75.6464,30.4408],[75.6724,30.4586],[75.6753,30.4727],[75.6581,30.4807],[75.6588,30.4956],[75.6802,30.5104],[75.6523,30.5431],[75.6847,30.5903],[75.6844,30.5905]]]}},{"type":"Feature","properties":{"district":"Barnala","district_hi":"बरनाला"},"geometry":{"type":"Polygon","coordinates":[[[75.2975,30.5169],[75.3173,30.5339],[75.33,30.5277],[75.3348,30.5209],[75.3591,30.5137],[75.3604,30.5131],[75.3608,30.5131],[75.4,30.5282],[75.4195,30.5487],[75.4042,30.5663],[75.4088,30.5841],[75.4315,30.5843],[75.4658,30.6056],[75.496,30.5986],[75.4876,30.583],[75.5015,30.5735],[75.5287,30.5851],[75.5291,30.5849],[75.5323,30.5679],[75.5355,30.5703],[75.5488,30.5803],[75.579,30.5698],[75.604,30.5943],[75.6267,30.6008],[75.6549,30.5911],[75.6614,30.5946],[75.6844,30.5905],[75.6847,30.5903],[75.6523,30.5431],[75.6802,30.5104],[75.6588,30.4956],[75.6581,30.4807],[75.6753,30.4727],[75.6724,30.4586],[75.6464,30.4408],[75.6698,30.4201],[75.6659,30.388],[75.6841,30.3515],[75.6588,30.3364],[75.6539,30.3373],[75.6542,30.3335],[75.6549,30.3213],[75.6555,30.31],[75.6665,30.2976],[75.6737,30.29],[75.6753,30.2879],[75.7288,30.2733],[75.6876,30.2396],[75.6912,30.2302],[75.6805,30.2399],[75.6484,30.238],[75.6137,30.2172],[75.5839,30.2283],[75.5852,30.2161],[75.5573,30.1978],[75.5573,30.1956],[75.5553,30.1773],[75.5764,30.1444],[75.5644,30.1479],[75.5634,30.1471],[75.5485,30.1376],[75.5336,30.1471],[75.52,30.1452],[75.5018,30.1498],[75.4911,30.1622],[75.4645,30.1927],[75.4636,30.194],[75.4629,30.194],[75.4162,30.1862],[75.3903,30.2086],[75.3783,30.2008],[75.3737,30.1981],[75.3692,30.2005],[75.3711,30.2024],[75.3598,30.2056],[75.377,30.2283],[75.3637,30.2412],[75.3711,30.2612],[75.3614,30.2677],[75.364,30.2822],[75.342,30.2855],[75.3465,30.3003],[75.3342,30.3065],[75.318,30.3046],[75.317,30.3111],[75.3154,30.3275],[75.3452,30.3373],[75.3244,30.3507],[75.3335,30.378],[75.3053,30.3788],[75.3053,30.4182],[75.2829,30.4419],[75.2651,30.4365],[75.2538,30.4638],[75.2975,30.5169]]]}},{"type":"Feature","properties":{"district":"Bathinda","district_hi":"बठिंडा"},"geometry":{"type":"Polygon","coordinates":[[[75.0206,30.491],[75.0323,30.5042],[75.0618,30.5015],[75.0848,30.532],[75.1283,30.5223],[75.1211,30.5617],[75.1464,30.5819],[75.1652,30.5792],[75.1795,30.5517],[75.1818,30.5104],[75.1944,30.5083],[75.2019,30.5072],[75.2119,30.5164],[75.2275,30.5077],[75.2622,30.5209],[75.2878,30.5088],[75.2975,30.5169],[75.2538,30.4638],[75.2651,30.4365],[75.2829,30.4419],[75.3053,30.4182],[75.3053,30.3788],[75.3335,30.378],[75.3244,30.3507],[75.3452,30.3373],[75.3154,30.3275],[75.317,30.3111],[75.318,30.3046],[75.3342,30.3065],[75.3465,30.3003],[75.342,30.2855],[75.364,30.2822],[75.3614,30.2677],[75.3711,30.2612],[75.3637,30.2412],[75.377,30.2283],[75.3598,30.2056],[75.3711,30.2024],[75.3692,30.2005],[75.3582,30.1881],[75.3575,30.1873],[75.3572,30.187],[75.3588,30.1644],[75.3588,30.163],[75.3578,30.1627],[75.3446,30.1595],[75.3436,30.1463],[75.3533,30.1422],[75.3446,30.1312],[75.3128,30.112],[75.2855,30.1163],[75.2528,30.1053],[75.2619,30.0605],[75.2758,30.0581],[75.2502,30.0322],[75.2602,30.016],[75.2816,30.0114],[75.2891,30.0225],[75.3011,30.0206],[75.2742,29.996],[75.281,29.9793],[75.2508,29.9828],[75.2369,29.9599],[75.2009,29.978],[75.1827,29.9701],[75.1834,29.9416],[75.172,29.9281],[75.1847,29.9162],[75.1879,29.8895],[75.2174,29.883],[75.2181,29.8644],[75.2174,29.8639],[75.2123,29.8601],[75.1909,29.8445],[75.1678,29.8275],[75.1656,29.8261],[75.1656,29.8256],[75.1591,29.8013],[75.1669,29.7846],[75.151,29.7757],[75.1351,29.8072],[75.1007,29.8072],[75.1014,29.8215],[75.1189,29.8315],[75.1185,29.8318],[75.09,29.8539],[75.1147,29.8787],[75.0994,29.9113],[75.0988,29.9127],[75.0968,29.9132],[75.0936,29.914],[75.0868,29.9154],[75.0699,29.8771],[75.0469,29.8852],[75.0226,29.8663],[74.9973,29.8674],[74.9788,29.8941],[74.9496,29.9062],[74.9266,29.9502],[74.8984,29.9416],[74.9032,29.9521],[74.888,29.9672],[74.8552,29.9564],[74.8384,29.9712],[74.8209,29.971],[74.8244,29.9858],[74.8121,29.992],[74.8115,29.9923],[74.7794,29.972],[74.7314,29.9615],[74.7067,29.9769],[74.7051,29.9747],[74.7006,29.9871],[74.7171,30.0133],[74.6944,30.0335],[74.7048,30.0646],[74.6762,30.0815],[74.6831,30.1099],[74.6487,30.1104],[74.6292,30.1296],[74.6561,30.163],[74.6863,30.1679],[74.7032,30.16],[74.7349,30.1751],[74.7343,30.1924],[74.7119,30.197],[74.7255,30.2299],[74.7181,30.2485],[74.7343,30.2787],[74.7521,30.2871],[74.7242,30.3087],[74.7852,30.3367],[74.7025,30.3561],[74.6999,30.3567],[74.7239,30.3661],[74.792,30.337],[74.8218,30.3928],[74.8533,30.3753],[74.8753,30.3896],[74.9214,30.3664],[74.9616,30.3888],[74.9707,30.4047],[74.996,30.4047],[75.019,30.3845],[75.0329,30.3815],[75.044,30.3818],[75.0524,30.4095],[75.0229,30.4265],[75.0209,30.4422],[75.0342,30.4584],[75.054,30.4586],[75.0206,30.491]]]}},{"type":"Feature","properties":{"district":"Patiala","district_hi":"पटियाला"},"geometry":{"type":"Polygon","coordinates":[[[76.6345,30.6194],[76.6439,30.628],[76.6484,30.6245],[76.6656,30.611],[76.663,30.5832],[76.6893,30.5938],[76.6864,30.5762],[76.6906,30.5722],[76.6951,30.5714],[76.699,30.5727],[76.7032,30.587],[76.7188,30.59],[76.7337,30.5733],[76.7515,30.5965],[76.7661,30.6032],[76.7729,30.6105],[76.7759,30.6078],[76.7879,30.5973],[76.7619,30.5592],[76.7691,30.5517],[76.7519,30.5522],[76.7515,30.5471],[76.7535,30.5366],[76.7869,30.5191],[76.7691,30.5034],[76.7655,30.4754],[76.7532,30.4697],[76.7584,30.4511],[76.7473,30.436],[76.748,30.4292],[76.7412,30.4263],[76.7389,30.413],[76.7399,30.4112],[76.7382,30.4106],[76.7198,30.4039],[76.7146,30.402],[76.7143,30.4006],[76.7172,30.3828],[76.7188,30.3801],[76.7311,30.3796],[76.7198,30.3634],[76.7454,30.368],[76.7486,30.3521],[76.711,30.3259],[76.6886,30.3273],[76.6818,30.3114],[76.6355,30.2895],[76.6235,30.2647],[76.6144,30.2725],[76.593,30.2617],[76.5839,30.2704],[76.5596,30.2633],[76.5618,30.2415],[76.5502,30.2253],[76.5524,30.2253],[76.5855,30.2485],[76.5923,30.2531],[76.5962,30.2558],[76.6004,30.252],[76.6024,30.2504],[76.6037,30.2493],[76.5962,30.2375],[76.6273,30.224],[76.6157,30.2091],[76.6533,30.201],[76.6559,30.1843],[76.6413,30.1697],[76.6286,30.1786],[76.6449,30.1876],[76.6364,30.1967],[76.6141,30.2045],[76.5998,30.1849],[76.6332,30.1671],[76.6426,30.1503],[76.6419,30.1501],[76.6423,30.1498],[76.6384,30.1463],[76.5995,30.1126],[76.5764,30.1101],[76.5456,30.125],[76.5395,30.1082],[76.5768,30.1015],[76.5463,30.0759],[76.5119,30.0721],[76.5048,30.0926],[76.4827,30.0969],[76.4675,30.0991],[76.4665,30.0999],[76.4629,30.1007],[76.4626,30.1042],[76.46,30.1296],[76.4396,30.1331],[76.4386,30.1331],[76.4302,30.1479],[76.4289,30.1503],[76.4286,30.1509],[76.4406,30.166],[76.4211,30.1921],[76.4201,30.1919],[76.3871,30.1706],[76.4101,30.1452],[76.3913,30.135],[76.4,30.1166],[76.3621,30.1201],[76.3504,30.1468],[76.3336,30.1382],[76.3602,30.1201],[76.3443,30.101],[76.3219,30.095],[76.2966,30.1145],[76.2852,30.1061],[76.2538,30.1217],[76.2347,30.1449],[76.2077,30.1565],[76.2246,30.1271],[76.2168,30.1101],[76.2382,30.1056],[76.2535,30.0888],[76.2136,30.0316],[76.2133,30.0227],[76.2327,30.016],[76.21,30.0052],[76.2058,29.9745],[76.1721,29.9262],[76.1876,29.9208],[76.1857,29.8925],[76.1935,29.8857],[76.2107,29.8914],[76.2467,29.876],[76.2467,29.8752],[76.2454,29.8633],[76.2444,29.855],[76.2441,29.855],[76.234,29.852],[76.2249,29.8496],[76.2217,29.8463],[76.2204,29.838],[76.2149,29.8396],[76.199,29.8445],[76.1977,29.8447],[76.1773,29.8221],[76.1737,29.818],[76.1455,29.8191],[76.1208,29.7935],[76.1195,29.7924],[76.1163,29.7967],[76.0988,29.8102],[76.1066,29.8156],[76.1105,29.8183],[76.1228,29.8574],[76.0651,29.8418],[76.055,29.8706],[76.033,29.8825],[76.02,29.869],[76.0119,29.8906],[75.9834,29.9065],[75.9898,29.9456],[76.0265,29.9599],[76.0268,29.9723],[76.0067,29.9836],[76.042,30.0276],[76.0414,30.0481],[76.0518,30.0494],[76.0437,30.0524],[76.057,30.0667],[76.0874,30.0548],[76.081,30.0637],[76.1046,30.1037],[76.0972,30.1163],[76.0968,30.1161],[76.0939,30.1155],[76.0793,30.112],[76.0836,30.1198],[76.0719,30.1244],[76.079,30.136],[76.0625,30.1447],[76.0735,30.1519],[76.0492,30.1867],[76.0654,30.2086],[76.0777,30.225],[76.1066,30.2205],[76.1072,30.221],[76.1228,30.2375],[76.138,30.2334],[76.1536,30.248],[76.1662,30.2399],[76.1828,30.2569],[76.1825,30.2752],[76.1945,30.2725],[76.2039,30.2836],[76.1799,30.3084],[76.1672,30.3025],[76.1669,30.3208],[76.1335,30.3122],[76.1111,30.3216],[76.0881,30.31],[76.0479,30.3389],[76.0236,30.3265],[75.9879,30.3399],[75.9892,30.3688],[76.0109,30.3642],[76.0359,30.402],[76.0317,30.4087],[76.0527,30.4276],[76.0495,30.4357],[76.0881,30.4581],[76.0635,30.4886],[76.081,30.5021],[76.0891,30.5339],[76.0858,30.5369],[76.0858,30.5371],[76.1072,30.5296],[76.1079,30.5293],[76.1199,30.5455],[76.1361,30.5236],[76.1542,30.5444],[76.1656,30.5352],[76.1731,30.5471],[76.1831,30.5414],[76.2295,30.57],[76.2444,30.5498],[76.2564,30.5673],[76.2836,30.5449],[76.3284,30.5404],[76.3281,30.4988],[76.3524,30.4602],[76.3822,30.4716],[76.4065,30.4484],[76.4068,30.4481],[76.4172,30.464],[76.4305,30.4487],[76.4344,30.4438],[76.4594,30.4594],[76.4691,30.4546],[76.4704,30.4737],[76.4986,30.4648],[76.4912,30.5193],[76.5025,30.5274],[76.5012,30.5509],[76.5012,30.5511],[76.5012,30.5509],[76.5203,30.536],[76.5349,30.5598],[76.5748,30.5668],[76.5956,30.5946],[76.6286,30.6143],[76.6312,30.6167],[76.6345,30.6194]]]}},{"type":"Feature","properties":{"district":"Mansa","district_hi":"मानसा"},"geometry":{"type":"Polygon","coordinates":[[[75.5764,30.1444],[75.5767,30.1439],[75.6056,30.136],[75.6254,30.1428],[75.6341,30.1161],[75.6542,30.115],[75.6224,30.0848],[75.64,30.0659],[75.638,30.0295],[75.6487,30.0233],[75.674,30.0397],[75.676,30.0373],[75.688,30.0176],[75.688,30.0125],[75.6474,29.9836],[75.6409,29.937],[75.664,29.931],[75.6756,29.9089],[75.7055,29.9186],[75.7087,29.9345],[75.7324,29.9348],[75.7642,29.9184],[75.7573,29.8614],[75.7755,29.8534],[75.7732,29.8347],[75.7207,29.8134],[75.7035,29.7538],[75.7012,29.7541],[75.6776,29.7765],[75.6773,29.7765],[75.6636,29.7759],[75.6464,29.7754],[75.6455,29.7751],[75.6419,29.7743],[75.6351,29.7724],[75.626,29.7484],[75.625,29.7479],[75.6053,29.7519],[75.58,29.7395],[75.5621,29.7703],[75.5378,29.7732],[75.5229,29.7584],[75.519,29.7757],[75.5187,29.7757],[75.5174,29.7765],[75.4613,29.8078],[75.4603,29.8048],[75.4538,29.7821],[75.4169,29.7708],[75.4139,29.77],[75.4133,29.7676],[75.4049,29.739],[75.3883,29.7301],[75.3922,29.7134],[75.3731,29.7134],[75.3459,29.6961],[75.3601,29.6627],[75.3335,29.6729],[75.3332,29.6732],[75.3293,29.6627],[75.3176,29.6335],[75.2959,29.6252],[75.2949,29.6233],[75.2894,29.6084],[75.2898,29.6084],[75.3199,29.5874],[75.3037,29.561],[75.303,29.5596],[75.281,29.5615],[75.2732,29.5499],[75.2353,29.5421],[75.2385,29.5588],[75.2217,29.5804],[75.2353,29.603],[75.1831,29.6284],[75.1876,29.6519],[75.1685,29.6667],[75.2067,29.6875],[75.2012,29.7236],[75.2061,29.7333],[75.209,29.7371],[75.2262,29.729],[75.2414,29.7506],[75.2408,29.7522],[75.2262,29.7892],[75.2087,29.7932],[75.2106,29.8323],[75.1905,29.8426],[75.1909,29.8445],[75.2123,29.8601],[75.2174,29.8639],[75.2181,29.8644],[75.2174,29.883],[75.1879,29.8895],[75.1847,29.9162],[75.172,29.9281],[75.1834,29.9416],[75.1827,29.9701],[75.2009,29.978],[75.2369,29.9599],[75.2508,29.9828],[75.281,29.9793],[75.2742,29.996],[75.3011,30.0206],[75.2891,30.0225],[75.2816,30.0114],[75.2602,30.016],[75.2502,30.0322],[75.2758,30.0581],[75.2619,30.0605],[75.2528,30.1053],[75.2855,30.1163],[75.3128,30.112],[75.3446,30.1312],[75.3533,30.1422],[75.3436,30.1463],[75.3446,30.1595],[75.3578,30.1627],[75.3588,30.163],[75.3588,30.1644],[75.3572,30.187],[75.3575,30.1873],[75.3582,30.1881],[75.3692,30.2005],[75.3737,30.1981],[75.3783,30.2008],[75.3903,30.2086],[75.4162,30.1862],[75.4629,30.194],[75.4636,30.194],[75.4645,30.1927],[75.4911,30.1622],[75.5018,30.1498],[75.52,30.1452],[75.5336,30.1471],[75.5485,30.1376],[75.5634,30.1471],[75.5644,30.1479],[75.5764,30.1444]]]}},{"type":"Feature","properties":{"district":"Ferozepur","district_hi":"फिरोजपुर"},"geometry":{"type":"Polygon","coordinates":[[[75.0787,31.1478],[75.077,31.1349],[75.077,31.1343],[75.126,31.1211],[75.149,31.0955],[75.1477,31.0917],[75.1338,31.0739],[75.1202,31.0817],[75.0994,31.0774],[75.1039,31.0663],[75.0835,31.0688],[75.0965,31.0588],[75.0942,31.0472],[75.0728,31.0469],[75.0621,31.0677],[75.0517,31.0626],[75.053,31.0429],[75.1033,31.0154],[75.0962,30.9916],[75.103,30.9722],[75.0939,30.9754],[75.0783,30.9463],[75.0407,30.9223],[75.0303,30.8969],[74.9522,30.8918],[74.9425,30.8778],[74.947,30.8287],[74.9292,30.7974],[74.9308,30.7891],[74.9227,30.7855],[74.913,30.7688],[74.9087,30.7365],[74.9058,30.737],[74.8582,30.7437],[74.8355,30.7704],[74.8141,30.7677],[74.8072,30.7893],[74.7836,30.7947],[74.7713,30.8155],[74.6633,30.8341],[74.6464,30.8185],[74.624,30.8363],[74.5965,30.8093],[74.5423,30.7926],[74.5209,30.771],[74.4716,30.7494],[74.4801,30.6733],[74.4865,30.6723],[74.5044,30.6688],[74.5002,30.6666],[74.4794,30.6596],[74.4788,30.6563],[74.4778,30.6536],[74.4762,30.6466],[74.494,30.6372],[74.458,30.6205],[74.4619,30.6083],[74.4431,30.6237],[74.4402,30.6261],[74.4165,30.6137],[74.2161,30.6911],[74.2326,30.7246],[74.2609,30.723],[74.2683,30.7343],[74.2862,30.7351],[74.2599,30.7726],[74.3017,30.7793],[74.3069,30.7893],[74.2949,30.7944],[74.3199,30.8274],[74.3205,30.8465],[74.3481,30.8549],[74.3633,30.8473],[74.3646,30.8573],[74.3821,30.8603],[74.3611,30.8738],[74.3659,30.8929],[74.3974,30.9094],[74.4227,30.9077],[74.4103,30.9234],[74.4236,30.9207],[74.4288,30.9312],[74.4136,30.9296],[74.4165,30.9404],[74.4395,30.942],[74.4797,30.9744],[74.5041,30.9649],[74.5465,30.9924],[74.5423,31.0172],[74.5683,31.0547],[74.5903,31.0499],[74.5968,31.0377],[74.6665,31.052],[74.6957,31.0742],[74.7077,31.072],[74.7207,31.1017],[74.7414,31.1038],[74.7417,31.1187],[74.7891,31.13],[74.8004,31.1149],[74.8017,31.1295],[74.8144,31.1378],[74.8442,31.1324],[74.898,31.1607],[74.9648,31.1535],[74.96,31.1473],[75.0073,31.1216],[75.0093,31.1246],[75.0067,31.1451],[75.0239,31.1564],[75.0608,31.1459],[75.0793,31.1529],[75.0787,31.1478]]]}},{"type":"Feature","properties":{"district":"Pathankot","district_hi":"पठानकोट"},"geometry":{"type":"Polygon","coordinates":[[[75.6007,32.0932],[75.6001,32.0948],[75.5942,32.1116],[75.5826,32.1075],[75.5874,32.1412],[75.5514,32.1334],[75.5433,32.1458],[75.506,32.1453],[75.4807,32.1598],[75.4344,32.149],[75.4422,32.1668],[75.4208,32.1642],[75.4007,32.1903],[75.3793,32.1833],[75.327,32.2141],[75.3718,32.2246],[75.3705,32.2583],[75.3815,32.2691],[75.3718,32.2799],[75.3439,32.2791],[75.3501,32.2901],[75.3209,32.2974],[75.3345,32.3114],[75.3413,32.3462],[75.4308,32.316],[75.4311,32.316],[75.4675,32.3255],[75.4684,32.3389],[75.4892,32.346],[75.4947,32.3411],[75.4801,32.3344],[75.482,32.3203],[75.5122,32.3079],[75.5034,32.2917],[75.518,32.2815],[75.5255,32.2761],[75.532,32.278],[75.5336,32.2785],[75.5349,32.2788],[75.5424,32.3058],[75.5394,32.3362],[75.5599,32.357],[75.5965,32.3778],[75.687,32.3905],[75.7113,32.411],[75.7226,32.4056],[75.7285,32.4325],[75.7437,32.432],[75.7295,32.439],[75.7285,32.4528],[75.7755,32.4644],[75.7762,32.4649],[75.7794,32.4671],[75.8326,32.5035],[75.8355,32.5102],[75.8361,32.5108],[75.8439,32.504],[75.9016,32.4528],[75.9321,32.394],[75.8741,32.3959],[75.8738,32.3956],[75.8475,32.3737],[75.8442,32.3559],[75.8112,32.3486],[75.8151,32.3303],[75.7979,32.3246],[75.7706,32.2888],[75.6383,32.2521],[75.6179,32.2367],[75.6367,32.2313],[75.6387,32.2219],[75.6263,32.2154],[75.6241,32.1903],[75.6558,32.1971],[75.6588,32.1774],[75.6672,32.1776],[75.664,32.1623],[75.673,32.1588],[75.6614,32.1369],[75.6254,32.1183],[75.6147,32.0964],[75.6062,32.0943],[75.6007,32.0932]]]}},{"type":"Feature","properties":{"district":"Kapurthala","district_hi":"कपूरथला"},"geometry":{"type":"MultiPolygon","coordinates":[[[[75.7878,31.3647],[75.8018,31.3725],[75.8219,31.3571],[75.8335,31.3625],[75.8297,31.3701],[75.8498,31.3728],[75.8569,31.3498],[75.8786,31.355],[75.8909,31.3407],[75.9059,31.345],[75.8802,31.3226],[75.8712,31.3247],[75.8566,31.291],[75.8556,31.2891],[75.8647,31.2819],[75.8819,31.2902],[75.8896,31.2754],[75.8903,31.2757],[75.8958,31.2659],[75.9081,31.2614],[75.9101,31.2608],[75.9094,31.2603],[75.8734,31.2473],[75.8689,31.2454],[75.8702,31.2732],[75.8686,31.274],[75.8472,31.281],[75.8423,31.277],[75.8417,31.2681],[75.8413,31.2622],[75.8559,31.2384],[75.8572,31.2365],[75.8553,31.236],[75.7989,31.2166],[75.7982,31.216],[75.7979,31.216],[75.7758,31.1891],[75.7768,31.1764],[75.7723,31.1656],[75.7074,31.1659],[75.6867,31.1964],[75.7123,31.2201],[75.7003,31.2438],[75.699,31.2463],[75.6983,31.2457],[75.6834,31.2306],[75.6701,31.2379],[75.6792,31.246],[75.6704,31.25],[75.6828,31.2538],[75.673,31.2689],[75.6773,31.2916],[75.7042,31.2856],[75.6831,31.3153],[75.7223,31.3164],[75.7012,31.3431],[75.7025,31.3439],[75.7282,31.342],[75.7385,31.3229],[75.7395,31.3215],[75.7554,31.3282],[75.7648,31.3517],[75.7885,31.3625],[75.7878,31.3647]]],[[[75.4042,31.5937],[75.4256,31.6277],[75.4681,31.6363],[75.4681,31.6366],[75.4752,31.65],[75.5248,31.6328],[75.5258,31.6349],[75.532,31.6471],[75.5326,31.6487],[75.5508,31.6339],[75.5722,31.6355],[75.567,31.6109],[75.5735,31.6177],[75.5761,31.6066],[75.5988,31.6053],[75.6027,31.5848],[75.603,31.5842],[75.6027,31.584],[75.5949,31.5861],[75.592,31.5753],[75.6023,31.5632],[75.5959,31.5551],[75.5793,31.5626],[75.5696,31.5376],[75.5676,31.5365],[75.5245,31.5438],[75.5404,31.5284],[75.5391,31.5163],[75.5122,31.5173],[75.5197,31.4998],[75.5086,31.4801],[75.5128,31.4593],[75.4901,31.4709],[75.4743,31.4963],[75.4412,31.4947],[75.4448,31.4731],[75.4577,31.4728],[75.4665,31.4467],[75.458,31.4375],[75.4503,31.444],[75.4529,31.4294],[75.437,31.4259],[75.4366,31.3849],[75.4603,31.3814],[75.472,31.3957],[75.4908,31.3849],[75.4798,31.3722],[75.4558,31.3719],[75.461,31.3609],[75.482,31.3644],[75.4684,31.3247],[75.4341,31.3177],[75.4428,31.3064],[75.4376,31.2894],[75.4629,31.28],[75.472,31.2538],[75.461,31.2355],[75.4399,31.2411],[75.423,31.2295],[75.4178,31.2498],[75.3893,31.2444],[75.3767,31.2309],[75.3679,31.2398],[75.3637,31.226],[75.3446,31.232],[75.3206,31.2071],[75.3014,31.2063],[75.2949,31.1915],[75.2768,31.1874],[75.27,31.1481],[75.2304,31.1527],[75.2226,31.1767],[75.2051,31.185],[75.1844,31.1651],[75.1283,31.1691],[75.1257,31.1694],[75.1124,31.1572],[75.1039,31.1508],[75.0819,31.151],[75.0809,31.1478],[75.0787,31.1478],[75.0793,31.1529],[75.0608,31.1459],[75.0239,31.1564],[75.0067,31.1451],[75.0093,31.1246],[75.0073,31.1216],[74.96,31.1473],[74.9648,31.1535],[75.0378,31.1861],[75.0469,31.1901],[75.0472,31.1907],[75.0592,31.2309],[75.0809,31.2498],[75.0822,31.2738],[75.1039,31.2797],[75.0932,31.284],[75.1069,31.3169],[75.1344,31.3104],[75.1477,31.3202],[75.1461,31.3369],[75.1643,31.3568],[75.1562,31.3652],[75.1633,31.383],[75.1944,31.4081],[75.1863,31.4148],[75.1915,31.4332],[75.21,31.4351],[75.2142,31.4218],[75.2246,31.4218],[75.235,31.4593],[75.2431,31.4553],[75.2784,31.482],[75.2904,31.4912],[75.3371,31.551],[75.3553,31.5643],[75.3621,31.5697],[75.3958,31.5804],[75.4042,31.5937]]]]}}]}