{"type":"FeatureCollection","features":[{"type":"Feature","properties":{"district":"North Sikkim","district_hi":"उत्तरी सिक्किम"},"geometry":{"type":"Polygon","coordinates":[[[88.483,27.376],[88.4421,27.3896],[88.4398,27.3925],[88.4148,27.4198],[88.4075,27.4759],[88.3809,27.4903],[88.3558,27.5212],[88.3266,27.5259],[88.3046,27.5216],[88.2834,27.5137],[88.2815,27.513],[88.2414,27.5349],[88.2098,27.5813],[88.1147,27.6183],[88.1193,27.6439],[88.1432,27.6626],[88.1536,27.6892],[88.1474,27.7028],[88.1563,27.7363],[88.1782,27.7463],[88.1817,27.7758],[88.1979,27.7895],[88.1732,27.8204],[88.2029,27.8377],[88.196,27.8542],[88.1347,27.8819],[88.1393,27.8895],[88.1193,27.9175],[88.1378,27.9369],[88.1289,27.9495],[88.1447,27.9643],[88.2044,27.9416],[88.2071,27.9614],[88.2376,27.9711],[88.2511,27.9423],[88.2661,27.9571],[88.3085,27.9671],[88.3181,27.9786],[88.3304,27.9729],[88.3524,27.9898],[88.409,27.9822],[88.4152,27.9991],[88.4676,28.0168],[88.4953,28.0538],[88.5231,28.0351],[88.545,28.0337],[88.5523,28.0815],[88.6194,28.098],[88.6128,28.1282],[88.6336,28.1207],[88.6721,28.0725],[88.7561,28.0761],[88.8124,28.0236],[88.8363,28.015],[88.844,27.9927],[88.837,27.929],[88.8605,27.9276],[88.8702,27.9161],[88.8879,27.8564],[88.8806,27.8294],[88.8555,27.8161],[88.8617,27.7978],[88.8536,27.765],[88.8652,27.7424],[88.8563,27.7165],[88.8378,27.7057],[88.8482,27.6676],[88.8274,27.6442],[88.8151,27.646],[88.8047,27.6237],[88.8093,27.6025],[88.7881,27.5849],[88.7912,27.5752],[88.7638,27.5648],[88.7773,27.5324],[88.7927,27.5292],[88.7769,27.4687],[88.7823,27.45],[88.7962,27.4479],[88.792,27.4375],[88.8089,27.4238],[88.8047,27.4152],[88.7939,27.4159],[88.7758,27.4173],[88.7284,27.4206],[88.7284,27.4202],[88.6922,27.3997],[88.6275,27.3871],[88.6267,27.3871],[88.5885,27.4004],[88.5508,27.3929],[88.5204,27.4015],[88.4918,27.3817],[88.483,27.376]]]}},{"type":"Feature","properties":{"district":"West Sikkim","district_hi":"पश्चिमी सिक्किम"},"geometry":{"type":"Polygon","coordinates":[[[88.1147,27.6183],[88.2098,27.5813],[88.2414,27.5349],[88.2815,27.513],[88.2642,27.5],[88.2749,27.4051],[88.3293,27.4126],[88.3354,27.4004],[88.3497,27.408],[88.3578,27.3979],[88.3555,27.3756],[88.33,27.3684],[88.3208,27.345],[88.2969,27.3307],[88.3119,27.3094],[88.3077,27.2994],[88.2757,27.2828],[88.3011,27.2595],[88.3019,27.2289],[88.3316,27.1944],[88.2992,27.1714],[88.2807,27.1314],[88.28,27.1296],[88.2322,27.1185],[88.2156,27.1314],[88.1817,27.1325],[88.1536,27.1099],[88.0962,27.1336],[88.0742,27.1857],[88.0785,27.2005],[88.0788,27.2012],[88.0769,27.2023],[88.0453,27.2181],[88.0399,27.2206],[88.0376,27.2199],[88.0322,27.221],[88.0141,27.2123],[88.0315,27.2505],[88.0326,27.2853],[88.0684,27.335],[88.0422,27.3709],[88.0476,27.4055],[88.0754,27.4328],[88.0673,27.4576],[88.0449,27.4781],[88.0442,27.4964],[88.0607,27.5119],[88.0592,27.5363],[88.08,27.5644],[88.0831,27.5888],[88.1147,27.6183]]]}},{"type":"Feature","properties":{"district":"South Sikkim","district_hi":"दक्षिणी सिक्किम"},"geometry":{"type":"Polygon","coordinates":[[[88.2815,27.513],[88.2834,27.5137],[88.3046,27.5216],[88.3266,27.5259],[88.3558,27.5212],[88.3809,27.4903],[88.4075,27.4759],[88.4148,27.4198],[88.4398,27.3925],[88.4421,27.3896],[88.483,27.376],[88.483,27.3752],[88.4811,27.3742],[88.4822,27.3314],[88.4487,27.3141],[88.4383,27.2645],[88.4876,27.2372],[88.4884,27.2289],[88.4857,27.2037],[88.4911,27.1958],[88.4942,27.1915],[88.4972,27.1872],[88.5319,27.176],[88.5311,27.1649],[88.53,27.148],[88.4961,27.1221],[88.4753,27.1207],[88.4587,27.0897],[88.4256,27.0714],[88.4321,27.08],[88.3566,27.0955],[88.342,27.1099],[88.3408,27.1095],[88.3243,27.1056],[88.3166,27.1257],[88.3019,27.1289],[88.2896,27.1271],[88.283,27.1275],[88.2807,27.1314],[88.2992,27.1714],[88.3316,27.1944],[88.3019,27.2289],[88.3011,27.2595],[88.2757,27.2828],[88.3077,27.2994],[88.3119,27.3094],[88.2969,27.3307],[88.3208,27.345],[88.33,27.3684],[88.3555,27.3756],[88.3578,27.3979],[88.3497,27.408],[88.3354,27.4004],[88.3293,27.4126],[88.2749,27.4051],[88.2642,27.5],[88.2815,27.513]]]}},{"type":"Feature","properties":{"district":"East Sikkim","district_hi":"पूर्वी सिक्किम"},"geometry":{"type":"Polygon","coordinates":[[[88.483,27.376],[88.4918,27.3817],[88.5204,27.4015],[88.5508,27.3929],[88.5885,27.4004],[88.6267,27.3871],[88.6275,27.3871],[88.6922,27.3997],[88.7284,27.4202],[88.7284,27.4206],[88.7758,27.4173],[88.7939,27.4159],[88.8378,27.3792],[88.8609,27.3871],[88.8837,27.3429],[88.9153,27.3307],[88.9191,27.3206],[88.9033,27.2724],[88.879,27.2613],[88.832,27.2623],[88.8031,27.2479],[88.7912,27.1857],[88.7665,27.1782],[88.7611,27.1523],[88.7388,27.1365],[88.7222,27.1394],[88.7161,27.1498],[88.7103,27.1602],[88.7064,27.1663],[88.6883,27.1753],[88.6876,27.175],[88.6668,27.166],[88.6537,27.1602],[88.6529,27.1598],[88.597,27.1883],[88.54,27.1778],[88.5319,27.1764],[88.5319,27.176],[88.4972,27.1872],[88.4942,27.1915],[88.4911,27.1958],[88.4857,27.2037],[88.4884,27.2289],[88.4876,27.2372],[88.4383,27.2645],[88.4487,27.3141],[88.4822,27.3314],[88.4811,27.3742],[88.483,27.3752],[88.483,27.376]]]}}]}