{"type":"FeatureCollection","features":[{"type":"Feature","properties":{"district":"Adilabad","district_hi":"आदिलाबाद"},"geometry":{"type":"Polygon","coordinates":[[[78.9501,19.5333],[78.9421,19.5138],[78.949,19.5012],[78.9745,19.4908],[78.9269,19.4622],[78.9037,19.474],[78.8847,19.4455],[78.8531,19.4472],[78.8207,19.3879],[78.8097,19.3865],[78.8542,19.3684],[78.8546,19.3039],[78.8546,19.2788],[78.8558,19.2785],[78.8539,19.2781],[78.8497,19.2677],[78.8489,19.2628],[78.847,19.2617],[78.8196,19.2468],[78.812,19.2217],[78.801,19.2147],[78.8002,19.2143],[78.7998,19.214],[78.7587,19.2781],[78.7199,19.2966],[78.7226,19.3266],[78.675,19.3161],[78.6153,19.261],[78.5879,19.2879],[78.5704,19.2865],[78.5217,19.2506],[78.5095,19.2147],[78.4566,19.2269],[78.4486,19.1802],[78.4486,19.1788],[78.4334,19.1781],[78.3969,19.1763],[78.3885,19.176],[78.3695,19.1823],[78.363,19.1997],[78.3181,19.2154],[78.3173,19.2157],[78.2994,19.2593],[78.2755,19.2659],[78.2667,19.2844],[78.2302,19.3088],[78.2017,19.3092],[78.1975,19.3092],[78.1956,19.3147],[78.1921,19.3259],[78.1762,19.3349],[78.172,19.3597],[78.1876,19.3946],[78.1762,19.4123],[78.1952,19.4068],[78.2115,19.4284],[78.2447,19.4287],[78.2705,19.4563],[78.2869,19.4486],[78.3044,19.4566],[78.3093,19.481],[78.2934,19.5424],[78.2743,19.5539],[78.2751,19.5626],[78.2937,19.5591],[78.3036,19.5692],[78.3055,19.6072],[78.2903,19.6459],[78.2625,19.6651],[78.2762,19.6923],[78.312,19.6909],[78.3189,19.7055],[78.3432,19.7132],[78.3413,19.7359],[78.3645,19.7808],[78.3588,19.8028],[78.3341,19.8146],[78.3364,19.838],[78.2998,19.8411],[78.2854,19.8565],[78.3071,19.9143],[78.3306,19.9147],[78.3246,19.8948],[78.3356,19.8837],[78.3809,19.8805],[78.3858,19.846],[78.4003,19.8342],[78.4319,19.815],[78.4726,19.8174],[78.4901,19.7927],[78.5072,19.7976],[78.5152,19.8188],[78.5521,19.8241],[78.6929,19.7909],[78.7192,19.7665],[78.7401,19.7833],[78.7564,19.7725],[78.7823,19.7784],[78.8021,19.7564],[78.8409,19.762],[78.8599,19.6895],[78.852,19.6585],[78.8866,19.655],[78.9037,19.67],[78.9555,19.656],[78.9555,19.6002],[78.973,19.5825],[78.9376,19.5619],[78.936,19.55],[78.9353,19.55],[78.936,19.5493],[78.9501,19.5333]]]}},{"type":"Feature","properties":{"district":"Hyderabad","district_hi":"हैदराबाद"},"geometry":{"type":"Polygon","coordinates":[[[78.476,17.4636],[78.4855,17.4563],[78.5049,17.4685],[78.5004,17.4831],[78.5224,17.4824],[78.5179,17.4406],[78.5491,17.4375],[78.5262,17.4221],[78.5342,17.405],[78.5224,17.4026],[78.5224,17.4022],[78.5232,17.3984],[78.5278,17.374],[78.5285,17.374],[78.5293,17.3716],[78.5407,17.3716],[78.5319,17.3458],[78.5068,17.3486],[78.5061,17.3489],[78.5072,17.3186],[78.4771,17.3175],[78.4642,17.3022],[78.4547,17.3158],[78.4517,17.3238],[78.4471,17.3266],[78.4235,17.3405],[78.4273,17.351],[78.4421,17.3489],[78.4269,17.3601],[78.4284,17.3726],[78.3695,17.3775],[78.395,17.3862],[78.3927,17.4019],[78.4041,17.4078],[78.395,17.4232],[78.4098,17.435],[78.4068,17.4385],[78.4094,17.442],[78.4216,17.4465],[78.4539,17.4448],[78.4558,17.4472],[78.4619,17.4573],[78.4756,17.48],[78.4771,17.4807],[78.476,17.4636]]]}},{"type":"Feature","properties":{"district":"Jagtial","district_hi":"जगतियाल"},"geometry":{"type":"Polygon","coordinates":[[[79.0658,19.0494],[79.0856,19.0233],[79.113,18.9396],[79.1822,18.8685],[79.2374,18.8577],[79.2713,18.8281],[79.2785,18.8253],[79.2815,18.8228],[79.2869,18.8221],[79.3017,18.8166],[79.296,18.8012],[79.2827,18.7956],[79.2709,18.7827],[79.2705,18.7789],[79.2618,18.7723],[79.2344,18.7524],[79.2302,18.7493],[79.2279,18.7496],[79.1628,18.7556],[79.1503,18.7256],[79.1301,18.7088],[79.1122,18.7102],[79.1255,18.6837],[79.1103,18.6604],[79.1031,18.6496],[79.0654,18.6534],[79.065,18.6534],[79.0647,18.6538],[79.0597,18.6656],[79.0498,18.6471],[79.0361,18.6447],[79.0179,18.6541],[79.0064,18.6754],[78.9984,18.6743],[78.9874,18.667],[78.9847,18.6597],[78.9676,18.6091],[78.9893,18.5764],[78.9886,18.5753],[78.9878,18.5739],[78.9832,18.5687],[78.9604,18.5764],[78.957,18.5767],[78.9391,18.5837],[78.9288,18.5663],[78.9273,18.567],[78.9246,18.5677],[78.9144,18.5715],[78.9029,18.5499],[78.8934,18.5969],[78.8508,18.5882],[78.7914,18.621],[78.7606,18.6189],[78.7545,18.6304],[78.7055,18.6409],[78.6701,18.6234],[78.6316,18.6775],[78.6396,18.7203],[78.637,18.7214],[78.6149,18.7301],[78.5818,18.7228],[78.5711,18.7381],[78.5529,18.7427],[78.5635,18.7789],[78.551,18.8134],[78.5418,18.8152],[78.5434,18.8598],[78.5361,18.8842],[78.5141,18.8922],[78.5274,18.9396],[78.5335,18.9438],[78.5369,18.9459],[78.535,18.9476],[78.5456,18.9459],[78.5468,18.9456],[78.5468,18.9459],[78.5544,18.9707],[78.5567,18.9776],[78.5886,19.0055],[78.6065,18.9856],[78.6362,18.978],[78.6853,19.0264],[78.6944,19.032],[78.7621,19.0114],[78.7789,19.0376],[78.8211,19.0491],[78.8447,19.0704],[78.914,19.0306],[78.9475,19.0728],[79.0198,19.0756],[79.0224,19.0752],[79.0658,19.0494]]]}},{"type":"Feature","properties":{"district":"Jangaon","district_hi":"जनगांव"},"geometry":{"type":"Polygon","coordinates":[[[79.2633,17.9837],[79.2709,17.9785],[79.2675,17.9527],[79.3242,17.944],[79.3428,17.9213],[79.3889,17.9008],[79.3946,17.9081],[79.4201,17.8959],[79.4429,17.9112],[79.4433,17.9112],[79.4433,17.9109],[79.449,17.8791],[79.4592,17.875],[79.4779,17.8879],[79.4817,17.892],[79.4825,17.891],[79.4908,17.8805],[79.5034,17.8645],[79.503,17.8628],[79.4908,17.8213],[79.5144,17.8188],[79.5144,17.7948],[79.5144,17.7742],[79.5053,17.7488],[79.4905,17.7543],[79.4809,17.7453],[79.5041,17.7244],[79.4809,17.7052],[79.4905,17.6961],[79.4813,17.6749],[79.4897,17.663],[79.5224,17.6613],[79.5243,17.633],[79.5403,17.6379],[79.5639,17.6184],[79.5726,17.6215],[79.554,17.5975],[79.5373,17.6006],[79.511,17.5874],[79.5159,17.563],[79.5163,17.5598],[79.5331,17.5567],[79.5338,17.5291],[79.5395,17.5236],[79.5217,17.4946],[79.4726,17.5145],[79.4303,17.5166],[79.4124,17.4985],[79.3831,17.5117],[79.3809,17.5103],[79.3759,17.5079],[79.363,17.5009],[79.3645,17.4939],[79.366,17.4863],[79.3698,17.4824],[79.3592,17.4824],[79.328,17.4507],[79.2854,17.4692],[79.2937,17.4866],[79.2747,17.4978],[79.2553,17.472],[79.2538,17.4727],[79.2298,17.4967],[79.2424,17.5016],[79.2325,17.5277],[79.1975,17.5211],[79.1841,17.5302],[79.1853,17.541],[79.1723,17.5424],[79.1678,17.5755],[79.1514,17.5874],[79.1575,17.6219],[79.1347,17.6428],[79.1301,17.6721],[79.0997,17.6776],[79.0688,17.7191],[79.046,17.7261],[79.0376,17.7094],[79.0251,17.7129],[78.9958,17.7509],[79.0015,17.7707],[78.9908,17.7937],[78.9905,17.7937],[78.9486,17.7882],[78.9075,17.8126],[78.8995,17.8049],[78.8664,17.8101],[78.8676,17.8251],[78.8889,17.8415],[78.9223,17.8366],[78.9212,17.8649],[78.9281,17.875],[78.9345,17.8767],[78.9585,17.8711],[78.9988,17.845],[79.0201,17.876],[79.0392,17.8722],[79.0437,17.861],[79.065,17.8736],[79.0921,17.8732],[79.1244,17.9022],[79.1023,17.9144],[79.1316,17.9468],[79.1438,17.966],[79.1389,17.9782],[79.1533,17.9921],[79.2039,17.9973],[79.229,17.9914],[79.2633,17.9837]]]}},{"type":"Feature","properties":{"district":"Mulugu","district_hi":"मुलुगु"},"geometry":{"type":"Polygon","coordinates":[[[79.842,18.1326],[79.8588,18.1504],[79.8443,18.1584],[79.8363,18.1863],[79.863,18.203],[79.8443,18.2145],[79.8535,18.2598],[79.8892,18.2853],[79.882,18.2992],[79.893,18.317],[79.9444,18.3184],[79.9539,18.3397],[79.8995,18.371],[79.8911,18.3993],[79.9223,18.4062],[79.9897,18.3864],[80.0422,18.4042],[80.0738,18.3881],[80.1126,18.3927],[80.1727,18.3494],[80.2168,18.3895],[80.2321,18.5558],[80.2321,18.5562],[80.2678,18.59],[80.3527,18.5952],[80.3736,18.6116],[80.3881,18.5959],[80.4547,18.6304],[80.487,18.6318],[80.5148,18.6193],[80.5346,18.5882],[80.6377,18.5227],[80.6369,18.5049],[80.6552,18.476],[80.7054,18.4397],[80.6963,18.424],[80.7184,18.4097],[80.7347,18.4129],[80.7195,18.3913],[80.7488,18.3083],[80.7941,18.2602],[80.737,18.2222],[80.737,18.1772],[80.756,18.1716],[80.7557,18.1695],[80.7545,18.1695],[80.7545,18.1615],[80.7549,18.0737],[80.7146,18.1267],[80.6986,18.127],[80.6822,18.1479],[80.6963,18.1584],[80.6815,18.1657],[80.6613,18.1312],[80.6324,18.1423],[80.6232,18.1295],[80.643,18.1253],[80.635,18.1096],[80.6164,18.1183],[80.6023,18.0827],[80.5863,18.067],[80.5711,18.0552],[80.5639,18.0562],[80.5422,18.1162],[80.4863,18.0737],[80.4653,18.0904],[80.4566,18.0604],[80.4452,18.067],[80.4315,18.0601],[80.3919,18.0817],[80.3466,18.0367],[80.3413,18.0144],[80.3162,17.9959],[80.3097,17.9754],[80.2945,17.9646],[80.2751,17.9663],[80.2705,17.9433],[80.2701,17.9471],[80.2401,17.9921],[80.2153,17.9949],[80.2203,18.0067],[80.2092,18.0238],[80.2199,18.0461],[80.1495,18.0838],[80.1449,18.0949],[80.0795,18.0705],[80.0445,18.1019],[80.0285,18.1162],[80.0274,18.1162],[80.0163,18.1152],[79.992,18.1075],[79.9794,18.112],[79.9577,18.0894],[79.9364,18.0838],[79.8847,18.0859],[79.8873,18.0981],[79.8146,18.0918],[79.8196,18.1131],[79.8394,18.1333],[79.842,18.1326]]]}},{"type":"Feature","properties":{"district":"Jogulamba Gadwal","district_hi":"जोगुलाम्बा गद्वाल"},"geometry":{"type":"Polygon","coordinates":[[[77.7751,16.3069],[77.9125,16.2128],[77.9319,16.1933],[77.9471,16.119],[78.0293,16.0597],[78.0696,16.0144],[78.1305,15.9977],[78.1362,15.9963],[78.1461,15.9715],[78.1579,15.951],[78.2214,15.944],[78.2481,15.9715],[78.2511,15.975],[78.2515,15.9353],[78.1845,15.9098],[78.1796,15.9018],[78.1899,15.8924],[78.1754,15.8582],[78.1354,15.8548],[78.1339,15.8363],[78.0837,15.8408],[78.0715,15.8617],[78.0468,15.875],[78.0449,15.9043],[78.0319,15.9074],[78.0087,15.8617],[77.9752,15.8833],[77.9368,15.8833],[77.8881,15.906],[77.8584,15.8837],[77.8036,15.8743],[77.7241,15.8959],[77.6929,15.8833],[77.6594,15.8854],[77.6115,15.9179],[77.5932,15.9119],[77.5133,15.9269],[77.5141,16.0081],[77.4939,16.0371],[77.5068,16.0796],[77.4935,16.0862],[77.5011,16.1061],[77.5133,16.1082],[77.4897,16.1197],[77.4863,16.1629],[77.5011,16.2218],[77.5156,16.2278],[77.4924,16.2292],[77.4901,16.2553],[77.5049,16.2759],[77.5221,16.278],[77.5369,16.2668],[77.5453,16.2916],[77.5632,16.3017],[77.5978,16.293],[77.5886,16.3341],[77.6423,16.3627],[77.6438,16.3634],[77.6609,16.3627],[77.6678,16.362],[77.6754,16.3616],[77.6815,16.355],[77.7751,16.3069]]]}},{"type":"Feature","properties":{"district":"Kamareddy","district_hi":"कामारेड्डी"},"geometry":{"type":"Polygon","coordinates":[[[77.7614,18.5255],[77.7568,18.5025],[77.7785,18.5056],[77.7896,18.4972],[77.8649,18.508],[77.8893,18.4924],[77.9376,18.4913],[77.9749,18.4704],[77.9817,18.4592],[77.9749,18.4463],[78.0221,18.4362],[78.038,18.4648],[78.0396,18.5178],[78.07,18.5084],[78.0761,18.5147],[78.1035,18.5042],[78.1058,18.4917],[78.1598,18.4774],[78.1921,18.5087],[78.25,18.4864],[78.2587,18.4561],[78.2599,18.4526],[78.2652,18.453],[78.2717,18.453],[78.3074,18.454],[78.3295,18.4669],[78.3828,18.4537],[78.3988,18.4819],[78.4246,18.4749],[78.4452,18.4833],[78.4692,18.446],[78.492,18.4376],[78.53,18.4655],[78.5399,18.4613],[78.5434,18.4596],[78.5437,18.4585],[78.554,18.431],[78.5418,18.4125],[78.565,18.3906],[78.5316,18.3874],[78.5335,18.3606],[78.5494,18.3365],[78.5373,18.3177],[78.5411,18.2999],[78.5213,18.2787],[78.527,18.2752],[78.5529,18.2584],[78.5532,18.2581],[78.5677,18.2232],[78.5673,18.2229],[78.5616,18.2082],[78.5612,18.2072],[78.5681,18.1831],[78.5688,18.18],[78.5669,18.1803],[78.5456,18.1831],[78.5312,18.1849],[78.5259,18.1835],[78.516,18.1664],[78.5023,18.1755],[78.4836,18.1483],[78.4916,18.1326],[78.4798,18.126],[78.4581,18.1207],[78.4418,18.1301],[78.4456,18.1451],[78.433,18.1629],[78.4121,18.1308],[78.3847,18.1235],[78.3744,18.1448],[78.3634,18.1469],[78.3577,18.172],[78.3128,18.2023],[78.3139,18.179],[78.2778,18.143],[78.2568,18.1396],[78.2275,18.1755],[78.2165,18.1755],[78.2173,18.2009],[78.2074,18.217],[78.207,18.217],[78.1807,18.2044],[78.1689,18.1674],[78.1796,18.0974],[78.1541,18.0859],[78.1431,18.0684],[78.1168,18.0726],[78.1065,18.0935],[78.094,18.0684],[78.0742,18.0723],[78.0715,18.0597],[78.0441,18.0796],[78.0453,18.0681],[78.0346,18.0643],[78.0293,18.0838],[78.0122,18.0901],[78.0144,18.0758],[78.0045,18.0876],[78.0007,18.0813],[77.995,18.1068],[77.9756,18.1148],[77.9349,18.105],[77.93,18.0984],[77.8999,18.0921],[77.8984,18.0918],[77.9045,18.104],[77.9056,18.1057],[77.9269,18.104],[77.9296,18.1159],[77.909,18.1242],[77.9235,18.1281],[77.9189,18.1364],[77.9353,18.1493],[77.9357,18.1493],[77.9281,18.1556],[77.9147,18.141],[77.9026,18.1444],[77.8946,18.1566],[77.9037,18.1922],[77.8687,18.1891],[77.8542,18.2075],[77.8539,18.2072],[77.8268,18.1939],[77.7964,18.2048],[77.7698,18.188],[77.7584,18.2051],[77.742,18.2051],[77.7435,18.2243],[77.7279,18.2333],[77.7226,18.2581],[77.7226,18.2584],[77.7222,18.2584],[77.6876,18.2602],[77.6651,18.2835],[77.6419,18.286],[77.6008,18.2759],[77.6054,18.2814],[77.573,18.2933],[77.562,18.2849],[77.5514,18.2919],[77.5704,18.318],[77.5259,18.3421],[77.5202,18.3571],[77.5255,18.3728],[77.5517,18.3888],[77.5567,18.4191],[77.5281,18.4289],[77.5274,18.4422],[77.5643,18.4373],[77.5852,18.4467],[77.5837,18.4561],[77.551,18.4603],[77.5487,18.4686],[77.573,18.4697],[77.5765,18.4868],[77.6031,18.477],[77.6046,18.4962],[77.586,18.5039],[77.6004,18.5223],[77.5906,18.5265],[77.5963,18.5488],[77.6126,18.5446],[77.6294,18.5537],[77.6339,18.5439],[77.6434,18.5551],[77.6545,18.5307],[77.7017,18.5551],[77.7386,18.5568],[77.7614,18.5255]]]}},{"type":"Feature","properties":{"district":"Karimnagar","district_hi":"करीमनगर"},"geometry":{"type":"Polygon","coordinates":[[[78.957,18.5767],[78.9604,18.5764],[78.9832,18.5687],[78.9878,18.5739],[78.9886,18.5753],[78.9893,18.5764],[78.9676,18.6091],[78.9847,18.6597],[78.9874,18.667],[78.9984,18.6743],[79.0064,18.6754],[79.0179,18.6541],[79.0361,18.6447],[79.0498,18.6471],[79.0597,18.6656],[79.0647,18.6538],[79.065,18.6534],[79.0654,18.6534],[79.1031,18.6496],[79.1103,18.6604],[79.1137,18.6332],[79.1111,18.622],[79.1149,18.6227],[79.1476,18.628],[79.1758,18.6541],[79.1849,18.6105],[79.2043,18.5952],[79.2054,18.5778],[79.2298,18.567],[79.2153,18.5349],[79.2157,18.492],[79.2366,18.4477],[79.2819,18.4802],[79.3063,18.4805],[79.3729,18.4355],[79.4832,18.3871],[79.4855,18.386],[79.5011,18.3916],[79.5422,18.4062],[79.5468,18.4076],[79.5555,18.4157],[79.5669,18.424],[79.5806,18.4132],[79.5795,18.3487],[79.5764,18.3093],[79.5597,18.2999],[79.5631,18.2633],[79.5631,18.263],[79.5563,18.2658],[79.5532,18.2672],[79.5517,18.2637],[79.5502,18.2473],[79.5395,18.2389],[79.5365,18.2368],[79.5346,18.2351],[79.5319,18.2361],[79.4737,18.2299],[79.4619,18.1643],[79.4475,18.1591],[79.4425,18.1598],[79.4261,18.1622],[79.3991,18.1661],[79.3968,18.1479],[79.3793,18.1566],[79.3656,18.1399],[79.3272,18.1483],[79.3013,18.1301],[79.301,18.1305],[79.2907,18.1511],[79.2888,18.1514],[79.2507,18.1542],[79.2446,18.1842],[79.2108,18.1748],[79.2123,18.1615],[79.1879,18.1702],[79.1624,18.1573],[79.1457,18.1709],[79.1373,18.2061],[79.108,18.2215],[79.1084,18.2372],[79.1233,18.2431],[79.1202,18.2553],[79.1335,18.2713],[79.1149,18.2905],[79.0723,18.2853],[79.0628,18.2919],[79.0609,18.2936],[79.0719,18.3163],[79.0597,18.3425],[79.0593,18.3425],[79.054,18.3428],[79.0373,18.3438],[79.0327,18.3372],[79.019,18.317],[79.0114,18.3456],[79.0247,18.3662],[79.0083,18.3839],[79.0053,18.3867],[79.0182,18.3996],[78.9969,18.4],[78.9741,18.4275],[78.9783,18.4422],[78.9916,18.4411],[78.9874,18.462],[78.9478,18.4439],[78.9235,18.4749],[78.9227,18.4756],[78.9539,18.5129],[78.9608,18.5363],[78.949,18.5541],[78.957,18.5767]]]}},{"type":"Feature","properties":{"district":"Khammam","district_hi":"खम्मम"},"geometry":{"type":"Polygon","coordinates":[[[80.3238,17.5609],[80.3687,17.5678],[80.3561,17.5312],[80.3436,17.5351],[80.3398,17.5225],[80.3466,17.4852],[80.3603,17.4863],[80.3611,17.5009],[80.3968,17.5281],[80.4315,17.4974],[80.3759,17.4169],[80.4063,17.4211],[80.4463,17.4106],[80.4771,17.3848],[80.4661,17.3705],[80.5011,17.3667],[80.535,17.3841],[80.5403,17.3608],[80.5559,17.3681],[80.5563,17.3412],[80.5821,17.3569],[80.5924,17.382],[80.6061,17.3824],[80.6194,17.3716],[80.6095,17.3562],[80.6149,17.343],[80.6286,17.3388],[80.6343,17.3629],[80.6461,17.3601],[80.6457,17.3465],[80.6799,17.3378],[80.683,17.2966],[80.6925,17.2889],[80.6933,17.2893],[80.7226,17.3053],[80.7484,17.2914],[80.761,17.314],[80.7754,17.3081],[80.7789,17.3374],[80.8127,17.3371],[80.8318,17.3632],[80.8592,17.3646],[80.8763,17.2649],[80.8652,17.236],[80.9189,17.2199],[80.9238,17.1579],[80.8793,17.161],[80.8679,17.123],[80.8763,17.1056],[80.8675,17.0805],[80.877,17.0704],[80.8455,17.04],[80.7389,17.0798],[80.6993,17.084],[80.6735,17.0665],[80.6537,17.0686],[80.6571,17.0895],[80.6704,17.1014],[80.6419,17.116],[80.6453,17.1237],[80.6183,17.1286],[80.5799,17.153],[80.5631,17.1331],[80.514,17.122],[80.5053,17.0686],[80.4908,17.0508],[80.4714,17.0505],[80.4649,17.0299],[80.4387,17.0376],[80.417,17.0735],[80.4189,17.0923],[80.3873,17.0714],[80.4071,17.016],[80.3877,17.0094],[80.3633,16.9762],[80.4497,16.955],[80.4935,16.9274],[80.4992,16.9564],[80.5262,16.948],[80.5346,16.9616],[80.6019,16.9187],[80.5871,16.9041],[80.5958,16.8846],[80.5684,16.8696],[80.5627,16.833],[80.613,16.7936],[80.597,16.7922],[80.5703,16.7681],[80.4646,16.7957],[80.4642,16.8201],[80.4284,16.8382],[80.4277,16.8497],[80.3839,16.8654],[80.3782,16.8521],[80.4079,16.8483],[80.4041,16.8319],[80.3805,16.8176],[80.374,16.8525],[80.3409,16.8598],[80.3439,16.8744],[80.3219,16.8797],[80.3238,16.9065],[80.3116,16.9166],[80.3165,16.9484],[80.3051,16.9536],[80.3067,16.9738],[80.2903,16.9811],[80.2937,16.9965],[80.2827,17.0076],[80.2648,16.9972],[80.226,17.0153],[80.2115,17.0104],[80.1967,17.0439],[80.1872,17.0202],[80.1533,17.0069],[80.1404,16.9905],[80.0951,16.9905],[80.0917,16.9682],[80.0559,16.9714],[80.0555,16.9714],[80.062,17.0094],[80.0369,17.0244],[80.0399,17.0512],[79.9965,17.0759],[79.9958,17.0766],[79.9943,17.0784],[79.9463,17.1349],[79.9185,17.1296],[79.9124,17.1488],[79.8812,17.1736],[79.8767,17.1938],[79.8862,17.2091],[79.9018,17.2116],[79.9006,17.2537],[79.8405,17.2792],[79.8306,17.2701],[79.8135,17.2952],[79.8017,17.3123],[79.804,17.3238],[79.8044,17.3252],[79.8314,17.336],[79.8755,17.3304],[79.879,17.3534],[79.8957,17.3566],[79.9033,17.3758],[79.9307,17.3663],[79.9368,17.3953],[79.9699,17.4064],[79.9916,17.3995],[79.9923,17.3642],[80.0525,17.3465],[80.0742,17.351],[80.086,17.367],[80.1084,17.3587],[80.1206,17.3827],[80.1438,17.3939],[80.1609,17.3768],[80.17,17.4385],[80.2032,17.442],[80.1959,17.4762],[80.2001,17.487],[80.2039,17.4744],[80.2165,17.4755],[80.2279,17.5047],[80.2283,17.5305],[80.202,17.5581],[80.2302,17.5525],[80.2336,17.5664],[80.2808,17.5427],[80.2922,17.556],[80.2827,17.5633],[80.2884,17.5724],[80.3238,17.5609]]]}},{"type":"Feature","properties":{"district":"Komaram Bheem","district_hi":"कोमाराम भीम"},"geometry":{"type":"Polygon","coordinates":[[[78.8558,19.2785],[78.8546,19.2788],[78.8546,19.3039],[78.8542,19.3684],[78.8097,19.3865],[78.8207,19.3879],[78.8531,19.4472],[78.8847,19.4455],[78.9037,19.474],[78.9269,19.4622],[78.9745,19.4908],[78.949,19.5012],[78.9421,19.5138],[78.9501,19.5333],[78.936,19.5493],[78.9353,19.55],[78.936,19.55],[78.9741,19.5493],[78.9813,19.5609],[78.9981,19.5399],[79.046,19.5483],[79.0962,19.5326],[79.191,19.4591],[79.2237,19.4692],[79.2039,19.4943],[79.2401,19.5354],[79.237,19.557],[79.253,19.5933],[79.2386,19.6062],[79.2465,19.6166],[79.2728,19.5988],[79.3067,19.5964],[79.3139,19.5664],[79.3185,19.5769],[79.3656,19.5762],[79.4052,19.5358],[79.4204,19.5298],[79.4334,19.5371],[79.4714,19.5002],[79.5186,19.5201],[79.5186,19.5431],[79.5376,19.5542],[79.5529,19.5242],[79.5947,19.5068],[79.6141,19.5598],[79.6293,19.5741],[79.7089,19.5846],[79.7431,19.6086],[79.7808,19.5982],[79.8162,19.5741],[79.8283,19.5434],[79.8645,19.5107],[79.9143,19.496],[79.9448,19.4699],[79.9474,19.4496],[79.9745,19.412],[79.9798,19.3886],[79.9589,19.3343],[79.9661,19.3043],[79.9364,19.2642],[79.9246,19.2258],[79.9452,19.1676],[79.9311,19.1554],[79.9239,19.1652],[79.8542,19.1728],[79.799,19.1516],[79.7834,19.162],[79.7873,19.184],[79.7724,19.1899],[79.756,19.1819],[79.734,19.1861],[79.7096,19.2074],[79.6761,19.199],[79.6792,19.2255],[79.6624,19.2182],[79.6548,19.2408],[79.6617,19.26],[79.6229,19.2555],[79.6141,19.2764],[79.5586,19.259],[79.5498,19.2642],[79.5627,19.2827],[79.5171,19.2854],[79.5159,19.2921],[79.5045,19.2684],[79.5308,19.2572],[79.5239,19.2513],[79.5479,19.2021],[79.4806,19.2014],[79.4707,19.1875],[79.4779,19.1837],[79.4623,19.1718],[79.4079,19.2011],[79.3401,19.2213],[79.3394,19.2108],[79.3508,19.2105],[79.3481,19.1774],[79.3173,19.1634],[79.3265,19.1453],[79.3162,19.0923],[79.277,19.1167],[79.2671,19.0337],[79.2443,19.0299],[79.226,19.0331],[79.1956,19.0826],[79.1507,19.0927],[79.1046,19.1697],[79.07,19.1871],[79.0578,19.2088],[79.0061,19.2189],[78.9984,19.2203],[78.9916,19.2342],[78.9714,19.2321],[78.9547,19.2481],[78.9532,19.2488],[78.9528,19.2488],[78.9418,19.2523],[78.8938,19.29],[78.8854,19.2729],[78.8558,19.2785]]]}},{"type":"Feature","properties":{"district":"Mahabubabad","district_hi":"महबूबाबाद"},"geometry":{"type":"Polygon","coordinates":[[[79.5395,17.5236],[79.5338,17.5291],[79.5331,17.5567],[79.5163,17.5598],[79.5159,17.563],[79.511,17.5874],[79.5373,17.6006],[79.554,17.5975],[79.5726,17.6215],[79.5776,17.6285],[79.6137,17.6362],[79.6164,17.6219],[79.6537,17.6281],[79.6613,17.6494],[79.6826,17.6546],[79.6914,17.6867],[79.7142,17.6839],[79.7214,17.701],[79.7678,17.6867],[79.7911,17.7087],[79.8245,17.6951],[79.8215,17.7136],[79.8637,17.7195],[79.8691,17.7425],[79.8934,17.7303],[79.9037,17.7617],[79.8835,17.7794],[79.8755,17.8084],[79.9105,17.8136],[79.9155,17.799],[79.9387,17.8408],[79.9471,17.8356],[79.9528,17.8607],[79.9752,17.8614],[79.9943,17.8896],[79.9943,17.9171],[79.9767,17.9524],[79.9859,17.9538],[79.9939,18.0008],[79.9794,18.0203],[79.9813,18.0608],[79.992,18.1075],[80.0163,18.1152],[80.0274,18.1162],[80.0285,18.1162],[80.0445,18.1019],[80.0795,18.0705],[80.1449,18.0949],[80.1495,18.0838],[80.2199,18.0461],[80.2092,18.0238],[80.2203,18.0067],[80.2153,17.9949],[80.2401,17.9921],[80.2701,17.9471],[80.2705,17.9433],[80.2675,17.9287],[80.277,17.8812],[80.2477,17.8244],[80.2595,17.7502],[80.2484,17.7383],[80.2366,17.6553],[80.221,17.6609],[80.207,17.6529],[80.2096,17.6139],[80.2233,17.6062],[80.202,17.5581],[80.2283,17.5305],[80.2279,17.5047],[80.2165,17.4755],[80.2039,17.4744],[80.2001,17.487],[80.1959,17.4762],[80.2032,17.442],[80.17,17.4385],[80.1609,17.3768],[80.1438,17.3939],[80.1206,17.3827],[80.1084,17.3587],[80.086,17.367],[80.0742,17.351],[80.0525,17.3465],[79.9923,17.3642],[79.9916,17.3995],[79.9699,17.4064],[79.9368,17.3953],[79.9307,17.3663],[79.9033,17.3758],[79.8957,17.3566],[79.879,17.3534],[79.8755,17.3304],[79.8314,17.336],[79.8044,17.3252],[79.804,17.3238],[79.8036,17.3252],[79.793,17.3259],[79.796,17.3541],[79.7777,17.3691],[79.7968,17.3935],[79.7968,17.3939],[79.7621,17.4078],[79.753,17.4368],[79.7519,17.4399],[79.7347,17.4308],[79.7248,17.4329],[79.6997,17.4563],[79.6564,17.4709],[79.6556,17.4939],[79.6392,17.4863],[79.621,17.5002],[79.6035,17.4988],[79.5947,17.519],[79.5905,17.5288],[79.5947,17.4992],[79.5658,17.4974],[79.5414,17.527],[79.5395,17.5236]]]}},{"type":"Feature","properties":{"district":"Mahabubnagar","district_hi":"महबूबनगर"},"geometry":{"type":"Polygon","coordinates":[[[77.7511,16.4035],[77.7393,16.4662],[77.7686,16.4847],[77.7496,16.5666],[77.7785,16.5652],[77.7877,16.5743],[77.7812,16.6158],[77.7991,16.6165],[77.7979,16.6304],[77.7736,16.6548],[77.7648,16.6883],[77.7492,16.6935],[77.7534,16.7238],[77.7454,16.7395],[77.7268,16.7514],[77.6796,16.7566],[77.6743,16.7768],[77.6796,16.795],[77.7081,16.7831],[77.7112,16.7929],[77.7416,16.7932],[77.7294,16.811],[77.7439,16.8274],[77.7275,16.8504],[77.7462,16.9107],[77.7405,16.9382],[77.7302,16.9438],[77.7504,16.9529],[77.7603,17.0024],[77.8253,16.9871],[77.844,16.9919],[77.8379,16.9724],[77.8478,16.9515],[77.8634,16.9515],[77.8717,16.9682],[77.8843,16.9588],[77.8695,16.9274],[77.9147,16.9212],[77.93,16.9532],[77.9528,16.9497],[77.9711,16.971],[77.9863,16.9613],[77.9931,16.9644],[77.9958,16.9654],[77.9966,16.9658],[77.9992,16.9773],[77.9996,16.9797],[78.0106,16.9783],[78.0103,16.9836],[78.0099,17.001],[78.0255,17.0101],[78.0685,17.0055],[78.0921,16.9832],[78.0993,16.9832],[78.1023,16.9832],[78.1198,16.9829],[78.1271,16.9902],[78.1362,16.9996],[78.1495,17.0128],[78.1743,17.0083],[78.1861,16.9884],[78.1811,16.9735],[78.2195,16.9389],[78.2332,16.9403],[78.2405,16.9633],[78.2694,16.9647],[78.2755,16.9243],[78.2755,16.9233],[78.3017,16.9191],[78.2994,16.879],[78.3162,16.8744],[78.3284,16.8514],[78.323,16.8249],[78.3333,16.7978],[78.3489,16.7796],[78.3462,16.773],[78.3702,16.7507],[78.3504,16.7085],[78.3497,16.682],[78.2983,16.69],[78.2351,16.742],[78.2237,16.7413],[78.1982,16.7012],[78.1826,16.7036],[78.183,16.7308],[78.1636,16.7291],[78.1628,16.7287],[78.1404,16.6747],[78.1507,16.6479],[78.1301,16.6259],[78.1214,16.5928],[78.0768,16.6088],[78.0612,16.6234],[78.0411,16.6203],[78.0061,16.6088],[78.0004,16.5945],[77.9889,16.5924],[78.0042,16.568],[77.9981,16.5544],[78.0194,16.53],[77.9981,16.5311],[77.9821,16.5025],[77.9414,16.5004],[77.9163,16.4425],[77.8961,16.4512],[77.8638,16.4467],[77.8679,16.4265],[77.8234,16.4073],[77.7934,16.422],[77.7542,16.4213],[77.7618,16.3941],[77.7492,16.3878],[77.7511,16.4035]]]}},{"type":"Feature","properties":{"district":"Mancherial","district_hi":"मंचेरियल"},"geometry":{"type":"Polygon","coordinates":[[[79.3017,18.8166],[79.2869,18.8221],[79.2815,18.8228],[79.2785,18.8253],[79.2713,18.8281],[79.2374,18.8577],[79.1822,18.8685],[79.113,18.9396],[79.0856,19.0233],[79.0658,19.0494],[79.0224,19.0752],[79.0198,19.0756],[78.9475,19.0728],[78.9307,19.1185],[78.9136,19.1164],[78.9212,19.1063],[78.9029,19.0937],[78.8801,19.1132],[78.8881,19.1314],[78.8774,19.1603],[78.9212,19.1837],[78.9178,19.2014],[78.9528,19.2488],[78.9532,19.2488],[78.9547,19.2481],[78.9714,19.2321],[78.9916,19.2342],[78.9984,19.2203],[79.0061,19.2189],[79.0578,19.2088],[79.07,19.1871],[79.1046,19.1697],[79.1507,19.0927],[79.1956,19.0826],[79.226,19.0331],[79.2443,19.0299],[79.2671,19.0337],[79.277,19.1167],[79.3162,19.0923],[79.3265,19.1453],[79.3173,19.1634],[79.3481,19.1774],[79.3508,19.2105],[79.3394,19.2108],[79.3401,19.2213],[79.4079,19.2011],[79.4623,19.1718],[79.4779,19.1837],[79.4707,19.1875],[79.4806,19.2014],[79.5479,19.2021],[79.5239,19.2513],[79.5308,19.2572],[79.5045,19.2684],[79.5159,19.2921],[79.5171,19.2854],[79.5627,19.2827],[79.5498,19.2642],[79.5586,19.259],[79.6141,19.2764],[79.6229,19.2555],[79.6617,19.26],[79.6548,19.2408],[79.6624,19.2182],[79.6792,19.2255],[79.6761,19.199],[79.7096,19.2074],[79.734,19.1861],[79.756,19.1819],[79.7724,19.1899],[79.7873,19.184],[79.7834,19.162],[79.799,19.1516],[79.8542,19.1728],[79.9239,19.1652],[79.9311,19.1554],[79.8736,19.124],[79.8584,19.0958],[79.8717,19.0407],[79.9223,19.0498],[79.9379,19.0411],[79.9611,18.8647],[79.914,18.8263],[79.914,18.826],[79.8873,18.8263],[79.8729,18.8329],[79.8683,18.8354],[79.8668,18.8361],[79.8519,18.8654],[79.8459,18.8682],[79.8356,18.8675],[79.8325,18.864],[79.8249,18.8281],[79.8466,18.7943],[79.847,18.7939],[79.8177,18.758],[79.8242,18.7245],[79.8245,18.7242],[79.8204,18.72],[79.807,18.705],[79.8093,18.7029],[79.8025,18.7015],[79.7975,18.6963],[79.6796,18.6729],[79.6328,18.7298],[79.5327,18.7859],[79.5003,18.7901],[79.4806,18.8176],[79.4303,18.8476],[79.4083,18.8535],[79.3847,18.8542],[79.3774,18.8521],[79.3649,18.8389],[79.3459,18.8187],[79.344,18.8166],[79.3303,18.818],[79.3017,18.8166]]]}},{"type":"Feature","properties":{"district":"Medak","district_hi":"मेडक"},"geometry":{"type":"Polygon","coordinates":[[[77.8984,18.0918],[77.8999,18.0921],[77.93,18.0984],[77.9349,18.105],[77.9756,18.1148],[77.995,18.1068],[78.0007,18.0813],[78.0045,18.0876],[78.0144,18.0758],[78.0122,18.0901],[78.0293,18.0838],[78.0346,18.0643],[78.0453,18.0681],[78.0441,18.0796],[78.0715,18.0597],[78.0742,18.0723],[78.094,18.0684],[78.1065,18.0935],[78.1168,18.0726],[78.1431,18.0684],[78.1541,18.0859],[78.1796,18.0974],[78.1689,18.1674],[78.1807,18.2044],[78.207,18.217],[78.2074,18.217],[78.2173,18.2009],[78.2165,18.1755],[78.2275,18.1755],[78.2568,18.1396],[78.2778,18.143],[78.3139,18.179],[78.3128,18.2023],[78.3577,18.172],[78.3634,18.1469],[78.3744,18.1448],[78.3847,18.1235],[78.4121,18.1308],[78.433,18.1629],[78.4456,18.1451],[78.4418,18.1301],[78.4581,18.1207],[78.4798,18.126],[78.4916,18.1326],[78.4836,18.1483],[78.5023,18.1755],[78.516,18.1664],[78.5259,18.1835],[78.5312,18.1849],[78.5456,18.1831],[78.5669,18.1803],[78.5688,18.18],[78.5681,18.1831],[78.5688,18.1849],[78.5734,18.1807],[78.581,18.1633],[78.5666,18.1622],[78.546,18.1183],[78.5453,18.1172],[78.5456,18.1169],[78.5791,18.1068],[78.57,18.066],[78.5898,18.0555],[78.5822,18.0325],[78.5593,18.0461],[78.5316,17.951],[78.5418,17.9412],[78.5297,17.9248],[78.546,17.9151],[78.5243,17.8966],[78.5609,17.8704],[78.5392,17.8603],[78.5403,17.837],[78.5201,17.8066],[78.511,17.7554],[78.5266,17.7509],[78.5255,17.7285],[78.5061,17.7195],[78.5,17.6905],[78.4992,17.6857],[78.4943,17.6947],[78.4714,17.6902],[78.4501,17.7076],[78.4478,17.7045],[78.4501,17.7111],[78.4402,17.7268],[78.4163,17.7327],[78.3885,17.6996],[78.387,17.7],[78.3835,17.7021],[78.366,17.7251],[78.3607,17.7397],[78.3546,17.7401],[78.3356,17.7418],[78.3181,17.7435],[78.3181,17.7401],[78.3185,17.732],[78.32,17.6801],[78.2317,17.6916],[78.2317,17.6923],[78.2382,17.7052],[78.2264,17.7146],[78.2351,17.7352],[78.2013,17.7359],[78.2043,17.7652],[78.1963,17.7638],[78.1956,17.7732],[78.2039,17.8028],[78.1735,17.7885],[78.1632,17.7976],[78.1663,17.814],[78.1876,17.8307],[78.1491,17.8059],[78.1484,17.8363],[78.1149,17.8038],[78.1077,17.8084],[78.1001,17.8154],[78.0947,17.86],[78.0943,17.8603],[78.0734,17.869],[78.0791,17.9053],[78.0681,17.9224],[78.0658,17.9217],[78.0464,17.914],[78.0475,17.8927],[78.0346,17.8785],[78.0163,17.8893],[77.9741,17.8823],[77.9741,17.8907],[77.9368,17.8896],[77.9315,17.9004],[77.9406,17.9189],[77.9288,17.9318],[77.9147,17.9241],[77.8813,17.9342],[77.8797,17.9478],[77.8603,17.9346],[77.8451,17.9022],[77.8223,17.9032],[77.8211,17.9273],[77.82,17.9269],[77.7949,17.9245],[77.809,17.959],[77.8215,17.9579],[77.8219,17.9583],[77.8253,17.9869],[77.8657,18.0228],[77.8512,18.073],[77.8881,18.0705],[77.8984,18.0918]]]}},{"type":"Feature","properties":{"district":"Medchal Malkajgiri","district_hi":"मेडचल मलकाजगिरि"},"geometry":{"type":"Polygon","coordinates":[[[78.5285,17.374],[78.5278,17.374],[78.5232,17.3984],[78.5224,17.4022],[78.5224,17.4026],[78.5342,17.405],[78.5262,17.4221],[78.5491,17.4375],[78.5179,17.4406],[78.5224,17.4824],[78.5004,17.4831],[78.5049,17.4685],[78.4855,17.4563],[78.476,17.4636],[78.4771,17.4807],[78.4756,17.48],[78.4619,17.4573],[78.4558,17.4472],[78.4539,17.4448],[78.4216,17.4465],[78.4094,17.442],[78.4068,17.4385],[78.3988,17.4479],[78.3733,17.4779],[78.382,17.5089],[78.3714,17.519],[78.3478,17.5225],[78.3478,17.5239],[78.3615,17.5497],[78.355,17.5619],[78.3771,17.5633],[78.3801,17.571],[78.3885,17.595],[78.39,17.5989],[78.3714,17.6149],[78.3908,17.6215],[78.3813,17.6424],[78.3953,17.6759],[78.4212,17.6717],[78.4456,17.6982],[78.4478,17.7045],[78.4501,17.7076],[78.4714,17.6902],[78.4943,17.6947],[78.4992,17.6857],[78.5087,17.6836],[78.519,17.7021],[78.5616,17.6839],[78.5928,17.6968],[78.6168,17.6721],[78.6339,17.6689],[78.6693,17.6982],[78.718,17.6738],[78.7237,17.6682],[78.7112,17.64],[78.6853,17.6219],[78.702,17.6114],[78.6864,17.595],[78.6914,17.5846],[78.6765,17.5759],[78.7055,17.5577],[78.6948,17.5515],[78.7123,17.5208],[78.7093,17.4762],[78.7169,17.4681],[78.7515,17.4713],[78.7606,17.4605],[78.7511,17.4382],[78.7595,17.427],[78.7549,17.4047],[78.7401,17.3967],[78.7389,17.396],[78.7374,17.3862],[78.7096,17.3967],[78.6876,17.405],[78.6872,17.4047],[78.6621,17.3782],[78.5791,17.3897],[78.5723,17.3778],[78.5814,17.3639],[78.5571,17.3611],[78.5498,17.3726],[78.5285,17.374]]]}},{"type":"Feature","properties":{"district":"Nagarkurnool","district_hi":"नागरकर्नूल"},"geometry":{"type":"Polygon","coordinates":[[[78.3489,16.7796],[78.355,16.7964],[78.3892,16.7838],[78.398,16.7988],[78.4132,16.7981],[78.4345,16.7782],[78.465,16.774],[78.4829,16.8211],[78.5376,16.8215],[78.616,16.7943],[78.616,16.7838],[78.6332,16.7765],[78.6663,16.8033],[78.6666,16.8323],[78.672,16.8277],[78.6731,16.8239],[78.683,16.7887],[78.6526,16.7671],[78.6963,16.7657],[78.6963,16.7598],[78.7287,16.7545],[78.7386,16.7573],[78.7545,16.7514],[78.7545,16.7503],[78.7572,16.7409],[78.7557,16.7061],[78.7408,16.7068],[78.71,16.6782],[78.7134,16.6506],[78.6674,16.6517],[78.68,16.6241],[78.6986,16.6189],[78.7161,16.582],[78.6621,16.5464],[78.6723,16.5293],[78.7245,16.5394],[78.7652,16.5335],[78.8006,16.514],[78.8558,16.5509],[78.8698,16.5436],[78.9098,16.5509],[78.9395,16.5105],[79.0464,16.4586],[79.0917,16.4216],[79.1518,16.3996],[79.1537,16.3826],[79.1548,16.3815],[79.1571,16.3798],[79.172,16.3679],[79.1826,16.3648],[79.1956,16.3609],[79.2108,16.3561],[79.2108,16.3564],[79.234,16.3358],[79.2195,16.232],[79.1586,16.2093],[79.1198,16.232],[79.1016,16.2229],[79.0095,16.2403],[78.9859,16.2107],[78.9604,16.2089],[78.9048,16.1828],[78.9242,16.1357],[78.9204,16.1019],[78.8892,16.0848],[78.8729,16.1434],[78.8348,16.1452],[78.8371,16.0706],[78.7907,16.0235],[78.7408,16.0088],[78.6811,16.035],[78.6503,16.0789],[78.621,16.088],[78.6016,16.0838],[78.5517,16.0427],[78.4749,16.0685],[78.4079,16.0747],[78.3653,16.0468],[78.3265,16.0367],[78.3162,16.013],[78.2637,16.027],[78.2564,16.0085],[78.2294,16.0012],[78.2131,16.0106],[78.218,16.0298],[78.1899,16.042],[78.2024,16.0542],[78.1762,16.0678],[78.1784,16.0845],[78.1925,16.0803],[78.2157,16.095],[78.2062,16.1072],[78.2271,16.1748],[78.2093,16.18],[78.2112,16.2009],[78.1967,16.2086],[78.199,16.2598],[78.1644,16.2672],[78.1628,16.2961],[78.1899,16.3219],[78.2135,16.3216],[78.2211,16.3038],[78.2542,16.2881],[78.2637,16.3327],[78.293,16.3261],[78.3143,16.3798],[78.2469,16.4157],[78.2013,16.4094],[78.2009,16.4471],[78.148,16.4561],[78.1001,16.4871],[78.1225,16.5523],[78.116,16.5729],[78.1214,16.5928],[78.1301,16.6259],[78.1507,16.6479],[78.1404,16.6747],[78.1628,16.7287],[78.1636,16.7291],[78.183,16.7308],[78.1826,16.7036],[78.1982,16.7012],[78.2237,16.7413],[78.2351,16.742],[78.2983,16.69],[78.3497,16.682],[78.3504,16.7085],[78.3702,16.7507],[78.3462,16.773],[78.3489,16.7796]]]}},{"type":"Feature","properties":{"district":"Nalgonda","district_hi":"नलगोंडा"},"geometry":{"type":"Polygon","coordinates":[[[79.374,17.3437],[79.4478,17.3465],[79.4505,17.3451],[79.4741,17.3315],[79.4749,17.3308],[79.4749,17.3304],[79.4973,17.2625],[79.4939,17.2335],[79.5198,17.2332],[79.5255,17.1861],[79.592,17.0836],[79.6156,16.9843],[79.6168,16.9236],[79.6682,16.8413],[79.6682,16.7333],[79.6997,16.7186],[79.635,16.6611],[79.5989,16.6733],[79.5422,16.6322],[79.5038,16.636],[79.4832,16.6231],[79.4505,16.621],[79.4185,16.5802],[79.3401,16.5827],[79.2911,16.5617],[79.2568,16.5659],[79.2446,16.5318],[79.2271,16.5237],[79.2169,16.4993],[79.2157,16.4802],[79.2332,16.4593],[79.2115,16.4474],[79.2108,16.3564],[79.2108,16.3561],[79.1956,16.3609],[79.1826,16.3648],[79.172,16.3679],[79.1571,16.3798],[79.1548,16.3815],[79.1537,16.3826],[79.1518,16.3996],[79.0917,16.4216],[79.0464,16.4586],[78.9395,16.5105],[78.9098,16.5509],[78.8698,16.5436],[78.8558,16.5509],[78.8006,16.514],[78.7652,16.5335],[78.7245,16.5394],[78.6723,16.5293],[78.6621,16.5464],[78.7161,16.582],[78.6986,16.6189],[78.68,16.6241],[78.6674,16.6517],[78.7134,16.6506],[78.71,16.6782],[78.7408,16.7068],[78.7557,16.7061],[78.7572,16.7409],[78.7545,16.7503],[78.7808,16.7462],[78.8021,16.8263],[78.7758,16.8438],[78.7808,16.8682],[78.772,16.8825],[78.75,16.8546],[78.7309,16.8643],[78.7302,16.8643],[78.7294,16.8807],[78.729,16.8943],[78.729,16.895],[78.7454,16.9149],[78.6959,16.9355],[78.6967,16.9386],[78.6971,16.9407],[78.702,16.9647],[78.7062,16.9651],[78.7564,16.9696],[78.7538,16.9843],[78.7568,16.9836],[78.7892,16.9762],[78.7991,16.9996],[78.8162,17.0006],[78.8249,17.0195],[78.7766,17.0317],[78.7774,17.0324],[78.7827,17.0404],[78.7884,17.039],[78.8219,17.0303],[78.8341,17.0366],[78.8413,17.0714],[78.8417,17.0739],[78.8828,17.0491],[78.8911,17.0442],[78.8942,17.0515],[78.9022,17.0787],[78.9094,17.0857],[78.9132,17.0892],[78.9151,17.0906],[78.9284,17.0812],[78.9513,17.1321],[78.9733,17.1289],[78.9927,17.1554],[78.9574,17.199],[78.9737,17.2147],[78.9867,17.2506],[78.9817,17.2795],[79.1035,17.2426],[79.1172,17.2778],[79.1556,17.2813],[79.1567,17.2597],[79.1781,17.2516],[79.1841,17.2733],[79.2051,17.2621],[79.2195,17.3137],[79.2481,17.3154],[79.2507,17.3587],[79.2602,17.3601],[79.2956,17.3597],[79.3284,17.3594],[79.3322,17.3594],[79.374,17.3437]]]}},{"type":"Feature","properties":{"district":"Nirmal","district_hi":"निर्माला"},"geometry":{"type":"Polygon","coordinates":[[[78.1956,19.3147],[78.1975,19.3092],[78.2017,19.3092],[78.2302,19.3088],[78.2667,19.2844],[78.2755,19.2659],[78.2994,19.2593],[78.3173,19.2157],[78.3181,19.2154],[78.363,19.1997],[78.3695,19.1823],[78.3885,19.176],[78.3969,19.1763],[78.4334,19.1781],[78.4486,19.1788],[78.4486,19.1802],[78.4566,19.2269],[78.5095,19.2147],[78.5217,19.2506],[78.5704,19.2865],[78.5879,19.2879],[78.6153,19.261],[78.675,19.3161],[78.7226,19.3266],[78.7199,19.2966],[78.7587,19.2781],[78.7998,19.214],[78.8002,19.2143],[78.801,19.2147],[78.812,19.2217],[78.8196,19.2468],[78.847,19.2617],[78.8489,19.2628],[78.8497,19.2677],[78.8539,19.2781],[78.8558,19.2785],[78.8854,19.2729],[78.8938,19.29],[78.9418,19.2523],[78.9528,19.2488],[78.9178,19.2014],[78.9212,19.1837],[78.8774,19.1603],[78.8881,19.1314],[78.8801,19.1132],[78.9029,19.0937],[78.9212,19.1063],[78.9136,19.1164],[78.9307,19.1185],[78.9475,19.0728],[78.914,19.0306],[78.8447,19.0704],[78.8211,19.0491],[78.7789,19.0376],[78.7621,19.0114],[78.6944,19.032],[78.6853,19.0264],[78.6362,18.978],[78.6065,18.9856],[78.5886,19.0055],[78.5567,18.9776],[78.5544,18.9707],[78.5468,18.9459],[78.5468,18.9456],[78.5456,18.9459],[78.535,18.9476],[78.5083,18.9724],[78.457,18.9557],[78.4262,18.9769],[78.4102,19.0038],[78.371,18.9961],[78.3139,18.9515],[78.285,18.9424],[78.277,18.9529],[78.2797,18.9888],[78.2789,18.9895],[78.2686,18.9964],[78.2412,19.0163],[78.2389,19.0156],[78.1674,18.9975],[78.1495,18.9675],[78.1134,18.9612],[78.0898,18.9403],[78.0525,18.94],[78.0377,18.8776],[78.0099,18.8842],[77.9939,18.8793],[77.9756,18.8737],[77.9711,18.8727],[77.9703,18.8716],[77.9684,18.8706],[77.949,18.8434],[77.9349,18.8452],[77.93,18.8587],[77.9033,18.8668],[77.9041,18.8814],[77.8915,18.8814],[77.8854,18.9041],[77.8432,18.9086],[77.8584,18.949],[77.8192,18.9459],[77.8219,18.9787],[77.7717,18.979],[77.7755,19.0006],[77.7618,19.0331],[77.7648,19.0627],[77.8002,19.0512],[77.7968,19.0724],[77.8101,19.1049],[77.8314,19.086],[77.8504,19.0885],[77.8478,19.116],[77.8341,19.1341],[77.8603,19.1805],[77.8478,19.1896],[77.8714,19.2551],[77.903,19.2565],[77.9075,19.2684],[77.9033,19.2781],[77.8657,19.2837],[77.8634,19.3043],[77.8942,19.3203],[77.9117,19.3161],[77.944,19.3426],[78.0137,19.2949],[78.0148,19.2792],[78.0426,19.2705],[78.0361,19.2506],[78.0555,19.237],[78.0791,19.2548],[78.089,19.2394],[78.1172,19.2485],[78.1446,19.2293],[78.1754,19.2377],[78.1765,19.2785],[78.1933,19.3172],[78.1956,19.3147]]]}},{"type":"Feature","properties":{"district":"Nizamabad","district_hi":"निज़ामाबाद"},"geometry":{"type":"Polygon","coordinates":[[[78.535,18.9476],[78.5369,18.9459],[78.5335,18.9438],[78.5274,18.9396],[78.5141,18.8922],[78.5361,18.8842],[78.5434,18.8598],[78.5418,18.8152],[78.551,18.8134],[78.5635,18.7789],[78.5529,18.7427],[78.5711,18.7381],[78.5818,18.7228],[78.6149,18.7301],[78.637,18.7214],[78.6396,18.7203],[78.6316,18.6775],[78.6701,18.6234],[78.6541,18.5962],[78.6141,18.59],[78.6001,18.5739],[78.5974,18.5509],[78.5974,18.5506],[78.5841,18.5513],[78.5601,18.5523],[78.5696,18.5439],[78.5536,18.5307],[78.5517,18.5042],[78.5319,18.4711],[78.5308,18.4676],[78.53,18.4655],[78.492,18.4376],[78.4692,18.446],[78.4452,18.4833],[78.4246,18.4749],[78.3988,18.4819],[78.3828,18.4537],[78.3295,18.4669],[78.3074,18.454],[78.2717,18.453],[78.2652,18.453],[78.2599,18.4526],[78.2587,18.4561],[78.25,18.4864],[78.1921,18.5087],[78.1598,18.4774],[78.1058,18.4917],[78.1035,18.5042],[78.0761,18.5147],[78.07,18.5084],[78.0396,18.5178],[78.038,18.4648],[78.0221,18.4362],[77.9749,18.4463],[77.9817,18.4592],[77.9749,18.4704],[77.9376,18.4913],[77.8893,18.4924],[77.8649,18.508],[77.7896,18.4972],[77.7785,18.5056],[77.7568,18.5025],[77.7614,18.5255],[77.737,18.5638],[77.7504,18.5893],[77.7298,18.667],[77.761,18.7071],[77.7873,18.6827],[77.8402,18.8047],[77.9068,18.8267],[77.9433,18.8249],[77.9703,18.8716],[77.9711,18.8727],[77.9756,18.8737],[77.9939,18.8793],[78.0099,18.8842],[78.0377,18.8776],[78.0525,18.94],[78.0898,18.9403],[78.1134,18.9612],[78.1495,18.9675],[78.1674,18.9975],[78.2389,19.0156],[78.2412,19.0163],[78.2686,18.9964],[78.2789,18.9895],[78.2797,18.9888],[78.277,18.9529],[78.285,18.9424],[78.3139,18.9515],[78.371,18.9961],[78.4102,19.0038],[78.4262,18.9769],[78.457,18.9557],[78.5083,18.9724],[78.535,18.9476]]]}},{"type":"Feature","properties":{"district":"Peddapalli","district_hi":"पेद्दापल्ली"},"geometry":{"type":"Polygon","coordinates":[[[79.1103,18.6604],[79.1255,18.6837],[79.1122,18.7102],[79.1301,18.7088],[79.1503,18.7256],[79.1628,18.7556],[79.2279,18.7496],[79.2302,18.7493],[79.2344,18.7524],[79.2618,18.7723],[79.2705,18.7789],[79.2709,18.7827],[79.2827,18.7956],[79.296,18.8012],[79.3017,18.8166],[79.3303,18.818],[79.344,18.8166],[79.3459,18.8187],[79.3649,18.8389],[79.3774,18.8521],[79.3847,18.8542],[79.4083,18.8535],[79.4303,18.8476],[79.4806,18.8176],[79.5003,18.7901],[79.5327,18.7859],[79.6328,18.7298],[79.6796,18.6729],[79.7975,18.6963],[79.8025,18.7015],[79.8093,18.7029],[79.8306,18.6806],[79.8306,18.6555],[79.804,18.6213],[79.7914,18.5732],[79.7248,18.5736],[79.7119,18.5607],[79.7058,18.5206],[79.6701,18.4802],[79.6423,18.4756],[79.6229,18.4864],[79.6122,18.4638],[79.6027,18.4746],[79.5989,18.4714],[79.5955,18.4683],[79.5879,18.462],[79.5901,18.4523],[79.5882,18.4477],[79.5783,18.4366],[79.5669,18.424],[79.5555,18.4157],[79.5468,18.4076],[79.5422,18.4062],[79.5011,18.3916],[79.4855,18.386],[79.4832,18.3871],[79.3729,18.4355],[79.3063,18.4805],[79.2819,18.4802],[79.2366,18.4477],[79.2157,18.492],[79.2153,18.5349],[79.2298,18.567],[79.2054,18.5778],[79.2043,18.5952],[79.1849,18.6105],[79.1758,18.6541],[79.1476,18.628],[79.1149,18.6227],[79.1111,18.622],[79.1137,18.6332],[79.1103,18.6604]]]}},{"type":"Feature","properties":{"district":"Rajanna Sircilla","district_hi":"राजन्ना सिरसिल्ला"},"geometry":{"type":"Polygon","coordinates":[[[78.6701,18.6234],[78.7055,18.6409],[78.7545,18.6304],[78.7606,18.6189],[78.7914,18.621],[78.8508,18.5882],[78.8934,18.5969],[78.9029,18.5499],[78.9144,18.5715],[78.9246,18.5677],[78.9273,18.567],[78.9288,18.5663],[78.9391,18.5837],[78.957,18.5767],[78.949,18.5541],[78.9608,18.5363],[78.9539,18.5129],[78.9227,18.4756],[78.9235,18.4749],[78.9478,18.4439],[78.9874,18.462],[78.9916,18.4411],[78.9783,18.4422],[78.9741,18.4275],[78.9969,18.4],[79.0182,18.3996],[79.0053,18.3867],[79.0083,18.3839],[79.0247,18.3662],[79.0114,18.3456],[79.019,18.317],[79.0163,18.3132],[79.0118,18.31],[78.9912,18.301],[78.9908,18.2936],[78.9889,18.2598],[78.9147,18.2556],[78.89,18.2393],[78.8558,18.2347],[78.8284,18.2532],[78.769,18.2626],[78.75,18.2211],[78.729,18.2152],[78.7275,18.2152],[78.7249,18.2201],[78.7271,18.2267],[78.7184,18.2319],[78.6902,18.2299],[78.6419,18.2563],[78.6415,18.256],[78.6278,18.2466],[78.5886,18.2487],[78.5677,18.2225],[78.5673,18.2229],[78.5677,18.2232],[78.5532,18.2581],[78.5529,18.2584],[78.527,18.2752],[78.5213,18.2787],[78.5411,18.2999],[78.5373,18.3177],[78.5494,18.3365],[78.5335,18.3606],[78.5316,18.3874],[78.565,18.3906],[78.5418,18.4125],[78.554,18.431],[78.5437,18.4585],[78.5434,18.4596],[78.5399,18.4613],[78.53,18.4655],[78.5308,18.4676],[78.5319,18.4711],[78.5517,18.5042],[78.5536,18.5307],[78.5696,18.5439],[78.5601,18.5523],[78.5841,18.5513],[78.5974,18.5506],[78.5974,18.5509],[78.6001,18.5739],[78.6141,18.59],[78.6541,18.5962],[78.6701,18.6234]]]}},{"type":"Feature","properties":{"district":"Ranga Reddy","district_hi":"रंगा रेड्डी"},"geometry":{"type":"Polygon","coordinates":[[[78.218,17.4385],[78.2473,17.4284],[78.288,17.4312],[78.3017,17.4608],[78.2979,17.4908],[78.3177,17.4946],[78.3074,17.51],[78.3371,17.5037],[78.3478,17.5225],[78.3714,17.519],[78.382,17.5089],[78.3733,17.4779],[78.3988,17.4479],[78.4068,17.4385],[78.4098,17.435],[78.395,17.4232],[78.4041,17.4078],[78.3927,17.4019],[78.395,17.3862],[78.3695,17.3775],[78.4284,17.3726],[78.4269,17.3601],[78.4421,17.3489],[78.4273,17.351],[78.4235,17.3405],[78.4471,17.3266],[78.4517,17.3238],[78.4547,17.3158],[78.4642,17.3022],[78.4771,17.3175],[78.5072,17.3186],[78.5061,17.3489],[78.5068,17.3486],[78.5319,17.3458],[78.5407,17.3716],[78.5293,17.3716],[78.5285,17.374],[78.5498,17.3726],[78.5571,17.3611],[78.5814,17.3639],[78.5723,17.3778],[78.5791,17.3897],[78.6621,17.3782],[78.6872,17.4047],[78.6876,17.405],[78.7096,17.3967],[78.7374,17.3862],[78.7325,17.3541],[78.7161,17.359],[78.707,17.3465],[78.7199,17.3283],[78.7534,17.3294],[78.7621,17.3036],[78.7412,17.2959],[78.7534,17.2611],[78.8192,17.2321],[78.8188,17.229],[78.8162,17.2123],[78.7979,17.2028],[78.7591,17.214],[78.7892,17.1648],[78.7755,17.1516],[78.7758,17.1512],[78.8329,17.1129],[78.8333,17.1035],[78.8192,17.1091],[78.8154,17.0962],[78.8413,17.0714],[78.8341,17.0366],[78.8219,17.0303],[78.7884,17.039],[78.7827,17.0404],[78.7774,17.0324],[78.7766,17.0317],[78.8249,17.0195],[78.8162,17.0006],[78.7991,16.9996],[78.7892,16.9762],[78.7568,16.9836],[78.7538,16.9843],[78.7564,16.9696],[78.7062,16.9651],[78.702,16.9647],[78.6971,16.9407],[78.6967,16.9386],[78.6959,16.9355],[78.7454,16.9149],[78.729,16.895],[78.729,16.8943],[78.7294,16.8807],[78.7302,16.8643],[78.7309,16.8643],[78.75,16.8546],[78.772,16.8825],[78.7808,16.8682],[78.7758,16.8438],[78.8021,16.8263],[78.7808,16.7462],[78.7545,16.7503],[78.7545,16.7514],[78.7386,16.7573],[78.7287,16.7545],[78.6963,16.7598],[78.6963,16.7657],[78.6526,16.7671],[78.683,16.7887],[78.6731,16.8239],[78.672,16.8277],[78.6666,16.8323],[78.6663,16.8033],[78.6332,16.7765],[78.616,16.7838],[78.616,16.7943],[78.5376,16.8215],[78.4829,16.8211],[78.465,16.774],[78.4345,16.7782],[78.4132,16.7981],[78.398,16.7988],[78.3892,16.7838],[78.355,16.7964],[78.3489,16.7796],[78.3333,16.7978],[78.323,16.8249],[78.3284,16.8514],[78.3162,16.8744],[78.2994,16.879],[78.3017,16.9191],[78.2755,16.9233],[78.2755,16.9243],[78.2694,16.9647],[78.2405,16.9633],[78.2332,16.9403],[78.2195,16.9389],[78.1811,16.9735],[78.1861,16.9884],[78.1743,17.0083],[78.1495,17.0128],[78.1362,16.9996],[78.1271,16.9902],[78.1198,16.9829],[78.1023,16.9832],[78.0993,16.9832],[78.0921,16.9832],[78.0685,17.0055],[78.0255,17.0101],[78.0099,17.001],[78.0103,16.9836],[78.0106,16.9783],[77.9996,16.9797],[77.9783,17.0101],[77.9349,17.0282],[77.9227,17.0634],[77.9452,17.078],[77.9338,17.0854],[77.9345,17.0857],[77.9342,17.0861],[77.9543,17.0993],[77.9901,17.1035],[77.9916,17.1282],[78.0163,17.1655],[78.0441,17.1687],[78.0468,17.2084],[78.0639,17.2109],[78.0696,17.2307],[78.051,17.2353],[78.0593,17.2513],[78.0434,17.275],[78.0472,17.2952],[78.0148,17.312],[78.0053,17.328],[78.0076,17.3322],[78.0129,17.3419],[78.0186,17.3524],[78.0514,17.412],[78.0715,17.4134],[78.0715,17.4158],[78.0647,17.4423],[78.0631,17.449],[78.0628,17.45],[78.0704,17.4559],[78.0498,17.4758],[78.0711,17.496],[78.0582,17.5089],[78.0711,17.5183],[78.0822,17.5166],[78.0837,17.4911],[78.1054,17.4901],[78.1111,17.4796],[78.1453,17.4842],[78.145,17.4678],[78.1644,17.4629],[78.1899,17.4758],[78.1914,17.487],[78.2138,17.4859],[78.218,17.4385]]]}},{"type":"Feature","properties":{"district":"Sangareddy","district_hi":"संगारेड्डी"},"geometry":{"type":"Polygon","coordinates":[[[77.8984,18.0918],[77.8881,18.0705],[77.8512,18.073],[77.8657,18.0228],[77.8253,17.9869],[77.8219,17.9583],[77.8215,17.9579],[77.809,17.959],[77.7949,17.9245],[77.82,17.9269],[77.8211,17.9273],[77.8223,17.9032],[77.8451,17.9022],[77.8603,17.9346],[77.8797,17.9478],[77.8813,17.9342],[77.9147,17.9241],[77.9288,17.9318],[77.9406,17.9189],[77.9315,17.9004],[77.9368,17.8896],[77.9741,17.8907],[77.9741,17.8823],[78.0163,17.8893],[78.0346,17.8785],[78.0475,17.8927],[78.0464,17.914],[78.0658,17.9217],[78.0681,17.9224],[78.0791,17.9053],[78.0734,17.869],[78.0943,17.8603],[78.0947,17.86],[78.1001,17.8154],[78.1077,17.8084],[78.1149,17.8038],[78.1484,17.8363],[78.1491,17.8059],[78.1876,17.8307],[78.1663,17.814],[78.1632,17.7976],[78.1735,17.7885],[78.2039,17.8028],[78.1956,17.7732],[78.1963,17.7638],[78.2043,17.7652],[78.2013,17.7359],[78.2351,17.7352],[78.2264,17.7146],[78.2382,17.7052],[78.2317,17.6923],[78.2317,17.6916],[78.32,17.6801],[78.3185,17.732],[78.3181,17.7401],[78.3181,17.7435],[78.3356,17.7418],[78.3546,17.7401],[78.3607,17.7397],[78.366,17.7251],[78.3835,17.7021],[78.387,17.7],[78.3885,17.6996],[78.4163,17.7327],[78.4402,17.7268],[78.4501,17.7111],[78.4478,17.7045],[78.4456,17.6982],[78.4212,17.6717],[78.3953,17.6759],[78.3813,17.6424],[78.3908,17.6215],[78.3714,17.6149],[78.39,17.5989],[78.3885,17.595],[78.3801,17.571],[78.3771,17.5633],[78.355,17.5619],[78.3615,17.5497],[78.3478,17.5239],[78.3478,17.5225],[78.3371,17.5037],[78.3074,17.51],[78.3177,17.4946],[78.2979,17.4908],[78.3017,17.4608],[78.288,17.4312],[78.2473,17.4284],[78.218,17.4385],[78.2138,17.4859],[78.1914,17.487],[78.1899,17.4758],[78.1644,17.4629],[78.145,17.4678],[78.1453,17.4842],[78.1111,17.4796],[78.1054,17.4901],[78.0837,17.4911],[78.0822,17.5166],[78.0711,17.5183],[78.0582,17.5089],[78.0711,17.496],[78.0498,17.4758],[78.0704,17.4559],[78.0628,17.45],[78.0631,17.449],[78.0628,17.4486],[78.0407,17.4577],[78.0403,17.4713],[78.0224,17.465],[78.0042,17.4751],[78.008,17.496],[77.9912,17.5068],[77.981,17.4838],[77.9646,17.4845],[77.9741,17.518],[77.9733,17.5197],[77.9654,17.5309],[77.9368,17.5389],[77.93,17.5692],[77.8729,17.5825],[77.8676,17.6194],[77.8527,17.6083],[77.823,17.632],[77.7998,17.625],[77.7964,17.6278],[77.7835,17.6386],[77.7762,17.6268],[77.7466,17.624],[77.7743,17.601],[77.7614,17.5581],[77.7097,17.5257],[77.6906,17.5264],[77.6834,17.5082],[77.6621,17.5229],[77.597,17.5344],[77.594,17.5644],[77.5506,17.5518],[77.5377,17.5755],[77.5285,17.5755],[77.5068,17.5424],[77.4943,17.5682],[77.4433,17.5839],[77.4558,17.6323],[77.4482,17.6512],[77.4524,17.6947],[77.5221,17.7261],[77.546,17.7268],[77.5685,17.7488],[77.5692,17.7665],[77.5548,17.7641],[77.5377,17.7798],[77.5065,17.7861],[77.5289,17.8129],[77.5281,17.8279],[77.554,17.8202],[77.5765,17.8753],[77.5993,17.8732],[77.586,17.9077],[77.6191,17.9039],[77.6187,17.9395],[77.6324,17.9468],[77.6244,17.9597],[77.6332,17.9673],[77.6374,17.9524],[77.6495,17.9499],[77.656,17.9684],[77.6488,17.9987],[77.6278,17.9966],[77.6062,18.0203],[77.5886,18.0123],[77.5807,18.0315],[77.554,18.0357],[77.5476,18.0562],[77.5658,18.0768],[77.597,18.0866],[77.6016,18.1057],[77.597,18.1559],[77.5814,18.1622],[77.5635,18.1953],[77.5852,18.2197],[77.5719,18.2441],[77.6004,18.2755],[77.6008,18.2759],[77.6419,18.286],[77.6651,18.2835],[77.6876,18.2602],[77.7222,18.2584],[77.7226,18.2584],[77.7226,18.2581],[77.7279,18.2333],[77.7435,18.2243],[77.742,18.2051],[77.7584,18.2051],[77.7698,18.188],[77.7964,18.2048],[77.8268,18.1939],[77.8539,18.2072],[77.8542,18.2075],[77.8687,18.1891],[77.9037,18.1922],[77.8946,18.1566],[77.9026,18.1444],[77.9147,18.141],[77.9281,18.1556],[77.9357,18.1493],[77.9353,18.1493],[77.9189,18.1364],[77.9235,18.1281],[77.909,18.1242],[77.9296,18.1159],[77.9269,18.104],[77.9056,18.1057],[77.9045,18.104],[77.8984,18.0918]]]}},{"type":"Feature","properties":{"district":"Siddipet","district_hi":"सिद्दिपेट"},"geometry":{"type":"Polygon","coordinates":[[[79.229,17.9914],[79.2039,17.9973],[79.1533,17.9921],[79.1389,17.9782],[79.1438,17.966],[79.1316,17.9468],[79.1023,17.9144],[79.1244,17.9022],[79.0921,17.8732],[79.065,17.8736],[79.0437,17.861],[79.0392,17.8722],[79.0201,17.876],[78.9988,17.845],[78.9585,17.8711],[78.9345,17.8767],[78.9281,17.875],[78.9212,17.8649],[78.9223,17.8366],[78.8889,17.8415],[78.8676,17.8251],[78.8596,17.7509],[78.8413,17.7526],[78.8215,17.7394],[78.8154,17.7021],[78.7819,17.7111],[78.7884,17.7017],[78.7766,17.6916],[78.7348,17.6731],[78.7298,17.6679],[78.7268,17.6693],[78.7237,17.6682],[78.718,17.6738],[78.6693,17.6982],[78.6339,17.6689],[78.6168,17.6721],[78.5928,17.6968],[78.5616,17.6839],[78.519,17.7021],[78.5087,17.6836],[78.4992,17.6857],[78.5,17.6905],[78.5061,17.7195],[78.5255,17.7285],[78.5266,17.7509],[78.511,17.7554],[78.5201,17.8066],[78.5403,17.837],[78.5392,17.8603],[78.5609,17.8704],[78.5243,17.8966],[78.546,17.9151],[78.5297,17.9248],[78.5418,17.9412],[78.5316,17.951],[78.5593,18.0461],[78.5822,18.0325],[78.5898,18.0555],[78.57,18.066],[78.5791,18.1068],[78.5456,18.1169],[78.5453,18.1172],[78.546,18.1183],[78.5666,18.1622],[78.581,18.1633],[78.5734,18.1807],[78.5688,18.1849],[78.5681,18.1831],[78.5612,18.2072],[78.5616,18.2082],[78.5673,18.2229],[78.5677,18.2225],[78.5886,18.2487],[78.6278,18.2466],[78.6415,18.256],[78.6419,18.2563],[78.6902,18.2299],[78.7184,18.2319],[78.7271,18.2267],[78.7249,18.2201],[78.7275,18.2152],[78.729,18.2152],[78.75,18.2211],[78.769,18.2626],[78.8284,18.2532],[78.8558,18.2347],[78.89,18.2393],[78.9147,18.2556],[78.9889,18.2598],[78.9908,18.2936],[78.9912,18.301],[79.0118,18.31],[79.0163,18.3132],[79.019,18.317],[79.0327,18.3372],[79.0373,18.3438],[79.054,18.3428],[79.0593,18.3425],[79.0597,18.3425],[79.0719,18.3163],[79.0609,18.2936],[79.0628,18.2919],[79.0723,18.2853],[79.1149,18.2905],[79.1335,18.2713],[79.1202,18.2553],[79.1233,18.2431],[79.1084,18.2372],[79.108,18.2215],[79.1373,18.2061],[79.1457,18.1709],[79.1624,18.1573],[79.1879,18.1702],[79.2123,18.1615],[79.2108,18.1748],[79.2446,18.1842],[79.2507,18.1542],[79.2888,18.1514],[79.2907,18.1511],[79.301,18.1305],[79.3013,18.1301],[79.2937,18.1239],[79.2911,18.0894],[79.2835,18.0751],[79.2819,18.0657],[79.2618,18.0346],[79.2606,18.0029],[79.2302,17.9998],[79.229,17.9914]]]}},{"type":"Feature","properties":{"district":"Suryapet","district_hi":"सूर्यापेट"},"geometry":{"type":"Polygon","coordinates":[[[79.3698,17.4824],[79.366,17.4863],[79.3645,17.4939],[79.363,17.5009],[79.3759,17.5079],[79.3809,17.5103],[79.3831,17.5117],[79.4124,17.4985],[79.4303,17.5166],[79.4726,17.5145],[79.5217,17.4946],[79.5395,17.5236],[79.5414,17.527],[79.5658,17.4974],[79.5947,17.4992],[79.5905,17.5288],[79.5947,17.519],[79.6035,17.4988],[79.621,17.5002],[79.6392,17.4863],[79.6556,17.4939],[79.6564,17.4709],[79.6997,17.4563],[79.7248,17.4329],[79.7347,17.4308],[79.7519,17.4399],[79.753,17.4368],[79.7621,17.4078],[79.7968,17.3939],[79.7968,17.3935],[79.7777,17.3691],[79.796,17.3541],[79.793,17.3259],[79.8036,17.3252],[79.804,17.3238],[79.8017,17.3123],[79.8135,17.2952],[79.8306,17.2701],[79.8405,17.2792],[79.9006,17.2537],[79.9018,17.2116],[79.8862,17.2091],[79.8767,17.1938],[79.8812,17.1736],[79.9124,17.1488],[79.9185,17.1296],[79.9463,17.1349],[79.9943,17.0784],[79.9958,17.0766],[79.9965,17.0759],[80.0399,17.0512],[80.0369,17.0244],[80.062,17.0094],[80.0555,16.9714],[80.0559,16.9714],[80.0506,16.9362],[80.0395,16.917],[80.0175,16.9149],[79.9988,16.8654],[80.0468,16.8535],[80.0483,16.8333],[80.0734,16.8173],[80.0551,16.7451],[80.0304,16.7148],[79.9973,16.7022],[79.9775,16.6625],[79.9497,16.636],[79.909,16.6346],[79.8938,16.6503],[79.8782,16.6967],[79.8512,16.7057],[79.8173,16.6918],[79.7842,16.7305],[79.7446,16.719],[79.7229,16.6904],[79.6792,16.6935],[79.6997,16.7186],[79.6682,16.7333],[79.6682,16.8413],[79.6168,16.9236],[79.6156,16.9843],[79.592,17.0836],[79.5255,17.1861],[79.5198,17.2332],[79.4939,17.2335],[79.4973,17.2625],[79.4749,17.3304],[79.4749,17.3308],[79.4741,17.3315],[79.4505,17.3451],[79.4535,17.3451],[79.4421,17.3587],[79.422,17.3761],[79.4166,17.3893],[79.4151,17.3928],[79.4124,17.3991],[79.4242,17.4151],[79.4246,17.4158],[79.4235,17.4211],[79.4197,17.4322],[79.3698,17.4824]]]}},{"type":"Feature","properties":{"district":"Vikarabad","district_hi":"विकाराबाद"},"geometry":{"type":"MultiPolygon","coordinates":[[[[77.4943,17.5682],[77.4996,17.5521],[77.4939,17.5682],[77.4779,17.5668],[77.4943,17.5682]]],[[[77.9996,16.9797],[77.9992,16.9773],[77.9966,16.9658],[77.9958,16.9654],[77.9931,16.9644],[77.9863,16.9613],[77.9711,16.971],[77.9528,16.9497],[77.93,16.9532],[77.9147,16.9212],[77.8695,16.9274],[77.8843,16.9588],[77.8717,16.9682],[77.8634,16.9515],[77.8478,16.9515],[77.8379,16.9724],[77.844,16.9919],[77.8253,16.9871],[77.7603,17.0024],[77.766,17.0219],[77.731,17.0289],[77.7275,17.0383],[77.7146,17.0404],[77.6872,17.0205],[77.6632,17.0317],[77.6351,17.0101],[77.632,17.0013],[77.6541,17.0055],[77.6442,16.9902],[77.624,16.9843],[77.6233,16.9529],[77.6035,16.9466],[77.5932,16.9306],[77.5966,16.9142],[77.5574,16.9027],[77.5555,16.9023],[77.5377,16.9302],[77.5251,16.9253],[77.516,16.9334],[77.5232,16.9484],[77.4661,16.9539],[77.4821,16.9721],[77.4794,16.9961],[77.5023,17.0094],[77.4966,17.0428],[77.481,17.0791],[77.4631,17.0941],[77.4638,17.1101],[77.4068,17.1244],[77.3638,17.1589],[77.3721,17.1955],[77.3938,17.1945],[77.4037,17.2098],[77.3801,17.2224],[77.4083,17.2412],[77.4205,17.2377],[77.4265,17.2565],[77.4585,17.2788],[77.438,17.2921],[77.4562,17.3311],[77.4536,17.374],[77.4791,17.3709],[77.4745,17.3615],[77.484,17.3548],[77.524,17.3642],[77.5331,17.3803],[77.5243,17.388],[77.538,17.4061],[77.5141,17.4141],[77.5129,17.4308],[77.5373,17.4437],[77.5761,17.4308],[77.5761,17.4563],[77.6141,17.4458],[77.6153,17.473],[77.645,17.4775],[77.6571,17.5065],[77.6522,17.4828],[77.6887,17.4755],[77.6906,17.5264],[77.7097,17.5257],[77.7614,17.5581],[77.7743,17.601],[77.7466,17.624],[77.7762,17.6268],[77.7835,17.6386],[77.7964,17.6278],[77.7998,17.625],[77.823,17.632],[77.8527,17.6083],[77.8676,17.6194],[77.8729,17.5825],[77.93,17.5692],[77.9368,17.5389],[77.9654,17.5309],[77.9733,17.5197],[77.9741,17.518],[77.9646,17.4845],[77.981,17.4838],[77.9912,17.5068],[78.008,17.496],[78.0042,17.4751],[78.0224,17.465],[78.0403,17.4713],[78.0407,17.4577],[78.0628,17.4486],[78.0631,17.449],[78.0647,17.4423],[78.0715,17.4158],[78.0715,17.4134],[78.0514,17.412],[78.0186,17.3524],[78.0129,17.3419],[78.0076,17.3322],[78.0053,17.328],[78.0148,17.312],[78.0472,17.2952],[78.0434,17.275],[78.0593,17.2513],[78.051,17.2353],[78.0696,17.2307],[78.0639,17.2109],[78.0468,17.2084],[78.0441,17.1687],[78.0163,17.1655],[77.9916,17.1282],[77.9901,17.1035],[77.9543,17.0993],[77.9342,17.0861],[77.9345,17.0857],[77.9338,17.0854],[77.9452,17.078],[77.9227,17.0634],[77.9349,17.0282],[77.9783,17.0101],[77.9996,16.9797]]]]}},{"type":"Feature","properties":{"district":"Wanaparthy","district_hi":"वनपर्ति"},"geometry":{"type":"Polygon","coordinates":[[[78.2481,15.9715],[78.2214,15.944],[78.1579,15.951],[78.1461,15.9715],[78.1362,15.9963],[78.1305,15.9977],[78.0696,16.0144],[78.0293,16.0597],[77.9471,16.119],[77.9319,16.1933],[77.9125,16.2128],[77.7751,16.3069],[77.6815,16.355],[77.6754,16.3616],[77.6678,16.362],[77.6609,16.3627],[77.6724,16.3888],[77.7131,16.4003],[77.7173,16.431],[77.7428,16.3993],[77.7511,16.4035],[77.7492,16.3878],[77.7618,16.3941],[77.7542,16.4213],[77.7934,16.422],[77.8234,16.4073],[77.8679,16.4265],[77.8638,16.4467],[77.8961,16.4512],[77.9163,16.4425],[77.9414,16.5004],[77.9821,16.5025],[77.9981,16.5311],[78.0194,16.53],[77.9981,16.5544],[78.0042,16.568],[77.9889,16.5924],[78.0004,16.5945],[78.0061,16.6088],[78.0411,16.6203],[78.0612,16.6234],[78.0768,16.6088],[78.1214,16.5928],[78.116,16.5729],[78.1225,16.5523],[78.1001,16.4871],[78.148,16.4561],[78.2009,16.4471],[78.2013,16.4094],[78.2469,16.4157],[78.3143,16.3798],[78.293,16.3261],[78.2637,16.3327],[78.2542,16.2881],[78.2211,16.3038],[78.2135,16.3216],[78.1899,16.3219],[78.1628,16.2961],[78.1644,16.2672],[78.199,16.2598],[78.1967,16.2086],[78.2112,16.2009],[78.2093,16.18],[78.2271,16.1748],[78.2062,16.1072],[78.2157,16.095],[78.1925,16.0803],[78.1784,16.0845],[78.1762,16.0678],[78.2024,16.0542],[78.1899,16.042],[78.218,16.0298],[78.2131,16.0106],[78.2294,16.0012],[78.2564,16.0085],[78.2599,15.9987],[78.2481,15.9715]]]}},{"type":"Feature","properties":{"district":"Warangal Rural","district_hi":"वारंगल ग्रामीण"},"geometry":{"type":"Polygon","coordinates":[[[79.5726,17.6215],[79.5639,17.6184],[79.5403,17.6379],[79.5243,17.633],[79.5224,17.6613],[79.4897,17.663],[79.4813,17.6749],[79.4905,17.6961],[79.4809,17.7052],[79.5041,17.7244],[79.4809,17.7453],[79.4905,17.7543],[79.5053,17.7488],[79.5144,17.7742],[79.5144,17.7948],[79.5513,17.7871],[79.5647,17.7955],[79.5597,17.808],[79.594,17.8234],[79.6023,17.8223],[79.6217,17.8289],[79.6187,17.876],[79.6339,17.8725],[79.6369,17.8962],[79.6529,17.9049],[79.6449,17.9074],[79.6522,17.9234],[79.6567,17.9339],[79.6408,17.9558],[79.6408,17.9562],[79.6495,17.9694],[79.6221,17.9733],[79.6404,17.9848],[79.643,18.0008],[79.6328,18.0113],[79.6518,18.0113],[79.6716,18.0273],[79.651,18.0423],[79.621,18.0399],[79.6233,18.0681],[79.6035,18.0963],[79.605,18.1169],[79.6259,18.1242],[79.6221,18.1375],[79.6012,18.1417],[79.6126,18.1884],[79.597,18.1981],[79.5978,18.2152],[79.578,18.2427],[79.586,18.2598],[79.6206,18.2623],[79.6335,18.2846],[79.6525,18.2525],[79.6605,18.2532],[79.6971,18.2776],[79.7043,18.2717],[79.6952,18.2511],[79.7108,18.241],[79.7226,18.2096],[79.7359,18.2051],[79.7241,18.1943],[79.758,18.1709],[79.7678,18.1521],[79.8394,18.1333],[79.8196,18.1131],[79.8146,18.0918],[79.8873,18.0981],[79.8847,18.0859],[79.9364,18.0838],[79.9577,18.0894],[79.9794,18.112],[79.992,18.1075],[79.9813,18.0608],[79.9794,18.0203],[79.9939,18.0008],[79.9859,17.9538],[79.9767,17.9524],[79.9943,17.9171],[79.9943,17.8896],[79.9752,17.8614],[79.9528,17.8607],[79.9471,17.8356],[79.9387,17.8408],[79.9155,17.799],[79.9105,17.8136],[79.8755,17.8084],[79.8835,17.7794],[79.9037,17.7617],[79.8934,17.7303],[79.8691,17.7425],[79.8637,17.7195],[79.8215,17.7136],[79.8245,17.6951],[79.7911,17.7087],[79.7678,17.6867],[79.7214,17.701],[79.7142,17.6839],[79.6914,17.6867],[79.6826,17.6546],[79.6613,17.6494],[79.6537,17.6281],[79.6164,17.6219],[79.6137,17.6362],[79.5776,17.6285],[79.5726,17.6215]]]}},{"type":"Feature","properties":{"district":"Warangal Urban","district_hi":"वारंगल शहरी"},"geometry":{"type":"Polygon","coordinates":[[[79.5144,17.7948],[79.5144,17.8188],[79.4908,17.8213],[79.503,17.8628],[79.5034,17.8645],[79.4908,17.8805],[79.4825,17.891],[79.4817,17.892],[79.4779,17.8879],[79.4592,17.875],[79.449,17.8791],[79.4433,17.9109],[79.4433,17.9112],[79.4429,17.9112],[79.4201,17.8959],[79.3946,17.9081],[79.3889,17.9008],[79.3428,17.9213],[79.3242,17.944],[79.2675,17.9527],[79.2709,17.9785],[79.2633,17.9837],[79.229,17.9914],[79.2302,17.9998],[79.2606,18.0029],[79.2618,18.0346],[79.2819,18.0657],[79.2835,18.0751],[79.2911,18.0894],[79.2937,18.1239],[79.3013,18.1301],[79.3272,18.1483],[79.3656,18.1399],[79.3793,18.1566],[79.3968,18.1479],[79.3991,18.1661],[79.4261,18.1622],[79.4425,18.1598],[79.4475,18.1591],[79.4619,18.1643],[79.4737,18.2299],[79.5319,18.2361],[79.5346,18.2351],[79.5365,18.2368],[79.5395,18.2389],[79.5502,18.2473],[79.5517,18.2637],[79.5532,18.2672],[79.5563,18.2658],[79.5631,18.263],[79.5647,18.263],[79.5822,18.2567],[79.578,18.2427],[79.5978,18.2152],[79.597,18.1981],[79.6126,18.1884],[79.6012,18.1417],[79.6221,18.1375],[79.6259,18.1242],[79.605,18.1169],[79.6035,18.0963],[79.6233,18.0681],[79.621,18.0399],[79.651,18.0423],[79.6716,18.0273],[79.6518,18.0113],[79.6328,18.0113],[79.643,18.0008],[79.6404,17.9848],[79.6221,17.9733],[79.6495,17.9694],[79.6408,17.9562],[79.6408,17.9558],[79.6567,17.9339],[79.6522,17.9234],[79.6449,17.9074],[79.6529,17.9049],[79.6369,17.8962],[79.6339,17.8725],[79.6187,17.876],[79.6217,17.8289],[79.6023,17.8223],[79.594,17.8234],[79.5597,17.808],[79.5647,17.7955],[79.5513,17.7871],[79.5144,17.7948]]]}},{"type":"Feature","properties":{"district":"Yadadri Bhuvanagiri","district_hi":"यादाद्री भुवनगिरि"},"geometry":{"type":"Polygon","coordinates":[[[78.8676,17.8251],[78.8664,17.8101],[78.8995,17.8049],[78.9075,17.8126],[78.9486,17.7882],[78.9905,17.7937],[78.9908,17.7937],[79.0015,17.7707],[78.9958,17.7509],[79.0251,17.7129],[79.0376,17.7094],[79.046,17.7261],[79.0688,17.7191],[79.0997,17.6776],[79.1301,17.6721],[79.1347,17.6428],[79.1575,17.6219],[79.1514,17.5874],[79.1678,17.5755],[79.1723,17.5424],[79.1853,17.541],[79.1841,17.5302],[79.1975,17.5211],[79.2325,17.5277],[79.2424,17.5016],[79.2298,17.4967],[79.2538,17.4727],[79.2553,17.472],[79.2747,17.4978],[79.2937,17.4866],[79.2854,17.4692],[79.328,17.4507],[79.3592,17.4824],[79.3698,17.4824],[79.4197,17.4322],[79.4235,17.4211],[79.4246,17.4158],[79.4242,17.4151],[79.4124,17.3991],[79.4151,17.3928],[79.4166,17.3893],[79.422,17.3761],[79.4421,17.3587],[79.4535,17.3451],[79.4505,17.3451],[79.4478,17.3465],[79.374,17.3437],[79.3322,17.3594],[79.3284,17.3594],[79.2956,17.3597],[79.2602,17.3601],[79.2507,17.3587],[79.2481,17.3154],[79.2195,17.3137],[79.2051,17.2621],[79.1841,17.2733],[79.1781,17.2516],[79.1567,17.2597],[79.1556,17.2813],[79.1172,17.2778],[79.1035,17.2426],[78.9817,17.2795],[78.9867,17.2506],[78.9737,17.2147],[78.9574,17.199],[78.9927,17.1554],[78.9733,17.1289],[78.9513,17.1321],[78.9284,17.0812],[78.9151,17.0906],[78.9132,17.0892],[78.9094,17.0857],[78.9022,17.0787],[78.8942,17.0515],[78.8911,17.0442],[78.8828,17.0491],[78.8417,17.0739],[78.8413,17.0714],[78.8154,17.0962],[78.8192,17.1091],[78.8333,17.1035],[78.8329,17.1129],[78.7758,17.1512],[78.7755,17.1516],[78.7892,17.1648],[78.7591,17.214],[78.7979,17.2028],[78.8162,17.2123],[78.8188,17.229],[78.8192,17.2321],[78.7534,17.2611],[78.7412,17.2959],[78.7621,17.3036],[78.7534,17.3294],[78.7199,17.3283],[78.707,17.3465],[78.7161,17.359],[78.7325,17.3541],[78.7374,17.3862],[78.7389,17.396],[78.7401,17.3967],[78.7549,17.4047],[78.7595,17.427],[78.7511,17.4382],[78.7606,17.4605],[78.7515,17.4713],[78.7169,17.4681],[78.7093,17.4762],[78.7123,17.5208],[78.6948,17.5515],[78.7055,17.5577],[78.6765,17.5759],[78.6914,17.5846],[78.6864,17.595],[78.702,17.6114],[78.6853,17.6219],[78.7112,17.64],[78.7237,17.6682],[78.7268,17.6693],[78.7298,17.6679],[78.7348,17.6731],[78.7766,17.6916],[78.7884,17.7017],[78.7819,17.7111],[78.8154,17.7021],[78.8215,17.7394],[78.8413,17.7526],[78.8596,17.7509],[78.8676,17.8251]]]}},{"type":"Feature","properties":{"district":"Bhadradri Kothagudem","district_hi":"भद्राद्री कोठागुडेम"},"geometry":{"type":"Polygon","coordinates":[[[80.7557,18.1695],[80.799,18.1716],[80.8241,18.1943],[80.8238,18.2396],[80.8436,18.2358],[80.866,18.2333],[80.8725,18.2138],[80.8531,18.2054],[80.8668,18.1403],[80.9143,18.1444],[80.9577,18.1769],[80.979,18.179],[80.9786,18.1542],[80.9554,18.1326],[80.9493,18.0862],[80.9695,18.0479],[80.9642,18.0416],[80.9984,17.9168],[80.9965,17.8492],[81.0083,17.7983],[81.0467,17.7822],[81.0856,17.7979],[81.1042,17.7721],[81.0582,17.7331],[81.0407,17.7477],[80.9912,17.7498],[80.9733,17.7801],[80.8854,17.7359],[80.8949,17.7031],[80.8858,17.6811],[80.9048,17.6773],[80.898,17.6689],[80.9124,17.6578],[80.9109,17.6379],[80.8614,17.6344],[80.8496,17.6222],[80.8554,17.602],[80.9695,17.5982],[81.0197,17.5201],[81.0802,17.5152],[81.0977,17.5044],[81.1274,17.5264],[81.1385,17.5162],[81.1423,17.4887],[81.1598,17.4845],[81.1483,17.4636],[81.1754,17.4636],[81.1723,17.449],[81.1932,17.4357],[81.2028,17.434],[81.2054,17.4497],[81.2686,17.4183],[81.3101,17.4099],[81.3211,17.388],[81.3051,17.3461],[81.2739,17.3172],[81.1906,17.3249],[81.1765,17.2876],[81.1875,17.2548],[81.1738,17.2304],[81.0795,17.2154],[81.0547,17.2248],[81.0311,17.1903],[80.9942,17.1913],[80.9413,17.2192],[80.8652,17.236],[80.8763,17.2649],[80.8592,17.3646],[80.8318,17.3632],[80.8127,17.3371],[80.7789,17.3374],[80.7754,17.3081],[80.761,17.314],[80.7484,17.2914],[80.7226,17.3053],[80.6933,17.2893],[80.6925,17.2889],[80.683,17.2966],[80.6799,17.3378],[80.6457,17.3465],[80.6461,17.3601],[80.6343,17.3629],[80.6286,17.3388],[80.6149,17.343],[80.6095,17.3562],[80.6194,17.3716],[80.6061,17.3824],[80.5924,17.382],[80.5821,17.3569],[80.5563,17.3412],[80.5559,17.3681],[80.5403,17.3608],[80.535,17.3841],[80.5011,17.3667],[80.4661,17.3705],[80.4771,17.3848],[80.4463,17.4106],[80.4063,17.4211],[80.3759,17.4169],[80.4315,17.4974],[80.3968,17.5281],[80.3611,17.5009],[80.3603,17.4863],[80.3466,17.4852],[80.3398,17.5225],[80.3436,17.5351],[80.3561,17.5312],[80.3687,17.5678],[80.3238,17.5609],[80.2884,17.5724],[80.2827,17.5633],[80.2922,17.556],[80.2808,17.5427],[80.2336,17.5664],[80.2302,17.5525],[80.202,17.5581],[80.2233,17.6062],[80.2096,17.6139],[80.207,17.6529],[80.221,17.6609],[80.2366,17.6553],[80.2484,17.7383],[80.2595,17.7502],[80.2477,17.8244],[80.277,17.8812],[80.2675,17.9287],[80.2705,17.9433],[80.2751,17.9663],[80.2945,17.9646],[80.3097,17.9754],[80.3162,17.9959],[80.3413,18.0144],[80.3466,18.0367],[80.3919,18.0817],[80.4315,18.0601],[80.4452,18.067],[80.4566,18.0604],[80.4653,18.0904],[80.4863,18.0737],[80.5422,18.1162],[80.5639,18.0562],[80.5711,18.0552],[80.5863,18.067],[80.6023,18.0827],[80.6164,18.1183],[80.635,18.1096],[80.643,18.1253],[80.6232,18.1295],[80.6324,18.1423],[80.6613,18.1312],[80.6815,18.1657],[80.6963,18.1584],[80.6822,18.1479],[80.6986,18.127],[80.7146,18.1267],[80.7549,18.0737],[80.7545,18.1615],[80.7545,18.1695],[80.7557,18.1695]]]}},{"type":"Feature","properties":{"district":"Jayashankar Bhupalapally","district_hi":"जयशंकर भूपालपल्ली"},"geometry":{"type":"Polygon","coordinates":[[[80.2678,18.59],[80.2321,18.5562],[80.2321,18.5558],[80.2168,18.3895],[80.1727,18.3494],[80.1126,18.3927],[80.0738,18.3881],[80.0422,18.4042],[79.9897,18.3864],[79.9223,18.4062],[79.8911,18.3993],[79.8995,18.371],[79.9539,18.3397],[79.9444,18.3184],[79.893,18.317],[79.882,18.2992],[79.8892,18.2853],[79.8535,18.2598],[79.8443,18.2145],[79.863,18.203],[79.8363,18.1863],[79.8443,18.1584],[79.8588,18.1504],[79.842,18.1326],[79.8394,18.1333],[79.7678,18.1521],[79.758,18.1709],[79.7241,18.1943],[79.7359,18.2051],[79.7226,18.2096],[79.7108,18.241],[79.6952,18.2511],[79.7043,18.2717],[79.6971,18.2776],[79.6605,18.2532],[79.6525,18.2525],[79.6335,18.2846],[79.6206,18.2623],[79.586,18.2598],[79.578,18.2427],[79.5822,18.2567],[79.5647,18.263],[79.5631,18.263],[79.5631,18.2633],[79.5597,18.2999],[79.5764,18.3093],[79.5795,18.3487],[79.5806,18.4132],[79.5669,18.424],[79.5783,18.4366],[79.5882,18.4477],[79.5901,18.4523],[79.5879,18.462],[79.5955,18.4683],[79.5989,18.4714],[79.6027,18.4746],[79.6122,18.4638],[79.6229,18.4864],[79.6423,18.4756],[79.6701,18.4802],[79.7058,18.5206],[79.7119,18.5607],[79.7248,18.5736],[79.7914,18.5732],[79.804,18.6213],[79.8306,18.6555],[79.8306,18.6806],[79.8093,18.7029],[79.807,18.705],[79.8204,18.72],[79.8245,18.7242],[79.8242,18.7245],[79.8177,18.758],[79.847,18.7939],[79.8466,18.7943],[79.8249,18.8281],[79.8325,18.864],[79.8356,18.8675],[79.8459,18.8682],[79.8519,18.8654],[79.8668,18.8361],[79.8683,18.8354],[79.8729,18.8329],[79.8873,18.8263],[79.914,18.826],[79.914,18.8263],[79.9627,18.7747],[80.0186,18.7705],[80.0528,18.7252],[80.1149,18.6817],[80.1651,18.7008],[80.1777,18.6837],[80.1967,18.681],[80.2127,18.7057],[80.2336,18.7026],[80.2793,18.721],[80.3432,18.598],[80.2678,18.59]]]}},{"type":"Feature","properties":{"district":"Narayanpet","district_hi":"नारायणपेट"},"geometry":{"type":"Polygon","coordinates":[[[77.6609,16.3627],[77.6438,16.3634],[77.6423,16.3627],[77.6389,16.363],[77.6008,16.3432],[77.5734,16.3407],[77.5236,16.3759],[77.4897,16.385],[77.441,16.3808],[77.4193,16.3662],[77.288,16.4087],[77.2622,16.4519],[77.2359,16.4725],[77.2941,16.4767],[77.2987,16.4962],[77.3295,16.4861],[77.3691,16.4885],[77.3778,16.5136],[77.4193,16.5224],[77.4189,16.5488],[77.4037,16.5513],[77.3931,16.5701],[77.4239,16.5691],[77.4399,16.5872],[77.4623,16.5854],[77.4673,16.5987],[77.4676,16.6099],[77.4536,16.6168],[77.476,16.6503],[77.4623,16.6541],[77.4345,16.6412],[77.4189,16.6684],[77.4638,16.6764],[77.4699,16.6876],[77.4741,16.7165],[77.4471,16.7207],[77.4383,16.7116],[77.4262,16.7214],[77.4433,16.7625],[77.4395,16.789],[77.4673,16.7803],[77.4764,16.7883],[77.457,16.8302],[77.4642,16.8507],[77.4539,16.9138],[77.4695,16.9191],[77.4661,16.9539],[77.5232,16.9484],[77.516,16.9334],[77.5251,16.9253],[77.5377,16.9302],[77.5555,16.9023],[77.5574,16.9027],[77.5966,16.9142],[77.5932,16.9306],[77.6035,16.9466],[77.6233,16.9529],[77.624,16.9843],[77.6442,16.9902],[77.6541,17.0055],[77.632,17.0013],[77.6351,17.0101],[77.6632,17.0317],[77.6872,17.0205],[77.7146,17.0404],[77.7275,17.0383],[77.731,17.0289],[77.766,17.0219],[77.7603,17.0024],[77.7504,16.9529],[77.7302,16.9438],[77.7405,16.9382],[77.7462,16.9107],[77.7275,16.8504],[77.7439,16.8274],[77.7294,16.811],[77.7416,16.7932],[77.7112,16.7929],[77.7081,16.7831],[77.6796,16.795],[77.6743,16.7768],[77.6796,16.7566],[77.7268,16.7514],[77.7454,16.7395],[77.7534,16.7238],[77.7492,16.6935],[77.7648,16.6883],[77.7736,16.6548],[77.7979,16.6304],[77.7991,16.6165],[77.7812,16.6158],[77.7877,16.5743],[77.7785,16.5652],[77.7496,16.5666],[77.7686,16.4847],[77.7393,16.4662],[77.7511,16.4035],[77.7428,16.3993],[77.7173,16.431],[77.7131,16.4003],[77.6724,16.3888],[77.6609,16.3627]]]}}]}