{"type":"FeatureCollection","features":[{"type":"Feature","properties":{"district":"North Tripura","district_hi":"उत्तरी त्रिपुरा"},"geometry":{"type":"Polygon","coordinates":[[[92.1756,23.7081],[92.1716,23.7506],[92.1559,23.7802],[92.1547,23.8515],[92.1308,23.9229],[92.1204,23.9317],[92.0879,23.9313],[92.0808,23.9329],[92.0851,23.9898],[92.1127,23.9942],[92.1158,23.9986],[92.1142,24.005],[92.1106,24.0238],[92.1222,24.0383],[92.1345,24.0322],[92.1428,24.0407],[92.1651,24.0952],[92.167,24.1024],[92.1452,24.1172],[92.2022,24.1577],[92.2035,24.1685],[92.2038,24.1821],[92.1722,24.1901],[92.1645,24.2025],[92.1621,24.2025],[92.1382,24.1917],[92.1317,24.2194],[92.1038,24.2378],[92.0971,24.2638],[92.0682,24.2707],[92.0689,24.3039],[92.0627,24.3123],[92.0701,24.3768],[92.1106,24.3832],[92.1397,24.4253],[92.1679,24.4241],[92.1498,24.491],[92.1556,24.5255],[92.1679,24.5275],[92.2136,24.5087],[92.2118,24.5047],[92.2283,24.5027],[92.2302,24.5019],[92.2305,24.5014],[92.2298,24.4518],[92.2464,24.4421],[92.2467,24.4409],[92.2599,24.3584],[92.2188,24.2859],[92.2096,24.2482],[92.1924,24.2434],[92.2173,24.2342],[92.2185,24.2346],[92.22,24.2342],[92.2912,24.2514],[92.332,24.1797],[92.3237,24.1713],[92.3317,24.1521],[92.3277,24.1016],[92.312,24.0523],[92.3261,23.9978],[92.3077,23.9605],[92.309,23.9313],[92.3252,23.914],[92.3111,23.8804],[92.3145,23.8624],[92.3129,23.8612],[92.293,23.8656],[92.2863,23.8672],[92.285,23.8672],[92.2804,23.8604],[92.27,23.8447],[92.2685,23.8423],[92.282,23.8155],[92.2571,23.8127],[92.2568,23.8127],[92.2654,23.7253],[92.2654,23.7249],[92.2412,23.7189],[92.2452,23.6961],[92.2237,23.6516],[92.2105,23.6616],[92.2167,23.6841],[92.2059,23.7049],[92.1756,23.7081]]]}},{"type":"Feature","properties":{"district":"Dhalai","district_hi":"धलाई"},"geometry":{"type":"Polygon","coordinates":[[[92.0851,23.9898],[92.0808,23.9329],[92.0879,23.9313],[92.1204,23.9317],[92.1308,23.9229],[92.1547,23.8515],[92.1559,23.7802],[92.1716,23.7506],[92.1756,23.7081],[92.1756,23.7073],[92.1357,23.7353],[92.1195,23.7321],[92.1063,23.6909],[92.0774,23.668],[92.0744,23.6464],[92.0594,23.6432],[92.0066,23.6652],[91.9836,23.7281],[91.9585,23.7385],[91.9594,23.6989],[91.937,23.6893],[91.9652,23.5362],[91.9563,23.5266],[91.9735,23.5041],[91.9735,23.4813],[91.9401,23.4681],[91.9422,23.4272],[91.9066,23.4404],[91.9005,23.424],[91.8729,23.4128],[91.8677,23.4188],[91.8637,23.4084],[91.8564,23.4324],[91.8659,23.4456],[91.8285,23.4765],[91.8263,23.4945],[91.8039,23.5154],[91.8009,23.5182],[91.8036,23.5294],[91.792,23.543],[91.7818,23.5514],[91.7812,23.5554],[91.769,23.644],[91.7524,23.6516],[91.769,23.672],[91.7653,23.6845],[91.7668,23.6877],[91.7674,23.6889],[91.7779,23.7089],[91.7711,23.7377],[91.7843,23.8183],[91.7726,23.9148],[91.7797,23.9281],[91.7527,23.9585],[91.7472,23.995],[91.7539,24.108],[91.7432,24.1324],[91.7549,24.1416],[91.757,24.1436],[91.7469,24.245],[91.8159,24.2102],[91.841,24.2274],[91.8472,24.2174],[91.837,24.1969],[91.8597,24.1825],[91.8827,24.1424],[91.9033,24.1376],[91.9232,24.1092],[91.9241,24.108],[91.9695,24.0755],[91.9686,24.0603],[91.9931,24.0815],[92.002,24.0751],[92.0069,24.0996],[92.0302,24.0903],[92.0508,24.1],[92.0735,24.0956],[92.0594,24.0286],[92.0738,24.0226],[92.0866,24.0166],[92.087,24.0166],[92.0851,23.9898]]]}},{"type":"Feature","properties":{"district":"Sipahijala","district_hi":"सिपाहीजला"},"geometry":{"type":"Polygon","coordinates":[[[91.42,23.3747],[91.405,23.3683],[91.3875,23.3559],[91.3875,23.3254],[91.3777,23.3238],[91.3725,23.3086],[91.3602,23.2946],[91.3495,23.2858],[91.3342,23.2786],[91.3197,23.2774],[91.302,23.2782],[91.3069,23.2934],[91.3158,23.2898],[91.3136,23.3014],[91.2885,23.3146],[91.2958,23.3387],[91.3133,23.3407],[91.3234,23.3631],[91.2928,23.3551],[91.2875,23.3767],[91.2974,23.3823],[91.2836,23.3835],[91.2836,23.4188],[91.2606,23.4529],[91.2547,23.4869],[91.2412,23.4853],[91.2385,23.4985],[91.2222,23.4945],[91.2247,23.5106],[91.202,23.5142],[91.213,23.5474],[91.1931,23.5446],[91.1762,23.5911],[91.1609,23.5947],[91.1569,23.6704],[91.1707,23.6568],[91.1913,23.6552],[91.191,23.6472],[91.2146,23.6568],[91.2002,23.6644],[91.2069,23.6897],[91.1535,23.6913],[91.1569,23.7422],[91.2084,23.7522],[91.2262,23.7317],[91.2431,23.7402],[91.2765,23.7229],[91.2967,23.745],[91.3136,23.7217],[91.3176,23.7622],[91.3706,23.745],[91.3866,23.749],[91.3884,23.7722],[91.4356,23.767],[91.4409,23.7518],[91.474,23.747],[91.5062,23.7546],[91.5635,23.7898],[91.5638,23.7878],[91.5644,23.7846],[91.569,23.7598],[91.5706,23.7506],[91.5684,23.7369],[91.5675,23.7357],[91.5371,23.7269],[91.5381,23.7109],[91.5319,23.7061],[91.5258,23.7013],[91.5074,23.7049],[91.5034,23.6877],[91.4626,23.6628],[91.4329,23.6091],[91.3976,23.5847],[91.4022,23.5294],[91.3752,23.5178],[91.3924,23.4789],[91.3768,23.4444],[91.3887,23.4336],[91.3851,23.4036],[91.4194,23.3819],[91.42,23.3747]]]}},{"type":"Feature","properties":{"district":"Gomati","district_hi":"गोमती"},"geometry":{"type":"Polygon","coordinates":[[[91.7674,23.6889],[91.7668,23.6877],[91.7653,23.6845],[91.769,23.672],[91.7524,23.6516],[91.769,23.644],[91.7812,23.5554],[91.7818,23.5514],[91.792,23.543],[91.8036,23.5294],[91.8009,23.5182],[91.8039,23.5154],[91.7978,23.4893],[91.8248,23.4673],[91.8432,23.4244],[91.8377,23.3711],[91.8039,23.3323],[91.7644,23.3098],[91.7598,23.283],[91.7739,23.2697],[91.7592,23.2665],[91.7426,23.2629],[91.742,23.2637],[91.7196,23.2898],[91.726,23.3138],[91.6687,23.3567],[91.6368,23.3523],[91.6077,23.4036],[91.6071,23.404],[91.5982,23.3863],[91.5752,23.3839],[91.554,23.4072],[91.4602,23.396],[91.4596,23.3932],[91.4568,23.3795],[91.4544,23.3683],[91.4412,23.3683],[91.4265,23.3775],[91.42,23.3747],[91.4194,23.3819],[91.3851,23.4036],[91.3887,23.4336],[91.3768,23.4444],[91.3924,23.4789],[91.3752,23.5178],[91.4022,23.5294],[91.3976,23.5847],[91.4329,23.6091],[91.4626,23.6628],[91.5034,23.6877],[91.5074,23.7049],[91.5258,23.7013],[91.5319,23.7061],[91.5381,23.7109],[91.5371,23.7269],[91.5675,23.7357],[91.5684,23.7369],[91.5706,23.7506],[91.569,23.7598],[91.5724,23.7602],[91.5727,23.763],[91.5785,23.761],[91.6469,23.7686],[91.6926,23.7578],[91.7171,23.7686],[91.7438,23.7293],[91.7362,23.7033],[91.7582,23.6837],[91.7674,23.6889]]]}},{"type":"Feature","properties":{"district":"Khowai","district_hi":"खोवाई"},"geometry":{"type":"Polygon","coordinates":[[[91.7549,24.1416],[91.7432,24.1324],[91.7539,24.108],[91.7472,23.995],[91.7527,23.9585],[91.7797,23.9281],[91.7726,23.9148],[91.7843,23.8183],[91.7711,23.7377],[91.7779,23.7089],[91.7674,23.6889],[91.7582,23.6837],[91.7362,23.7033],[91.7438,23.7293],[91.7171,23.7686],[91.6926,23.7578],[91.6469,23.7686],[91.5785,23.761],[91.5727,23.763],[91.5724,23.7602],[91.569,23.7598],[91.5644,23.7846],[91.5638,23.7878],[91.5641,23.7882],[91.5509,23.9092],[91.531,23.912],[91.5396,23.9361],[91.5301,23.9349],[91.5187,23.9529],[91.5215,23.9661],[91.4967,24.0038],[91.4921,24.0439],[91.47,24.0615],[91.4862,24.0972],[91.4951,24.0851],[91.5396,24.0731],[91.581,24.0743],[91.5936,24.0859],[91.5908,24.0964],[91.6071,24.0916],[91.6307,24.1032],[91.6393,24.1705],[91.6564,24.1853],[91.6469,24.2174],[91.6632,24.2318],[91.6825,24.1625],[91.6994,24.1617],[91.7263,24.1412],[91.7549,24.1416]]]}},{"type":"Feature","properties":{"district":"West Tripura","district_hi":"पश्चिमी त्रिपुरा"},"geometry":{"type":"Polygon","coordinates":[[[91.5638,23.7878],[91.5635,23.7898],[91.5062,23.7546],[91.474,23.747],[91.4409,23.7518],[91.4356,23.767],[91.3884,23.7722],[91.3866,23.749],[91.3706,23.745],[91.3176,23.7622],[91.3136,23.7217],[91.2967,23.745],[91.2765,23.7229],[91.2431,23.7402],[91.2262,23.7317],[91.2281,23.7926],[91.2477,23.8299],[91.2195,23.8792],[91.221,23.8928],[91.2431,23.9036],[91.233,23.9201],[91.2685,23.9233],[91.2575,23.9425],[91.2615,23.9537],[91.2802,23.9822],[91.2839,23.9677],[91.2931,23.9713],[91.3004,23.9974],[91.3792,23.9746],[91.3734,24.0022],[91.397,24.0471],[91.3783,24.0791],[91.3759,24.1056],[91.4028,24.1096],[91.4301,24.1068],[91.4381,24.094],[91.4378,24.1012],[91.4807,24.0932],[91.47,24.0615],[91.4921,24.0439],[91.4967,24.0038],[91.5215,23.9661],[91.5187,23.9529],[91.5301,23.9349],[91.5396,23.9361],[91.531,23.912],[91.5509,23.9092],[91.5641,23.7882],[91.5638,23.7878]]]}},{"type":"Feature","properties":{"district":"South Tripura","district_hi":"दक्षिणी त्रिपुरा"},"geometry":{"type":"Polygon","coordinates":[[[91.3197,23.2774],[91.3342,23.2786],[91.3495,23.2858],[91.3602,23.2946],[91.3725,23.3086],[91.3777,23.3238],[91.3875,23.3254],[91.3875,23.3559],[91.405,23.3683],[91.42,23.3747],[91.4265,23.3775],[91.4412,23.3683],[91.4544,23.3683],[91.4568,23.3795],[91.4596,23.3932],[91.4602,23.396],[91.554,23.4072],[91.5752,23.3839],[91.5982,23.3863],[91.6071,23.404],[91.6077,23.4036],[91.6368,23.3523],[91.6687,23.3567],[91.726,23.3138],[91.7196,23.2898],[91.742,23.2637],[91.7426,23.2629],[91.7592,23.2665],[91.7769,23.2697],[91.7769,23.2437],[91.7914,23.2265],[91.7892,23.2044],[91.8143,23.1451],[91.8134,23.0991],[91.8352,23.0934],[91.8058,23.0634],[91.7745,23.0694],[91.7803,23.0289],[91.769,23.0414],[91.7717,23.0329],[91.7196,22.9873],[91.6938,22.9881],[91.6843,22.9772],[91.6515,22.976],[91.6457,22.9849],[91.6193,22.9392],[91.6089,22.9572],[91.5997,22.9548],[91.6132,22.9588],[91.6061,22.972],[91.5896,22.9768],[91.5764,22.9656],[91.5574,22.9785],[91.5571,22.9969],[91.5424,22.9997],[91.5482,23.0193],[91.5384,23.0193],[91.5503,23.0386],[91.5304,23.0386],[91.5298,23.0918],[91.5114,23.1043],[91.5175,23.1255],[91.5031,23.1307],[91.5151,23.1451],[91.4985,23.1427],[91.5071,23.1544],[91.4908,23.158],[91.4982,23.1716],[91.4918,23.1776],[91.5074,23.1836],[91.5031,23.192],[91.4706,23.1964],[91.4826,23.2],[91.4752,23.2205],[91.4504,23.2193],[91.4703,23.2277],[91.4577,23.2461],[91.4439,23.2465],[91.454,23.2605],[91.4182,23.2557],[91.4197,23.2734],[91.4087,23.2854],[91.4111,23.2557],[91.4004,23.2657],[91.3973,23.2565],[91.4087,23.2477],[91.3924,23.2461],[91.401,23.2293],[91.3863,23.2277],[91.3918,23.2201],[91.3808,23.2088],[91.3875,23.208],[91.3798,23.1848],[91.4031,23.1139],[91.4001,23.0967],[91.4173,23.083],[91.4157,23.063],[91.3958,23.0562],[91.3697,23.0706],[91.3467,23.1023],[91.3329,23.1531],[91.3231,23.1584],[91.3185,23.2445],[91.3265,23.2525],[91.3179,23.2529],[91.3099,23.2766],[91.3197,23.2774]]]}},{"type":"Feature","properties":{"district":"Unokoti","district_hi":"ऊनाकोटी"},"geometry":{"type":"Polygon","coordinates":[[[92.0701,24.3768],[92.0627,24.3123],[92.0689,24.3039],[92.0682,24.2707],[92.0971,24.2638],[92.1038,24.2378],[92.1317,24.2194],[92.1382,24.1917],[92.1621,24.2025],[92.1645,24.2025],[92.1722,24.1901],[92.2038,24.1821],[92.2035,24.1685],[92.2022,24.1577],[92.1452,24.1172],[92.167,24.1024],[92.1651,24.0952],[92.1428,24.0407],[92.1345,24.0322],[92.1222,24.0383],[92.1106,24.0238],[92.1142,24.005],[92.1158,23.9986],[92.1127,23.9942],[92.0851,23.9898],[92.087,24.0166],[92.0866,24.0166],[92.0738,24.0226],[92.0594,24.0286],[92.0735,24.0956],[92.0508,24.1],[92.0302,24.0903],[92.0069,24.0996],[92.002,24.0751],[91.9931,24.0815],[91.9686,24.0603],[91.9695,24.0755],[91.9241,24.108],[91.9232,24.1092],[91.91,24.1412],[91.9422,24.263],[91.9223,24.338],[91.96,24.3588],[91.9769,24.332],[91.9937,24.3288],[91.9717,24.3832],[91.9882,24.38],[92.0011,24.3953],[92.0078,24.384],[92.0701,24.3768]]]}}]}