{"type":"FeatureCollection","features":[{"type":"Feature","properties":{"district":"Uttarkashi","district_hi":"उत्तरकाशी"},"geometry":{"type":"Polygon","coordinates":[[[79.4075,31.074],[79.4064,31.0708],[79.3871,31.067],[79.3625,31.0367],[79.3066,31.014],[79.3315,30.9957],[79.3224,30.9616],[79.3221,30.9619],[79.2922,30.9682],[79.2634,30.9549],[79.2846,30.9354],[79.2835,30.9139],[79.2699,30.9069],[79.2808,30.8766],[79.2589,30.8694],[79.2513,30.8435],[79.2366,30.839],[79.2408,30.8248],[79.2252,30.8116],[79.2895,30.75],[79.2748,30.7244],[79.2559,30.7228],[79.2445,30.7345],[79.1995,30.7329],[79.1693,30.756],[79.1428,30.7475],[79.1269,30.7692],[79.0918,30.7759],[79.0679,30.7983],[79.0331,30.8097],[79.0279,30.8116],[79.0029,30.8586],[78.9454,30.8539],[78.9227,30.8776],[78.8955,30.8709],[78.8849,30.8763],[78.88,30.876],[78.8494,30.8476],[78.8626,30.816],[78.8539,30.8068],[78.8479,30.7377],[78.8081,30.719],[78.7703,30.7209],[78.7518,30.7105],[78.7193,30.7339],[78.7,30.7156],[78.661,30.7074],[78.6561,30.6897],[78.5881,30.6875],[78.5998,30.6723],[78.5971,30.6306],[78.5495,30.5735],[78.5472,30.5333],[78.5389,30.527],[78.4966,30.5308],[78.4996,30.5807],[78.5136,30.5956],[78.5018,30.6085],[78.4792,30.6252],[78.4682,30.6139],[78.447,30.6142],[78.4364,30.5738],[78.4508,30.5637],[78.4538,30.5425],[78.4432,30.5239],[78.4255,30.5166],[78.4137,30.4686],[78.4047,30.4715],[78.3937,30.5062],[78.3491,30.5337],[78.3389,30.5627],[78.3279,30.5583],[78.3181,30.5744],[78.3079,30.5725],[78.3139,30.5611],[78.2863,30.5526],[78.2863,30.5637],[78.3018,30.5643],[78.2886,30.5722],[78.3022,30.587],[78.278,30.6117],[78.2492,30.6107],[78.2352,30.5864],[78.2054,30.5782],[78.1645,30.5886],[78.1706,30.6047],[78.1577,30.6287],[78.1396,30.6353],[78.1033,30.6347],[78.0651,30.6237],[78.0753,30.6076],[78.0753,30.6072],[78.073,30.6069],[78.0526,30.6031],[78.0466,30.6022],[78.0454,30.6025],[78.0424,30.6022],[78.0129,30.6164],[78.0125,30.6183],[78.0084,30.6205],[78.011,30.6511],[78.0329,30.6451],[78.0624,30.6666],[78.0832,30.7209],[78.0791,30.7408],[78.0231,30.7895],[78.0273,30.8043],[77.9989,30.8267],[77.9947,30.8375],[77.9739,30.8896],[77.9785,30.9],[77.9981,30.9047],[78.0182,30.917],[78.0189,30.9215],[78.0144,30.9287],[77.9796,30.966],[77.9634,30.977],[77.9271,30.972],[77.8843,30.9458],[77.8771,30.9474],[77.8673,30.9502],[77.8541,30.9534],[77.8537,30.954],[77.8393,30.9808],[77.8321,31.0288],[77.8318,31.0288],[77.8295,31.0295],[77.8113,31.0591],[77.8242,31.0557],[77.8382,31.0727],[77.851,31.0734],[77.8639,31.1087],[77.8908,31.1217],[77.8987,31.1504],[77.9248,31.1504],[77.9671,31.1735],[77.9845,31.157],[78.0008,31.1621],[78.0303,31.151],[78.0428,31.1785],[78.1037,31.1855],[78.1604,31.2256],[78.1952,31.2218],[78.205,31.2205],[78.2205,31.2341],[78.2466,31.2306],[78.2829,31.2663],[78.3063,31.26],[78.3109,31.2824],[78.3113,31.283],[78.3113,31.2834],[78.329,31.2783],[78.3396,31.2796],[78.3702,31.2865],[78.3744,31.2827],[78.3861,31.2714],[78.3963,31.2755],[78.3963,31.2751],[78.4069,31.2423],[78.4342,31.2546],[78.4357,31.2537],[78.4481,31.2458],[78.4557,31.241],[78.4565,31.2398],[78.4837,31.199],[78.5518,31.2],[78.5782,31.2253],[78.6092,31.2294],[78.6471,31.2148],[78.658,31.1851],[78.672,31.1968],[78.765,31.1858],[78.81,31.1984],[78.8172,31.1896],[78.8108,31.1719],[78.8248,31.1637],[78.8312,31.1406],[78.8853,31.0989],[78.9087,31.0989],[78.9205,31.1109],[78.9507,31.098],[79.0089,31.11],[78.9874,31.1435],[78.9859,31.1738],[78.9575,31.1867],[78.9439,31.2066],[78.9477,31.2167],[78.9292,31.217],[78.928,31.2199],[78.9159,31.2486],[78.886,31.2685],[78.886,31.2691],[78.8823,31.2811],[78.8811,31.2843],[78.8974,31.2903],[78.8963,31.3036],[78.9159,31.3156],[78.9431,31.3658],[78.967,31.356],[78.9772,31.3629],[78.9987,31.3399],[79.015,31.3472],[79.0074,31.3784],[79.0158,31.4233],[79.0589,31.4264],[79.0717,31.4561],[79.139,31.4337],[79.1447,31.4138],[79.1738,31.3838],[79.167,31.361],[79.2116,31.35],[79.2332,31.3339],[79.2173,31.3124],[79.2464,31.2916],[79.2457,31.2827],[79.2218,31.26],[79.2581,31.2369],[79.2789,31.2373],[79.2963,31.2177],[79.3009,31.1668],[79.3183,31.1359],[79.3716,31.1135],[79.4034,31.1138],[79.4136,31.0958],[79.4075,31.074]]]}},{"type":"Feature","properties":{"district":"Chamoli","district_hi":"चमोली"},"geometry":{"type":"Polygon","coordinates":[[[79.2748,30.7244],[79.2895,30.75],[79.2252,30.8116],[79.2408,30.8248],[79.2366,30.839],[79.2513,30.8435],[79.2589,30.8694],[79.2808,30.8766],[79.2699,30.9069],[79.2835,30.9139],[79.2846,30.9354],[79.2634,30.9549],[79.2922,30.9682],[79.3221,30.9619],[79.3224,30.9616],[79.3315,30.9957],[79.3066,31.014],[79.3625,31.0367],[79.3871,31.067],[79.4064,31.0708],[79.4075,31.074],[79.4124,31.0759],[79.4264,31.0241],[79.4699,31.0355],[79.507,31.032],[79.516,30.9973],[79.5478,30.9897],[79.5391,30.9748],[79.5527,30.9581],[79.5917,30.9455],[79.6011,30.9331],[79.6635,30.9657],[79.6654,30.9827],[79.6991,30.9707],[79.732,30.9786],[79.7531,31.0064],[79.7755,30.9868],[79.8171,30.9717],[79.8647,30.9726],[79.8821,30.954],[79.8889,30.9183],[79.9108,30.9132],[79.9324,30.8801],[79.9626,30.8886],[79.9971,30.8662],[80.0095,30.8687],[80.0326,30.8425],[80.0538,30.8441],[80.1018,30.7882],[80.0855,30.7724],[80.0935,30.7471],[80.1018,30.7279],[80.0995,30.7282],[80.0258,30.7345],[79.9797,30.7092],[79.9831,30.6894],[80.0334,30.636],[80.03,30.6151],[80.0428,30.5984],[80.0126,30.5757],[79.9952,30.5368],[80.0201,30.4812],[80.0088,30.4692],[80.0201,30.449],[80.0375,30.444],[80.03,30.4133],[80.0379,30.407],[79.9974,30.3657],[79.9959,30.335],[79.9872,30.3186],[79.9797,30.3044],[79.977,30.299],[79.9649,30.294],[79.96,30.2921],[79.9551,30.2902],[79.9316,30.2984],[79.8734,30.2712],[79.8443,30.2883],[79.8008,30.281],[79.822,30.2267],[79.8015,30.2128],[79.7826,30.1809],[79.7823,30.1525],[79.763,30.1332],[79.7819,30.113],[79.7773,30.0979],[79.7887,30.0805],[79.811,30.0764],[79.8292,30.059],[79.8163,30.0477],[79.8129,30.0227],[79.7781,30.006],[79.7206,30.0015],[79.6102,30.0202],[79.5478,29.9959],[79.4843,30.0233],[79.4718,29.9794],[79.4699,29.9779],[79.4245,29.9346],[79.4049,29.9425],[79.3739,29.927],[79.3391,29.9728],[79.3251,29.9728],[79.3353,29.9431],[79.3251,29.9292],[79.2823,29.9258],[79.2846,29.9517],[79.2381,29.9722],[79.2302,29.9757],[79.2249,29.9782],[79.2177,30.0227],[79.1889,30.0372],[79.1893,30.0379],[79.2029,30.0631],[79.1931,30.0843],[79.1923,30.0846],[79.1602,30.0931],[79.1511,30.1121],[79.1345,30.1184],[79.1379,30.1516],[79.1394,30.1626],[79.0974,30.1967],[79.1012,30.2112],[79.0763,30.221],[79.0759,30.2213],[79.1035,30.2561],[79.1069,30.2889],[79.1371,30.2854],[79.1704,30.2956],[79.1443,30.3009],[79.1594,30.3281],[79.1103,30.3811],[79.1625,30.3856],[79.1746,30.4285],[79.1666,30.4462],[79.1916,30.4771],[79.2218,30.4904],[79.229,30.527],[79.2453,30.5378],[79.2457,30.5589],[79.2653,30.5668],[79.2952,30.5611],[79.3069,30.5892],[79.3069,30.5896],[79.3084,30.5896],[79.3353,30.5959],[79.3413,30.6022],[79.3489,30.617],[79.3523,30.6404],[79.3481,30.6502],[79.3039,30.6783],[79.2963,30.7187],[79.2884,30.7206],[79.2748,30.7244]]]}},{"type":"Feature","properties":{"district":"Dehradun","district_hi":"देहरादून"},"geometry":{"type":"Polygon","coordinates":[[[77.8295,31.0295],[77.8318,31.0288],[77.8321,31.0288],[77.8393,30.9808],[77.8537,30.954],[77.8541,30.9534],[77.8673,30.9502],[77.8771,30.9474],[77.8843,30.9458],[77.9271,30.972],[77.9634,30.977],[77.9796,30.966],[78.0144,30.9287],[78.0189,30.9215],[78.0182,30.917],[77.9981,30.9047],[77.9785,30.9],[77.9739,30.8896],[77.9947,30.8375],[77.9989,30.8267],[78.0273,30.8043],[78.0231,30.7895],[78.0791,30.7408],[78.0832,30.7209],[78.0624,30.6666],[78.0329,30.6451],[78.011,30.6511],[78.0084,30.6205],[78.0125,30.6183],[78.0129,30.6164],[78.0125,30.6167],[78.0046,30.5684],[78.0031,30.5656],[77.9804,30.5551],[77.983,30.5393],[77.9747,30.5378],[77.986,30.5258],[77.9755,30.5223],[77.9879,30.515],[77.9683,30.5093],[77.9494,30.5179],[77.938,30.5052],[77.938,30.5049],[77.9384,30.5046],[77.9732,30.4863],[77.9876,30.467],[78.0,30.4686],[77.9978,30.48],[78.0087,30.4838],[78.0367,30.4655],[78.0394,30.4822],[78.0821,30.4673],[78.1055,30.4784],[78.1642,30.4459],[78.1978,30.4468],[78.2387,30.4238],[78.2231,30.4058],[78.1619,30.3824],[78.1335,30.3439],[78.1426,30.3256],[78.2001,30.294],[78.2092,30.2933],[78.2145,30.3094],[78.2371,30.2993],[78.2368,30.2877],[78.2583,30.2854],[78.2681,30.3022],[78.2784,30.2959],[78.2768,30.2719],[78.2988,30.2457],[78.2939,30.2314],[78.2916,30.2296],[78.239,30.1894],[78.2337,30.1857],[78.2341,30.185],[78.2417,30.1658],[78.2613,30.161],[78.2545,30.1383],[78.3014,30.1114],[78.3026,30.1124],[78.3079,30.1096],[78.3075,30.107],[78.2912,30.1001],[78.281,30.0609],[78.2474,30.0341],[78.2451,30.0177],[78.2273,30.0158],[78.2315,29.9927],[78.202,29.9662],[78.1872,29.9621],[78.1978,29.988],[78.1891,29.9974],[78.1717,29.964],[78.1487,29.9678],[78.1297,30.0012],[78.0961,30.0113],[78.0991,30.0281],[78.0692,30.042],[78.0696,30.0754],[78.0356,30.1036],[78.0046,30.1762],[77.9558,30.2305],[77.96,30.2409],[77.9611,30.2419],[77.9618,30.2425],[77.9611,30.2425],[77.9603,30.2422],[77.9414,30.24],[77.8942,30.2656],[77.8465,30.2716],[77.7217,30.3303],[77.6903,30.3761],[77.6782,30.3758],[77.6767,30.3878],[77.6578,30.3988],[77.6571,30.4007],[77.654,30.401],[77.6253,30.4036],[77.592,30.4064],[77.5826,30.401],[77.575,30.4007],[77.5746,30.4007],[77.5742,30.4045],[77.5731,30.4118],[77.5731,30.4124],[77.589,30.4225],[77.595,30.4266],[77.5962,30.4272],[77.6431,30.432],[77.6525,30.4481],[77.6903,30.4481],[77.721,30.473],[77.8163,30.5059],[77.8238,30.522],[77.8265,30.5283],[77.8178,30.5611],[77.7739,30.558],[77.7433,30.593],[77.7433,30.5933],[77.7459,30.6041],[77.7716,30.5968],[77.7713,30.6164],[77.7958,30.6145],[77.7811,30.6467],[77.7913,30.6594],[77.7474,30.6799],[77.7558,30.7067],[77.7546,30.7086],[77.7429,30.7228],[77.7263,30.7377],[77.7172,30.7408],[77.7066,30.7446],[77.7024,30.7459],[77.7036,30.7642],[77.7039,30.7642],[77.7614,30.8261],[77.744,30.8466],[77.758,30.8769],[77.7735,30.8776],[77.7792,30.8605],[77.8057,30.8532],[77.8015,30.8934],[77.8151,30.9044],[77.8132,30.9221],[77.7629,30.9183],[77.7493,30.9527],[77.7592,30.9625],[77.772,30.9739],[77.786,30.9676],[77.814,30.954],[77.817,30.9537],[77.8374,30.9534],[77.8144,30.9619],[77.8318,30.9941],[77.825,31.0099],[77.8076,31.0162],[77.8163,31.031],[77.8299,31.0288],[77.8295,31.0295]]]}},{"type":"Feature","properties":{"district":"Tehri Garhwal","district_hi":"टिहरी गढ़वाल"},"geometry":{"type":"Polygon","coordinates":[[[78.0129,30.6164],[78.0424,30.6022],[78.0454,30.6025],[78.0466,30.6022],[78.0526,30.6031],[78.073,30.6069],[78.0753,30.6072],[78.0753,30.6076],[78.0651,30.6237],[78.1033,30.6347],[78.1396,30.6353],[78.1577,30.6287],[78.1706,30.6047],[78.1645,30.5886],[78.2054,30.5782],[78.2352,30.5864],[78.2492,30.6107],[78.278,30.6117],[78.3022,30.587],[78.2886,30.5722],[78.3018,30.5643],[78.2863,30.5637],[78.2863,30.5526],[78.3139,30.5611],[78.3079,30.5725],[78.3181,30.5744],[78.3279,30.5583],[78.3389,30.5627],[78.3491,30.5337],[78.3937,30.5062],[78.4047,30.4715],[78.4137,30.4686],[78.4255,30.5166],[78.4432,30.5239],[78.4538,30.5425],[78.4508,30.5637],[78.4364,30.5738],[78.447,30.6142],[78.4682,30.6139],[78.4792,30.6252],[78.5018,30.6085],[78.5136,30.5956],[78.4996,30.5807],[78.4966,30.5308],[78.5389,30.527],[78.5472,30.5333],[78.5495,30.5735],[78.5971,30.6306],[78.5998,30.6723],[78.5881,30.6875],[78.6561,30.6897],[78.661,30.7074],[78.7,30.7156],[78.7193,30.7339],[78.7518,30.7105],[78.7703,30.7209],[78.8081,30.719],[78.8479,30.7377],[78.8539,30.8068],[78.8626,30.816],[78.8494,30.8476],[78.88,30.876],[78.8849,30.8763],[78.8955,30.8709],[78.9227,30.8776],[78.9454,30.8539],[79.0029,30.8586],[79.0279,30.8116],[79.0331,30.8097],[79.0354,30.8062],[79.026,30.7977],[79.0282,30.7677],[79.0184,30.7497],[79.0002,30.749],[78.9919,30.7317],[78.9602,30.7348],[78.9239,30.7143],[78.9106,30.6906],[78.9095,30.6297],[78.8864,30.6035],[78.8891,30.5861],[78.863,30.5668],[78.8664,30.509],[78.8237,30.4784],[78.8505,30.4563],[78.8441,30.4301],[78.8168,30.401],[78.835,30.3916],[78.835,30.3575],[78.8581,30.347],[78.855,30.3328],[78.869,30.3221],[78.8584,30.3022],[78.8736,30.2757],[78.9178,30.2621],[78.9201,30.2614],[78.9016,30.2428],[78.8993,30.2444],[78.8959,30.2469],[78.8974,30.251],[78.8804,30.2602],[78.8792,30.2596],[78.8781,30.2602],[78.8558,30.2444],[78.8475,30.2466],[78.8445,30.2365],[78.8267,30.2434],[78.8066,30.2198],[78.7873,30.2286],[78.7484,30.2131],[78.7163,30.2368],[78.683,30.2387],[78.6803,30.2103],[78.6471,30.2074],[78.6448,30.1945],[78.6206,30.1784],[78.6172,30.1509],[78.5975,30.1449],[78.6013,30.1269],[78.5869,30.1222],[78.5881,30.108],[78.579,30.1039],[78.5922,30.0871],[78.5824,30.0723],[78.6021,30.0682],[78.5911,30.0663],[78.5881,30.0533],[78.5325,30.0758],[78.5113,30.0549],[78.4973,30.0754],[78.4799,30.0562],[78.4769,30.0669],[78.4349,30.0805],[78.4387,30.1111],[78.4255,30.113],[78.41,30.1354],[78.4062,30.1354],[78.4016,30.1354],[78.3918,30.1354],[78.3914,30.1285],[78.3748,30.1174],[78.374,30.1171],[78.374,30.1168],[78.3336,30.1342],[78.3328,30.1345],[78.3097,30.12],[78.3094,30.1174],[78.3026,30.1124],[78.3014,30.1114],[78.2545,30.1383],[78.2613,30.161],[78.2417,30.1658],[78.2341,30.185],[78.2337,30.1857],[78.239,30.1894],[78.2916,30.2296],[78.2939,30.2314],[78.2988,30.2457],[78.2768,30.2719],[78.2784,30.2959],[78.2681,30.3022],[78.2583,30.2854],[78.2368,30.2877],[78.2371,30.2993],[78.2145,30.3094],[78.2092,30.2933],[78.2001,30.294],[78.1426,30.3256],[78.1335,30.3439],[78.1619,30.3824],[78.2231,30.4058],[78.2387,30.4238],[78.1978,30.4468],[78.1642,30.4459],[78.1055,30.4784],[78.0821,30.4673],[78.0394,30.4822],[78.0367,30.4655],[78.0087,30.4838],[77.9978,30.48],[78.0,30.4686],[77.9876,30.467],[77.9732,30.4863],[77.9384,30.5046],[77.938,30.5049],[77.938,30.5052],[77.9494,30.5179],[77.9683,30.5093],[77.9879,30.515],[77.9755,30.5223],[77.986,30.5258],[77.9747,30.5378],[77.983,30.5393],[77.9804,30.5551],[78.0031,30.5656],[78.0046,30.5684],[78.0125,30.6167],[78.0129,30.6164]]]}},{"type":"Feature","properties":{"district":"Rudraprayag","district_hi":"रुद्रप्रयाग"},"geometry":{"type":"Polygon","coordinates":[[[79.0331,30.8097],[79.0679,30.7983],[79.0918,30.7759],[79.1269,30.7692],[79.1428,30.7475],[79.1693,30.756],[79.1995,30.7329],[79.2445,30.7345],[79.2559,30.7228],[79.2748,30.7244],[79.2884,30.7206],[79.2963,30.7187],[79.3039,30.6783],[79.3481,30.6502],[79.3523,30.6404],[79.3489,30.617],[79.3413,30.6022],[79.3353,30.5959],[79.3084,30.5896],[79.3069,30.5896],[79.3069,30.5892],[79.2952,30.5611],[79.2653,30.5668],[79.2457,30.5589],[79.2453,30.5378],[79.229,30.527],[79.2218,30.4904],[79.1916,30.4771],[79.1666,30.4462],[79.1746,30.4285],[79.1625,30.3856],[79.1103,30.3811],[79.1594,30.3281],[79.1443,30.3009],[79.1704,30.2956],[79.1371,30.2854],[79.1069,30.2889],[79.1035,30.2561],[79.0759,30.2213],[79.0763,30.221],[79.0759,30.2204],[79.0388,30.2163],[79.0222,30.1891],[79.0033,30.1822],[78.9825,30.179],[78.8989,30.18],[78.9023,30.2097],[78.9148,30.2043],[78.9152,30.2302],[78.891,30.2359],[78.891,30.2362],[78.8993,30.2444],[78.9016,30.2428],[78.9201,30.2614],[78.9178,30.2621],[78.8736,30.2757],[78.8584,30.3022],[78.869,30.3221],[78.855,30.3328],[78.8581,30.347],[78.835,30.3575],[78.835,30.3916],[78.8168,30.401],[78.8441,30.4301],[78.8505,30.4563],[78.8237,30.4784],[78.8664,30.509],[78.863,30.5668],[78.8891,30.5861],[78.8864,30.6035],[78.9095,30.6297],[78.9106,30.6906],[78.9239,30.7143],[78.9602,30.7348],[78.9919,30.7317],[79.0002,30.749],[79.0184,30.7497],[79.0282,30.7677],[79.026,30.7977],[79.0354,30.8062],[79.0331,30.8097]]]}},{"type":"Feature","properties":{"district":"Pithoragarh","district_hi":"पिथौरागढ़"},"geometry":{"type":"Polygon","coordinates":[[[79.9872,30.3186],[79.9959,30.335],[79.9974,30.3657],[80.0379,30.407],[80.03,30.4133],[80.0375,30.444],[80.0201,30.449],[80.0088,30.4692],[80.0201,30.4812],[79.9952,30.5368],[80.0126,30.5757],[80.0428,30.5984],[80.03,30.6151],[80.0334,30.636],[79.9831,30.6894],[79.9797,30.7092],[80.0258,30.7345],[80.0995,30.7282],[80.1018,30.7279],[80.0935,30.7471],[80.0855,30.7724],[80.1018,30.7882],[80.1184,30.78],[80.1517,30.7891],[80.1555,30.8049],[80.1729,30.8084],[80.1994,30.779],[80.1979,30.7617],[80.213,30.7512],[80.2349,30.7598],[80.2493,30.7443],[80.2489,30.72],[80.2334,30.7092],[80.2326,30.6912],[80.1982,30.6865],[80.1933,30.6676],[80.2198,30.6426],[80.2126,30.5842],[80.2353,30.5813],[80.2546,30.5646],[80.3155,30.5649],[80.3468,30.5207],[80.3658,30.5283],[80.3858,30.5182],[80.4179,30.5245],[80.4448,30.4973],[80.4985,30.4872],[80.5408,30.4484],[80.6074,30.4718],[80.6131,30.4585],[80.624,30.4626],[80.6898,30.4143],[80.7084,30.4175],[80.7344,30.3998],[80.7866,30.354],[80.8036,30.3237],[80.8638,30.3142],[80.8846,30.2997],[80.9084,30.3038],[80.9356,30.263],[80.9995,30.2674],[81.0321,30.2469],[81.0268,30.2273],[81.0453,30.2097],[81.0286,30.1954],[80.9946,30.1863],[80.9742,30.1926],[80.9284,30.1749],[80.9163,30.1879],[80.9197,30.2157],[80.9073,30.2226],[80.8623,30.1696],[80.877,30.1285],[80.843,30.1152],[80.8365,30.0982],[80.8154,30.0969],[80.7617,30.0499],[80.7439,30.0044],[80.7189,30.0006],[80.6755,29.9573],[80.6293,29.964],[80.6021,29.957],[80.5726,29.9175],[80.5537,29.8493],[80.5072,29.8225],[80.4936,29.7947],[80.4353,29.8048],[80.4073,29.7944],[80.3979,29.759],[80.3661,29.7407],[80.3903,29.6671],[80.416,29.6523],[80.4206,29.6295],[80.4062,29.6131],[80.4085,29.5961],[80.3794,29.5613],[80.345,29.5522],[80.3415,29.5411],[80.3578,29.5313],[80.3419,29.5108],[80.3151,29.5001],[80.3124,29.483],[80.2973,29.4881],[80.2856,29.4754],[80.3003,29.4505],[80.2754,29.4571],[80.272,29.4486],[80.2429,29.4435],[80.1835,29.4574],[80.1612,29.4748],[80.1498,29.4713],[80.126,29.4994],[80.1082,29.5209],[80.1063,29.5222],[80.098,29.5222],[80.0765,29.5219],[80.075,29.5219],[80.0742,29.5231],[80.067,29.5373],[79.9993,29.5598],[79.9887,29.6138],[79.9589,29.6567],[79.9581,29.67],[79.9521,29.6813],[79.9445,29.6861],[79.9097,29.7012],[79.8893,29.7041],[79.89,29.7094],[79.8904,29.7123],[79.8908,29.7154],[79.8685,29.7388],[79.8326,29.7502],[79.8208,29.7732],[79.8231,29.7783],[79.8242,29.7811],[79.8246,29.7818],[79.87,29.7675],[79.9044,29.7985],[79.9093,29.7893],[79.9313,29.79],[79.9316,29.7666],[79.9876,29.7647],[80.0005,29.7701],[80.0035,29.778],[80.0375,29.7874],[80.033,29.8058],[80.0326,29.8064],[80.019,29.8108],[80.0197,29.8288],[79.9937,29.8452],[79.977,29.8418],[79.9781,29.8525],[80.0065,29.8512],[80.0129,29.8875],[80.0534,29.9027],[80.0855,29.8869],[80.1075,29.9065],[80.1487,29.898],[80.1585,29.9046],[80.1385,29.9415],[80.0908,29.969],[80.0674,30.0189],[80.0848,30.0625],[80.0825,30.1118],[80.1041,30.1484],[80.1162,30.2267],[80.0776,30.2378],[80.0731,30.263],[80.0606,30.2709],[80.0678,30.2813],[80.0417,30.2914],[80.025,30.3139],[79.9967,30.3158],[79.9868,30.3164],[79.9872,30.3186]]]}},{"type":"Feature","properties":{"district":"Bageshwar","district_hi":"बागेश्वर"},"geometry":{"type":"Polygon","coordinates":[[[79.4718,29.9794],[79.4843,30.0233],[79.5478,29.9959],[79.6102,30.0202],[79.7206,30.0015],[79.7781,30.006],[79.8129,30.0227],[79.8163,30.0477],[79.8292,30.059],[79.811,30.0764],[79.7887,30.0805],[79.7773,30.0979],[79.7819,30.113],[79.763,30.1332],[79.7823,30.1525],[79.7826,30.1809],[79.8015,30.2128],[79.822,30.2267],[79.8008,30.281],[79.8443,30.2883],[79.8734,30.2712],[79.9316,30.2984],[79.9551,30.2902],[79.96,30.2921],[79.9649,30.294],[79.977,30.299],[79.9797,30.3044],[79.9872,30.3186],[79.9868,30.3164],[79.9967,30.3158],[80.025,30.3139],[80.0417,30.2914],[80.0678,30.2813],[80.0606,30.2709],[80.0731,30.263],[80.0776,30.2378],[80.1162,30.2267],[80.1041,30.1484],[80.0825,30.1118],[80.0848,30.0625],[80.0674,30.0189],[80.0908,29.969],[80.1385,29.9415],[80.1585,29.9046],[80.1487,29.898],[80.1075,29.9065],[80.0855,29.8869],[80.0534,29.9027],[80.0129,29.8875],[80.0065,29.8512],[79.9781,29.8525],[79.977,29.8418],[79.9937,29.8452],[80.0197,29.8288],[80.019,29.8108],[80.0326,29.8064],[80.033,29.8058],[80.0375,29.7874],[80.0035,29.778],[80.0005,29.7701],[79.9876,29.7647],[79.9316,29.7666],[79.9313,29.79],[79.9093,29.7893],[79.9044,29.7985],[79.87,29.7675],[79.8246,29.7818],[79.8242,29.7811],[79.8231,29.7783],[79.8208,29.7732],[79.8326,29.7502],[79.8685,29.7388],[79.8908,29.7154],[79.8904,29.7123],[79.8825,29.7129],[79.8764,29.7154],[79.8046,29.7161],[79.7584,29.7009],[79.6964,29.7657],[79.7036,29.7972],[79.6889,29.8105],[79.7078,29.826],[79.6703,29.8433],[79.6408,29.8408],[79.6352,29.8497],[79.6106,29.8411],[79.575,29.8639],[79.5599,29.8594],[79.5077,29.8737],[79.4941,29.8964],[79.4873,29.9539],[79.4858,29.9659],[79.485,29.9731],[79.4847,29.975],[79.4779,29.9763],[79.4718,29.9794]]]}},{"type":"Feature","properties":{"district":"Haridwar","district_hi":"हरिद्वार"},"geometry":{"type":"Polygon","coordinates":[[[77.96,30.2409],[77.9558,30.2305],[78.0046,30.1762],[78.0356,30.1036],[78.0696,30.0754],[78.0692,30.042],[78.0991,30.0281],[78.0961,30.0113],[78.1297,30.0012],[78.1487,29.9678],[78.1717,29.964],[78.1891,29.9974],[78.1978,29.988],[78.1872,29.9621],[78.202,29.9662],[78.25,29.9299],[78.275,29.9226],[78.2666,29.9043],[78.3154,29.8623],[78.3317,29.7991],[78.3355,29.7975],[78.3358,29.7966],[78.2598,29.7385],[78.2039,29.7372],[78.1959,29.6927],[78.1717,29.6918],[78.1305,29.6526],[78.0813,29.6352],[78.0866,29.6251],[78.0575,29.6308],[78.0488,29.6147],[78.0182,29.5983],[78.0205,29.5815],[77.9951,29.5958],[77.9671,29.5803],[77.9331,29.6005],[77.9482,29.6169],[77.9777,29.6134],[77.9834,29.6438],[77.9838,29.6447],[77.9664,29.6501],[77.9698,29.6665],[77.9399,29.6962],[77.9497,29.7047],[77.9531,29.7075],[77.9486,29.7085],[77.9271,29.7139],[77.9127,29.6959],[77.8828,29.7025],[77.8749,29.6873],[77.8628,29.6895],[77.8344,29.6712],[77.8208,29.6738],[77.8204,29.6738],[77.7989,29.6864],[77.8106,29.7025],[77.7724,29.7167],[77.7826,29.7363],[77.7694,29.7454],[77.7803,29.765],[77.7747,29.7912],[77.7516,29.8108],[77.7592,29.8187],[77.7403,29.8348],[77.7418,29.8519],[77.7191,29.862],[77.716,29.867],[77.7153,29.879],[77.716,29.885],[77.7478,29.9112],[77.7304,29.9318],[77.7482,29.9517],[77.7334,29.9561],[77.7618,30.0094],[77.7818,30.0186],[77.7713,30.048],[77.8011,30.0957],[77.828,30.0859],[77.8367,30.1036],[77.8605,30.1133],[77.9119,30.1825],[77.9187,30.2112],[77.96,30.2409]]]}},{"type":"Feature","properties":{"district":"Pauri Garhwal","district_hi":"पौड़ी गढ़वाल"},"geometry":{"type":"Polygon","coordinates":[[[79.0763,30.221],[79.1012,30.2112],[79.0974,30.1967],[79.1394,30.1626],[79.1379,30.1516],[79.1345,30.1184],[79.1511,30.1121],[79.1602,30.0931],[79.1923,30.0846],[79.1931,30.0843],[79.2029,30.0631],[79.1893,30.0379],[79.1889,30.0372],[79.2177,30.0227],[79.2249,29.9782],[79.2302,29.9757],[79.2298,29.9668],[79.2321,29.963],[79.229,29.9532],[79.2271,29.9469],[79.2268,29.9453],[79.1923,29.9444],[79.1768,29.9078],[79.1587,29.9157],[79.0989,29.8935],[79.0846,29.8882],[79.0691,29.8664],[79.0679,29.8639],[79.0672,29.8626],[79.1035,29.8373],[79.1103,29.8326],[79.1163,29.8159],[79.1243,29.7928],[79.1269,29.7846],[79.1266,29.7837],[79.1231,29.778],[79.1201,29.7726],[79.1179,29.7729],[79.1092,29.7751],[79.1084,29.7388],[79.1205,29.7189],[79.1213,29.7183],[79.1209,29.718],[79.1046,29.699],[79.1163,29.6829],[79.1073,29.6643],[79.1054,29.6605],[79.1042,29.663],[79.0982,29.6738],[79.0967,29.6725],[79.094,29.67],[79.0831,29.6513],[79.0804,29.6431],[79.0944,29.6276],[79.0808,29.616],[79.0672,29.6207],[79.0608,29.5882],[79.0089,29.586],[78.9984,29.5623],[79.0063,29.5544],[78.97,29.5364],[78.9522,29.4587],[78.9261,29.4382],[78.9208,29.4344],[78.7998,29.4647],[78.745,29.5007],[78.711,29.5004],[78.7045,29.5054],[78.7004,29.5058],[78.627,29.555],[78.6168,29.5588],[78.6058,29.5692],[78.5347,29.6368],[78.5329,29.6387],[78.5215,29.658],[78.5132,29.723],[78.5113,29.7249],[78.3721,29.7824],[78.3355,29.7975],[78.3317,29.7991],[78.3154,29.8623],[78.2666,29.9043],[78.275,29.9226],[78.25,29.9299],[78.202,29.9662],[78.2315,29.9927],[78.2273,30.0158],[78.2451,30.0177],[78.2474,30.0341],[78.281,30.0609],[78.2912,30.1001],[78.3075,30.107],[78.3079,30.1096],[78.3026,30.1124],[78.3094,30.1174],[78.3097,30.12],[78.3328,30.1345],[78.3336,30.1342],[78.374,30.1168],[78.374,30.1171],[78.3748,30.1174],[78.3914,30.1285],[78.3918,30.1354],[78.4016,30.1354],[78.4062,30.1354],[78.41,30.1354],[78.4255,30.113],[78.4387,30.1111],[78.4349,30.0805],[78.4769,30.0669],[78.4799,30.0562],[78.4973,30.0754],[78.5113,30.0549],[78.5325,30.0758],[78.5881,30.0533],[78.5911,30.0663],[78.6021,30.0682],[78.5824,30.0723],[78.5922,30.0871],[78.579,30.1039],[78.5881,30.108],[78.5869,30.1222],[78.6013,30.1269],[78.5975,30.1449],[78.6172,30.1509],[78.6206,30.1784],[78.6448,30.1945],[78.6471,30.2074],[78.6803,30.2103],[78.683,30.2387],[78.7163,30.2368],[78.7484,30.2131],[78.7873,30.2286],[78.8066,30.2198],[78.8267,30.2434],[78.8445,30.2365],[78.8475,30.2466],[78.8558,30.2444],[78.8781,30.2602],[78.8792,30.2596],[78.8804,30.2602],[78.8974,30.251],[78.8959,30.2469],[78.8993,30.2444],[78.891,30.2362],[78.891,30.2359],[78.9152,30.2302],[78.9148,30.2043],[78.9023,30.2097],[78.8989,30.18],[78.9825,30.179],[79.0033,30.1822],[79.0222,30.1891],[79.0388,30.2163],[79.0759,30.2204],[79.0763,30.221]]]}},{"type":"Feature","properties":{"district":"Almora","district_hi":"अल्मोड़ा"},"geometry":{"type":"Polygon","coordinates":[[[79.2302,29.9757],[79.2381,29.9722],[79.2846,29.9517],[79.2823,29.9258],[79.3251,29.9292],[79.3353,29.9431],[79.3251,29.9728],[79.3391,29.9728],[79.3739,29.927],[79.4049,29.9425],[79.4245,29.9346],[79.4699,29.9779],[79.4718,29.9794],[79.4779,29.9763],[79.4847,29.975],[79.485,29.9731],[79.4858,29.9659],[79.4873,29.9539],[79.4941,29.8964],[79.5077,29.8737],[79.5599,29.8594],[79.575,29.8639],[79.6106,29.8411],[79.6352,29.8497],[79.6408,29.8408],[79.6703,29.8433],[79.7078,29.826],[79.6889,29.8105],[79.7036,29.7972],[79.6964,29.7657],[79.7584,29.7009],[79.8046,29.7161],[79.8764,29.7154],[79.8825,29.7129],[79.8904,29.7123],[79.89,29.7094],[79.8893,29.7041],[79.9097,29.7012],[79.9445,29.6861],[79.9521,29.6813],[79.9581,29.67],[79.9589,29.6567],[79.9887,29.6138],[79.9993,29.5598],[80.067,29.5373],[80.0742,29.5231],[80.075,29.5219],[80.0765,29.5219],[80.078,29.5209],[80.0613,29.5146],[80.025,29.5004],[79.957,29.4742],[79.9611,29.4944],[79.9532,29.4994],[79.946,29.477],[79.9271,29.4726],[79.9097,29.49],[79.887,29.4836],[79.8617,29.4489],[79.8507,29.4524],[79.8484,29.4322],[79.8318,29.4265],[79.8292,29.4255],[79.7781,29.4514],[79.7637,29.4334],[79.7358,29.4315],[79.7267,29.4467],[79.7339,29.4615],[79.71,29.4596],[79.6896,29.4739],[79.6798,29.5272],[79.648,29.5478],[79.6321,29.5424],[79.6212,29.556],[79.572,29.5395],[79.5505,29.5405],[79.5497,29.5512],[79.5274,29.549],[79.5168,29.5121],[79.5013,29.4969],[79.482,29.4966],[79.3803,29.5882],[79.35,29.5942],[79.3485,29.6068],[79.336,29.6119],[79.3357,29.6115],[79.2873,29.5901],[79.2865,29.5784],[79.2192,29.5231],[79.1515,29.5389],[79.147,29.5399],[79.1409,29.5528],[79.1088,29.5443],[79.1099,29.5585],[79.077,29.5822],[79.0369,29.5847],[79.0608,29.5882],[79.0672,29.6207],[79.0808,29.616],[79.0944,29.6276],[79.0804,29.6431],[79.0831,29.6513],[79.094,29.67],[79.0967,29.6725],[79.0982,29.6738],[79.1042,29.663],[79.1054,29.6605],[79.1073,29.6643],[79.1163,29.6829],[79.1046,29.699],[79.1209,29.718],[79.1213,29.7183],[79.1205,29.7189],[79.1084,29.7388],[79.1092,29.7751],[79.1179,29.7729],[79.1201,29.7726],[79.1231,29.778],[79.1266,29.7837],[79.1269,29.7846],[79.1243,29.7928],[79.1163,29.8159],[79.1103,29.8326],[79.1035,29.8373],[79.0672,29.8626],[79.0679,29.8639],[79.0691,29.8664],[79.0846,29.8882],[79.0989,29.8935],[79.1587,29.9157],[79.1768,29.9078],[79.1923,29.9444],[79.2268,29.9453],[79.2271,29.9469],[79.229,29.9532],[79.2321,29.963],[79.2298,29.9668],[79.2302,29.9757]]]}},{"type":"Feature","properties":{"district":"Nainital","district_hi":"नैनीताल"},"geometry":{"type":"Polygon","coordinates":[[[78.9261,29.4382],[78.9522,29.4587],[78.97,29.5364],[79.0063,29.5544],[78.9984,29.5623],[79.0089,29.586],[79.0608,29.5882],[79.0369,29.5847],[79.077,29.5822],[79.1099,29.5585],[79.1088,29.5443],[79.1409,29.5528],[79.147,29.5399],[79.1515,29.5389],[79.2192,29.5231],[79.2865,29.5784],[79.2873,29.5901],[79.3357,29.6115],[79.336,29.6119],[79.3485,29.6068],[79.35,29.5942],[79.3803,29.5882],[79.482,29.4966],[79.5013,29.4969],[79.5168,29.5121],[79.5274,29.549],[79.5497,29.5512],[79.5505,29.5405],[79.572,29.5395],[79.6212,29.556],[79.6321,29.5424],[79.648,29.5478],[79.6798,29.5272],[79.6896,29.4739],[79.71,29.4596],[79.7339,29.4615],[79.7267,29.4467],[79.7358,29.4315],[79.7637,29.4334],[79.7781,29.4514],[79.8292,29.4255],[79.8318,29.4265],[79.8484,29.4322],[79.8564,29.4328],[79.8333,29.3978],[79.8594,29.3797],[79.8579,29.37],[79.8919,29.3696],[79.8999,29.3482],[79.8711,29.345],[79.8579,29.3109],[79.8318,29.3232],[79.8322,29.3381],[79.7936,29.3365],[79.8182,29.3081],[79.8121,29.2926],[79.8189,29.2714],[79.856,29.2768],[79.8685,29.2604],[79.9067,29.25],[79.9267,29.2143],[79.9006,29.1821],[79.8806,29.1735],[79.8779,29.1581],[79.9105,29.1287],[79.9411,29.1328],[79.9747,29.1205],[79.9744,29.1202],[79.9732,29.118],[79.9539,29.082],[79.9649,29.0608],[79.9713,29.0557],[79.9725,29.0548],[79.9123,29.0333],[79.8961,28.9935],[79.8794,28.9935],[79.876,28.9784],[79.8575,29.0131],[79.8118,28.985],[79.8125,28.9926],[79.7932,28.9983],[79.8065,29.0163],[79.8004,29.0251],[79.7736,29.0254],[79.7641,29.0371],[79.7463,29.0257],[79.7104,29.0311],[79.6828,29.063],[79.6518,29.0775],[79.6276,29.0501],[79.4158,29.0516],[79.4355,29.0835],[79.3837,29.1442],[79.2771,29.2395],[79.1345,29.2752],[79.108,29.2553],[79.0759,29.2781],[79.0418,29.2544],[79.0123,29.2897],[79.0294,29.3055],[79.0188,29.3254],[78.9564,29.3179],[78.9273,29.3412],[78.9261,29.3412],[78.8815,29.3482],[78.8687,29.3501],[78.8501,29.3475],[78.852,29.3605],[78.8717,29.3624],[78.8777,29.375],[78.9023,29.3851],[78.9258,29.4259],[78.9431,29.4347],[78.9261,29.4382]]]}},{"type":"Feature","properties":{"district":"Champawat","district_hi":"चंपावत"},"geometry":{"type":"Polygon","coordinates":[[[80.0765,29.5219],[80.098,29.5222],[80.1063,29.5222],[80.1082,29.5209],[80.126,29.4994],[80.1498,29.4713],[80.1612,29.4748],[80.1835,29.4574],[80.2429,29.4435],[80.2429,29.411],[80.275,29.3914],[80.2716,29.363],[80.3185,29.3021],[80.3052,29.2872],[80.2909,29.2332],[80.292,29.1969],[80.2587,29.207],[80.2542,29.2209],[80.244,29.2127],[80.2413,29.201],[80.2584,29.1877],[80.2712,29.1404],[80.2338,29.1192],[80.1842,29.1366],[80.1657,29.1259],[80.1445,29.1025],[80.1294,29.0621],[80.1381,29.0602],[80.1249,29.0115],[80.1358,29.0074],[80.1181,28.9815],[80.1007,28.9869],[80.0734,28.9386],[80.0738,28.9408],[80.0772,28.9468],[80.0738,28.9496],[80.0613,28.9594],[80.0594,28.961],[80.0591,28.962],[80.0519,28.9866],[80.0583,29.0046],[80.0152,29.0927],[80.0148,29.093],[80.0073,29.0741],[79.9713,29.0557],[79.9649,29.0608],[79.9539,29.082],[79.9732,29.118],[79.9744,29.1202],[79.9747,29.1205],[79.9411,29.1328],[79.9105,29.1287],[79.8779,29.1581],[79.8806,29.1735],[79.9006,29.1821],[79.9267,29.2143],[79.9067,29.25],[79.8685,29.2604],[79.856,29.2768],[79.8189,29.2714],[79.8121,29.2926],[79.8182,29.3081],[79.7936,29.3365],[79.8322,29.3381],[79.8318,29.3232],[79.8579,29.3109],[79.8711,29.345],[79.8999,29.3482],[79.8919,29.3696],[79.8579,29.37],[79.8594,29.3797],[79.8333,29.3978],[79.8564,29.4328],[79.8484,29.4322],[79.8507,29.4524],[79.8617,29.4489],[79.887,29.4836],[79.9097,29.49],[79.9271,29.4726],[79.946,29.477],[79.9532,29.4994],[79.9611,29.4944],[79.957,29.4742],[80.025,29.5004],[80.0613,29.5146],[80.078,29.5209],[80.0765,29.5219]]]}},{"type":"Feature","properties":{"district":"Udham Singh Nagar","district_hi":"उधम सिंह नगर"},"geometry":{"type":"Polygon","coordinates":[[[78.8501,29.3475],[78.8687,29.3501],[78.8815,29.3482],[78.9261,29.3412],[78.9273,29.3412],[78.9564,29.3179],[79.0188,29.3254],[79.0294,29.3055],[79.0123,29.2897],[79.0418,29.2544],[79.0759,29.2781],[79.108,29.2553],[79.1345,29.2752],[79.2771,29.2395],[79.3837,29.1442],[79.4355,29.0835],[79.4158,29.0516],[79.6276,29.0501],[79.6518,29.0775],[79.6828,29.063],[79.7104,29.0311],[79.7463,29.0257],[79.7641,29.0371],[79.7736,29.0254],[79.8004,29.0251],[79.8065,29.0163],[79.7932,28.9983],[79.8125,28.9926],[79.8118,28.985],[79.8575,29.0131],[79.876,28.9784],[79.8794,28.9935],[79.8961,28.9935],[79.9123,29.0333],[79.9725,29.0548],[79.9713,29.0557],[80.0073,29.0741],[80.0148,29.093],[80.0152,29.0927],[80.0583,29.0046],[80.0519,28.9866],[80.0591,28.962],[80.0594,28.961],[80.0613,28.9594],[80.0738,28.9496],[80.0772,28.9468],[80.0738,28.9408],[80.0591,28.9158],[80.0651,28.8366],[80.0519,28.8205],[80.0681,28.8028],[80.0617,28.7832],[80.03,28.7488],[79.9543,28.7229],[79.9388,28.7504],[79.9434,28.7598],[79.9241,28.7731],[79.94,28.7876],[79.9014,28.782],[79.873,28.7974],[79.8696,28.8085],[79.8783,28.8148],[79.9154,28.8044],[79.9146,28.8186],[79.8942,28.8205],[79.8881,28.8366],[79.8783,28.8303],[79.8632,28.8404],[79.8462,28.8233],[79.8492,28.7996],[79.8087,28.8],[79.8163,28.817],[79.8242,28.8072],[79.8371,28.8325],[79.8239,28.8391],[79.8367,28.8401],[79.8307,28.8552],[79.8405,28.8476],[79.8496,28.8593],[79.8447,28.8751],[79.8329,28.8707],[79.8197,28.8871],[79.8186,28.8874],[79.8133,28.8874],[79.7997,28.8874],[79.7978,28.8855],[79.7834,28.8713],[79.749,28.872],[79.7456,28.86],[79.7263,28.8609],[79.7066,28.841],[79.6828,28.8546],[79.6836,28.8555],[79.656,28.8697],[79.5845,28.8464],[79.5735,28.8546],[79.5841,28.8792],[79.5565,28.8994],[79.5217,28.8647],[79.4665,28.8701],[79.4518,28.8716],[79.448,28.8685],[79.4257,28.8666],[79.4257,28.8672],[79.431,28.8868],[79.4268,28.8918],[79.4219,28.8972],[79.4276,28.9127],[79.4079,28.9518],[79.3852,28.9518],[79.3723,28.9875],[79.3621,28.9815],[79.3648,28.9683],[79.3118,28.9771],[79.3073,28.9664],[79.2593,28.9926],[79.251,29.0103],[79.2116,29.0276],[79.1712,29.0118],[79.1625,29.0292],[79.175,29.0463],[79.1424,29.0671],[79.1534,29.1151],[79.1201,29.1306],[79.1118,29.1281],[79.0366,29.1691],[79.029,29.1641],[79.0392,29.1584],[79.0377,29.1457],[79.0373,29.1448],[79.0188,29.1536],[79.0176,29.148],[79.0169,29.1334],[79.0403,29.1277],[79.0407,29.1277],[79.04,29.1271],[79.0309,29.117],[79.0267,29.1126],[79.0082,29.112],[78.9874,29.1369],[78.9806,29.1413],[78.9791,29.1404],[78.9749,29.1309],[78.9745,29.1312],[78.9564,29.1199],[78.9348,29.1296],[78.9269,29.118],[78.9068,29.1249],[78.9065,29.1249],[78.9189,29.1356],[78.9016,29.1697],[78.9087,29.1786],[78.8751,29.2051],[78.8834,29.2114],[78.8743,29.2304],[78.8584,29.2329],[78.8584,29.2417],[78.8494,29.2329],[78.838,29.2427],[78.8199,29.232],[78.8191,29.2323],[78.8187,29.2326],[78.8078,29.2367],[78.8036,29.2408],[78.7601,29.2642],[78.7715,29.2648],[78.765,29.2793],[78.725,29.3033],[78.7344,29.303],[78.7337,29.322],[78.7503,29.3175],[78.7666,29.3374],[78.7775,29.3257],[78.7934,29.3283],[78.796,29.3119],[78.8047,29.3194],[78.7998,29.3346],[78.8259,29.3636],[78.8274,29.3551],[78.8274,29.3545],[78.8274,29.3542],[78.8286,29.3539],[78.8452,29.3469],[78.8497,29.345],[78.8501,29.3475]]]}}]}