{"type":"FeatureCollection","features":[{"type":"Feature","properties":{"district":"South 24 Parganas","district_hi":"दक्षिण 24 परगना"},"geometry":{"type":"MultiPolygon","coordinates":[[[[88.0509,21.5091],[88.0449,21.5084],[88.0495,21.5163],[88.0509,21.5091]]],[[[88.0611,21.5081],[88.0733,21.5312],[88.0749,21.517],[88.0611,21.5081]]],[[[88.2365,21.4869],[88.2276,21.4839],[88.2055,21.5034],[88.2157,21.5405],[88.2276,21.5385],[88.2428,21.5051],[88.2365,21.4869]]],[[[88.5903,21.5554],[88.5857,21.5627],[88.5936,21.5663],[88.5903,21.5554]]],[[[88.3338,21.5428],[88.3397,21.573],[88.3413,21.5577],[88.3338,21.5428]]],[[[88.6012,21.5789],[88.5949,21.5826],[88.6008,21.5849],[88.6012,21.5789]]],[[[88.0835,21.5723],[88.0776,21.5739],[88.0759,21.5882],[88.0835,21.5723]]],[[[89.1304,21.5902],[89.1369,21.5885],[89.1231,21.5859],[89.1304,21.5902]]],[[[88.0904,21.5849],[88.0822,21.5872],[88.0835,21.5925],[88.0904,21.5849]]],[[[88.3591,21.5677],[88.344,21.5822],[88.3446,21.5931],[88.3591,21.5677]]],[[[88.0387,21.5779],[88.0479,21.5812],[88.0545,21.5504],[88.0443,21.5686],[88.037,21.5458],[88.0255,21.562],[88.0159,21.5319],[87.9918,21.513],[88.0166,21.5955],[88.0387,21.5779]]],[[[88.1979,21.5422],[88.1729,21.5534],[88.1636,21.5974],[88.1893,21.5782],[88.1979,21.5422]]],[[[88.5194,21.5865],[88.5349,21.5782],[88.5435,21.5312],[88.5102,21.5326],[88.4858,21.5581],[88.4966,21.5978],[88.5194,21.5865]]],[[[88.8379,21.6051],[88.8926,21.5816],[88.9045,21.5475],[88.8699,21.5322],[88.8333,21.5534],[88.8297,21.6054],[88.8379,21.6051]]],[[[88.0792,21.6077],[88.0743,21.6133],[88.0776,21.6216],[88.0792,21.6077]]],[[[88.7736,21.6329],[88.7898,21.6047],[88.7851,21.5948],[88.7983,21.5955],[88.7931,21.5826],[88.7538,21.564],[88.7123,21.5786],[88.7057,21.6001],[88.7185,21.6359],[88.7304,21.6306],[88.7321,21.6408],[88.7706,21.6521],[88.7736,21.6329]]],[[[88.5847,21.6014],[88.5659,21.563],[88.5491,21.565],[88.5316,21.5974],[88.5135,21.5988],[88.5214,21.6514],[88.5847,21.6014]]],[[[88.9609,21.6421],[88.9833,21.6415],[88.9652,21.6481],[88.947,21.7034],[88.9249,21.7206],[88.9272,21.7636],[88.9665,21.7408],[88.9777,21.7418],[88.9658,21.7229],[88.9876,21.6908],[88.9846,21.6594],[89.014,21.6521],[89.0202,21.5991],[88.9939,21.6011],[88.9902,21.6392],[88.9859,21.6408],[88.9902,21.6196],[88.9691,21.6193],[88.9401,21.6408],[88.9513,21.6739],[88.9609,21.6421]]],[[[88.6345,21.6511],[88.6272,21.6584],[88.6411,21.6786],[88.6345,21.6511]]],[[[87.9503,21.5922],[87.9444,21.5984],[87.9678,21.6332],[87.974,21.6822],[87.9859,21.6868],[87.9902,21.6229],[87.9503,21.5922]]],[[[88.6051,21.615],[88.5596,21.6415],[88.5738,21.6888],[88.6051,21.615]]],[[[87.9806,21.6918],[87.979,21.7024],[87.9869,21.6991],[87.9806,21.6918]]],[[[87.9071,21.6868],[87.9022,21.6868],[87.9081,21.704],[87.9071,21.6868]]],[[[88.3206,21.607],[88.3087,21.607],[88.3051,21.621],[88.3156,21.656],[88.312,21.7067],[88.3377,21.6978],[88.3493,21.6802],[88.3433,21.6306],[88.3206,21.607]]],[[[88.2058,21.6716],[88.225,21.666],[88.2273,21.6527],[88.2121,21.5958],[88.1798,21.6713],[88.1818,21.6862],[88.2071,21.709],[88.1936,21.6842],[88.2058,21.6716]]],[[[87.9562,21.705],[87.9473,21.7044],[87.9523,21.7117],[87.9562,21.705]]],[[[88.5421,21.7011],[88.5626,21.7021],[88.5659,21.6769],[88.5464,21.6408],[88.5303,21.656],[88.5217,21.7166],[88.5421,21.7011]]],[[[88.74,21.6577],[88.7446,21.6507],[88.7261,21.6438],[88.6862,21.6782],[88.6905,21.7176],[88.7103,21.6746],[88.74,21.6577]]],[[[87.9282,21.6891],[87.9233,21.7097],[87.9407,21.7236],[87.9282,21.6891]]],[[[88.1834,21.6944],[88.2002,21.7236],[88.2009,21.7103],[88.1834,21.6944]]],[[[89.0067,21.6594],[88.9912,21.6587],[88.9915,21.7004],[88.9754,21.7239],[89.0084,21.7087],[89.0163,21.6855],[89.0067,21.6594]]],[[[87.9849,21.7219],[87.9783,21.7242],[87.9866,21.7302],[87.9849,21.7219]]],[[[87.9543,21.7312],[87.9477,21.7299],[87.9599,21.7398],[87.9543,21.7312]]],[[[88.9203,21.6312],[88.8916,21.6511],[88.8672,21.7011],[88.8821,21.7411],[88.9368,21.7007],[88.9203,21.6312]]],[[[88.4063,21.7328],[88.4205,21.7027],[88.4096,21.6537],[88.4304,21.6256],[88.399,21.5888],[88.3862,21.6054],[88.3961,21.6193],[88.3862,21.6322],[88.3826,21.6812],[88.4037,21.7199],[88.3707,21.7262],[88.3908,21.7418],[88.4063,21.7328]]],[[[88.2015,21.7312],[88.1973,21.7421],[88.2052,21.76],[88.2015,21.7312]]],[[[88.3717,21.7183],[88.3905,21.717],[88.3928,21.708],[88.3624,21.6865],[88.342,21.7057],[88.3473,21.7597],[88.3667,21.762],[88.3595,21.7352],[88.3717,21.7183]]],[[[88.8376,21.766],[88.862,21.7613],[88.8392,21.7193],[88.8564,21.6418],[88.8386,21.619],[88.8043,21.6355],[88.8211,21.6673],[88.8168,21.709],[88.8039,21.7163],[88.768,21.7034],[88.7917,21.7365],[88.7891,21.7464],[88.8376,21.766]]],[[[88.3845,21.7454],[88.3631,21.7378],[88.372,21.7646],[88.3859,21.7603],[88.3845,21.7454]]],[[[87.9427,21.7458],[87.9318,21.7444],[87.9569,21.7716],[87.9572,21.7567],[87.9427,21.7458]]],[[[88.3018,21.7189],[88.2853,21.7348],[88.2919,21.7722],[88.3018,21.7189]]],[[[87.8814,21.7454],[87.8804,21.7577],[87.9018,21.7722],[87.8814,21.7454]]],[[[88.5949,21.7232],[88.5817,21.7269],[88.5758,21.7726],[88.5932,21.7573],[88.589,21.7722],[88.5959,21.7848],[88.6134,21.7858],[88.6252,21.7756],[88.6292,21.7355],[88.6091,21.7064],[88.6005,21.713],[88.6193,21.7405],[88.5979,21.753],[88.613,21.7401],[88.5949,21.7232]]],[[[88.1257,21.6736],[88.1369,21.6703],[88.1468,21.6438],[88.1208,21.6239],[88.0476,21.6418],[88.0334,21.663],[88.0327,21.6875],[88.073,21.7481],[88.0739,21.7772],[88.0914,21.7855],[88.1211,21.7742],[88.1303,21.7567],[88.1208,21.7325],[88.1346,21.7064],[88.128,21.6812],[88.1422,21.6987],[88.128,21.7305],[88.1363,21.76],[88.1115,21.7904],[88.0842,21.7924],[88.1039,21.8421],[88.133,21.8735],[88.1659,21.8229],[88.1709,21.7378],[88.1491,21.6805],[88.1366,21.6779],[88.1277,21.6809],[88.1257,21.6736]]],[[[88.2754,21.7789],[88.2678,21.7878],[88.2794,21.7855],[88.2754,21.7789]]],[[[88.4501,21.7914],[88.468,21.7898],[88.4538,21.76],[88.4515,21.7189],[88.4706,21.6746],[88.4528,21.611],[88.432,21.6011],[88.4383,21.6292],[88.4175,21.6577],[88.4211,21.6888],[88.4333,21.7007],[88.4241,21.7527],[88.4501,21.7914]]],[[[88.3542,21.7961],[88.3694,21.7924],[88.3677,21.7703],[88.342,21.761],[88.343,21.7282],[88.3242,21.7276],[88.3275,21.7074],[88.3143,21.7103],[88.3064,21.7153],[88.3018,21.7775],[88.3542,21.7961]]],[[[88.1827,21.7805],[88.1758,21.7825],[88.1752,21.7987],[88.1827,21.7805]]],[[[88.4244,21.7977],[88.4383,21.7938],[88.4188,21.7663],[88.4201,21.7266],[88.3819,21.7795],[88.4178,21.8077],[88.4244,21.7977]]],[[[88.5553,21.7613],[88.5705,21.7567],[88.5672,21.7332],[88.6071,21.6852],[88.5965,21.6577],[88.5843,21.6888],[88.5329,21.7206],[88.5346,21.7295],[88.5197,21.7252],[88.5078,21.7471],[88.5121,21.7799],[88.5438,21.8113],[88.5679,21.7921],[88.5553,21.7613]]],[[[89.0146,21.7782],[89.0545,21.7368],[89.0539,21.7223],[89.0743,21.7037],[89.0638,21.6925],[89.0763,21.6868],[89.072,21.6756],[89.0928,21.6521],[89.0908,21.6332],[89.0713,21.6117],[89.0377,21.611],[89.0212,21.6471],[89.0321,21.659],[89.0169,21.661],[89.0212,21.6882],[89.0123,21.714],[88.977,21.7289],[88.981,21.7468],[88.9563,21.7597],[88.9793,21.7799],[89.0028,21.7775],[88.9929,21.7895],[89.0011,21.8116],[89.0113,21.8083],[89.0146,21.7782]]],[[[88.8208,21.764],[88.7914,21.7567],[88.7855,21.7719],[88.8231,21.8226],[88.829,21.8057],[88.8208,21.764]]],[[[88.4867,21.8024],[88.4574,21.808],[88.4864,21.8355],[88.4986,21.8156],[88.4867,21.8024]]],[[[88.6078,21.7981],[88.589,21.8017],[88.5754,21.8179],[88.5886,21.8487],[88.614,21.8308],[88.6078,21.7981]]],[[[88.5204,21.8282],[88.4976,21.8328],[88.5026,21.853],[88.524,21.8451],[88.5204,21.8282]]],[[[88.19,21.8338],[88.1801,21.8394],[88.1742,21.8557],[88.19,21.8338]]],[[[88.3595,21.8047],[88.2912,21.7785],[88.2622,21.8053],[88.3044,21.8305],[88.3291,21.86],[88.3516,21.854],[88.3558,21.8272],[88.3727,21.906],[88.3532,21.9391],[88.3509,21.9712],[88.3473,21.9354],[88.3657,21.9053],[88.3634,21.8821],[88.3535,21.8669],[88.3117,21.8596],[88.3051,21.8769],[88.2922,21.8643],[88.2606,21.8649],[88.2747,21.8994],[88.2767,21.9457],[88.2724,21.9599],[88.2616,21.9623],[88.2705,21.952],[88.2701,21.8994],[88.254,21.86],[88.2981,21.8563],[88.3038,21.8431],[88.2625,21.8183],[88.2559,21.801],[88.2813,21.7573],[88.2681,21.7282],[88.3024,21.6699],[88.2863,21.6107],[88.3028,21.5816],[88.2599,21.5564],[88.2358,21.5736],[88.22,21.6041],[88.2362,21.6451],[88.2299,21.6696],[88.2029,21.6825],[88.22,21.7021],[88.2101,21.7249],[88.2121,21.7832],[88.194,21.8437],[88.164,21.8835],[88.1646,21.9434],[88.1458,21.9553],[88.2078,22.0265],[88.2223,22.0728],[88.2193,22.1026],[88.1831,22.1874],[88.1033,22.2149],[88.0667,22.2096],[88.0838,22.2403],[88.0815,22.2612],[88.0812,22.2662],[88.0898,22.2864],[88.096,22.3062],[88.0904,22.3635],[88.1412,22.4102],[88.1412,22.4125],[88.1297,22.438],[88.1198,22.4602],[88.1181,22.4641],[88.1204,22.4648],[88.1692,22.482],[88.2085,22.5161],[88.2398,22.5224],[88.2335,22.5452],[88.2388,22.5446],[88.2579,22.5419],[88.2599,22.534],[88.2879,22.5383],[88.2883,22.5383],[88.2916,22.5168],[88.342,22.5039],[88.3605,22.5095],[88.3677,22.5125],[88.373,22.5343],[88.3924,22.5512],[88.4014,22.5591],[88.402,22.5595],[88.403,22.5588],[88.4135,22.5568],[88.434,22.5373],[88.4544,22.5231],[88.4653,22.5648],[88.4663,22.573],[88.4673,22.5727],[88.4726,22.5707],[88.5214,22.5502],[88.5214,22.5618],[88.555,22.5929],[88.5435,22.6065],[88.553,22.6065],[88.5606,22.6244],[88.5932,22.6128],[88.5906,22.5972],[88.6229,22.581],[88.6233,22.5807],[88.6272,22.5585],[88.6289,22.5485],[88.6295,22.5482],[88.6516,22.5207],[88.6569,22.5144],[88.6496,22.4952],[88.6655,22.4926],[88.7034,22.4598],[88.7034,22.4588],[88.703,22.434],[88.7334,22.4208],[88.7334,22.4112],[88.7548,22.3986],[88.7509,22.3916],[88.7667,22.3933],[88.766,22.38],[88.7739,22.388],[88.772,22.3711],[88.8221,22.3711],[88.8043,22.3291],[88.8155,22.2629],[88.8508,22.2874],[88.8643,22.2725],[88.8765,22.2758],[88.8956,22.2523],[88.9061,22.2516],[88.9121,22.2728],[88.9289,22.2625],[88.9493,22.2496],[88.9526,22.248],[88.9533,22.246],[88.9701,22.2006],[89.0183,22.199],[89.0189,22.1645],[89.0545,22.1308],[89.0558,22.1294],[89.0552,22.1281],[89.0423,22.0977],[89.0522,22.0536],[89.0786,22.0195],[89.0687,21.9487],[89.0308,21.9285],[89.0004,21.9484],[89.0061,21.9626],[88.9952,21.9623],[88.9873,21.9497],[89.0123,21.9275],[89.0077,21.9027],[88.9721,21.9225],[88.9734,21.9444],[88.9579,21.9292],[88.9325,21.9427],[88.9305,21.9649],[88.946,21.995],[88.9371,22.0546],[88.9754,22.0708],[88.9873,22.1102],[88.9728,22.0848],[88.9299,22.0632],[88.9325,22.0033],[88.921,21.9841],[88.9124,22.0281],[88.9253,22.0553],[88.9038,22.0689],[88.9279,22.1049],[88.8923,22.0682],[88.8897,22.0536],[88.9061,22.053],[88.9012,21.9311],[88.8531,21.9225],[88.7888,21.9553],[88.7634,21.9553],[88.7584,21.9838],[88.8168,21.9682],[88.765,21.9897],[88.7654,21.998],[88.7466,21.9894],[88.7624,22.0156],[88.7558,22.0473],[88.7729,22.0546],[88.7505,22.0589],[88.7795,22.0894],[88.7842,22.1076],[88.7502,22.0821],[88.741,22.0533],[88.7034,22.0735],[88.7485,22.1311],[88.7736,22.1407],[88.7611,22.148],[88.739,22.145],[88.6872,22.0775],[88.6988,22.055],[88.738,22.0331],[88.7383,22.0136],[88.6899,21.9742],[88.6951,21.9573],[88.6823,21.9454],[88.6331,21.955],[88.6331,21.994],[88.6572,22.0245],[88.6615,22.0566],[88.6374,22.1126],[88.6562,22.1685],[88.6839,22.2072],[88.703,22.2086],[88.6404,22.2158],[88.6589,22.237],[88.6608,22.2456],[88.6503,22.2486],[88.6318,22.2125],[88.6734,22.2039],[88.6407,22.1645],[88.6411,22.1407],[88.6078,22.101],[88.6226,22.0953],[88.6374,22.0473],[88.6216,22.0228],[88.6018,22.0305],[88.617,22.0139],[88.5989,21.9821],[88.614,21.9398],[88.6015,21.9384],[88.6068,21.9179],[88.5936,21.8957],[88.5797,21.8918],[88.5715,21.911],[88.5672,21.9004],[88.5435,21.904],[88.5477,21.8848],[88.5319,21.8533],[88.4963,21.8792],[88.5257,21.9182],[88.5019,21.897],[88.5257,21.9252],[88.5016,21.9676],[88.5098,21.9808],[88.5402,21.9884],[88.5144,21.9897],[88.4983,21.9765],[88.5052,21.9255],[88.4706,21.901],[88.4567,21.904],[88.4541,21.9447],[88.4656,21.9616],[88.4459,21.9874],[88.4604,21.9586],[88.4511,21.9454],[88.4432,21.9503],[88.4449,21.9172],[88.4119,21.906],[88.401,21.8911],[88.3911,21.8967],[88.4017,21.9225],[88.3829,21.9666],[88.4073,21.9927],[88.3882,22.0043],[88.4027,21.9881],[88.3746,21.9662],[88.3951,21.9245],[88.3796,21.9004],[88.3924,21.8868],[88.3789,21.8441],[88.3819,21.7951],[88.3634,21.8037],[88.3558,21.8269],[88.3595,21.8047]]],[[[88.8949,21.7845],[88.8979,21.753],[88.9233,21.7494],[88.9111,21.7345],[88.8827,21.7524],[88.8666,21.7799],[88.8359,21.7885],[88.8501,21.8623],[88.8715,21.852],[88.8798,21.8014],[88.8949,21.7845]]],[[[88.1692,21.8623],[88.1636,21.8626],[88.1626,21.8659],[88.1692,21.8623]]],[[[88.5735,21.8775],[88.5583,21.8328],[88.557,21.8735],[88.5735,21.8775]]],[[[88.5553,21.8183],[88.5332,21.8431],[88.5557,21.8825],[88.5553,21.8183]]],[[[88.0944,21.8669],[88.0917,21.8937],[88.1036,21.8898],[88.0944,21.8669]]],[[[88.982,21.8961],[89.0248,21.8666],[89.0278,21.8315],[89.0173,21.8183],[88.9948,21.8163],[88.9662,21.7802],[88.9516,21.7951],[88.9793,21.8179],[88.9549,21.8308],[88.9516,21.8457],[88.9764,21.8696],[88.9734,21.8931],[88.982,21.8961]]],[[[88.6325,21.8699],[88.6536,21.8686],[88.6411,21.7891],[88.6209,21.802],[88.617,21.8368],[88.5969,21.8586],[88.6193,21.8967],[88.6325,21.8699]]],[[[88.5731,21.8848],[88.5593,21.8841],[88.5623,21.8941],[88.5725,21.897],[88.5731,21.8848]]],[[[88.8376,21.8778],[88.8316,21.8699],[88.8059,21.8729],[88.8175,21.9007],[88.833,21.897],[88.8376,21.8778]]],[[[88.7772,21.8689],[88.8264,21.861],[88.8151,21.8189],[88.7927,21.8001],[88.7799,21.7709],[88.7815,21.7385],[88.7568,21.7438],[88.7657,21.7679],[88.7565,21.7736],[88.7713,21.809],[88.7449,21.7759],[88.7532,21.7626],[88.7489,21.7375],[88.7696,21.7229],[88.7548,21.712],[88.7604,21.6895],[88.8039,21.7027],[88.8086,21.6683],[88.7947,21.6527],[88.7891,21.6666],[88.7825,21.659],[88.7462,21.662],[88.7096,21.6948],[88.6912,21.7507],[88.7116,21.7931],[88.7143,21.8136],[88.6974,21.8368],[88.6958,21.8596],[88.7159,21.9047],[88.7772,21.8689]]],[[[88.4897,21.8477],[88.4828,21.8398],[88.4623,21.8447],[88.4653,21.8305],[88.4455,21.8133],[88.4567,21.7971],[88.4195,21.8136],[88.3987,21.8063],[88.3997,21.8765],[88.4205,21.9007],[88.4439,21.907],[88.4722,21.8918],[88.4897,21.8477]]],[[[88.4848,21.8967],[88.4765,21.9],[88.4884,21.908],[88.4848,21.8967]]],[[[88.1105,21.901],[88.0993,21.899],[88.095,21.9057],[88.1105,21.901]]],[[[88.6384,21.9222],[88.6674,21.9133],[88.6516,21.8775],[88.6384,21.8769],[88.6262,21.8987],[88.6384,21.9222]]],[[[88.7373,21.9225],[88.7917,21.9212],[88.7937,21.9129],[88.8095,21.9129],[88.8109,21.8997],[88.798,21.8805],[88.7759,21.8772],[88.7152,21.9219],[88.7261,21.9292],[88.7373,21.9225]]],[[[88.13,21.9],[88.1119,21.9172],[88.1148,21.9311],[88.1415,21.9206],[88.13,21.9]]],[[[88.9434,21.9149],[88.9708,21.9066],[88.9685,21.8716],[88.9427,21.8385],[88.9704,21.8143],[88.9431,21.7977],[88.9487,21.7693],[88.9193,21.7683],[88.9085,21.7573],[88.8864,21.8063],[88.8916,21.8351],[88.8636,21.859],[88.8669,21.8692],[88.8211,21.9278],[88.8827,21.9136],[88.9154,21.9331],[88.9434,21.9149]]],[[[88.5197,21.9215],[88.5141,21.9182],[88.5154,21.9371],[88.5197,21.9215]]],[[[88.7746,21.9447],[88.7871,21.9484],[88.8026,21.9305],[88.7921,21.9249],[88.7294,21.9394],[88.7278,21.9798],[88.7472,21.9782],[88.7499,21.9586],[88.7746,21.9447]]],[[[88.101,21.9705],[88.0884,21.9738],[88.0967,22.0003],[88.1343,22.0162],[88.128,21.9934],[88.101,21.9705]]]]}},{"type":"Feature","properties":{"district":"Paschim Medinipur","district_hi":"पश्चिम मेदिनीपुर"},"geometry":{"type":"Polygon","coordinates":[[[87.523,22.9279],[87.5227,22.917],[87.5048,22.918],[87.5111,22.8971],[87.5273,22.8978],[87.5325,22.8819],[87.5157,22.866],[87.5566,22.8667],[87.5889,22.8415],[87.613,22.8505],[87.6229,22.8442],[87.6305,22.8117],[87.6509,22.8015],[87.6829,22.8021],[87.677,22.7819],[87.6859,22.775],[87.7185,22.7882],[87.7267,22.7872],[87.7261,22.7743],[87.7409,22.7776],[87.7406,22.7372],[87.7604,22.7227],[87.7637,22.6882],[87.8026,22.634],[87.8125,22.6336],[87.8128,22.6148],[87.8534,22.5956],[87.8534,22.5949],[87.8474,22.5661],[87.8454,22.5572],[87.8642,22.5337],[87.8936,22.5194],[87.8834,22.5095],[87.8458,22.5125],[87.792,22.479],[87.7841,22.485],[87.7604,22.4734],[87.7386,22.4876],[87.7096,22.49],[87.6918,22.5055],[87.6885,22.4906],[87.6826,22.4876],[87.6737,22.4658],[87.6595,22.4625],[87.6473,22.4357],[87.6588,22.4088],[87.6456,22.335],[87.6463,22.3324],[87.674,22.3274],[87.7218,22.3195],[87.7235,22.3191],[87.7235,22.3188],[87.7063,22.2804],[87.6981,22.2178],[87.7287,22.2029],[87.7294,22.1904],[87.7096,22.1811],[87.7017,22.1258],[87.6737,22.1036],[87.6232,22.1033],[87.6206,22.0927],[87.5876,22.0831],[87.5866,22.0828],[87.5827,22.095],[87.5378,22.0818],[87.493,22.0907],[87.4745,22.0738],[87.4867,22.0626],[87.4804,22.0503],[87.4894,22.0447],[87.4884,22.042],[87.489,22.042],[87.4861,22.0334],[87.4854,22.0318],[87.4854,22.0315],[87.4844,22.0321],[87.4745,22.0354],[87.4742,22.0348],[87.4613,22.0123],[87.4603,22.0089],[87.4781,22.0023],[87.4857,21.958],[87.5075,21.9576],[87.5101,21.953],[87.5105,21.9523],[87.5124,21.949],[87.4969,21.9441],[87.4818,21.9391],[87.4762,21.8994],[87.4485,21.8924],[87.4554,21.8474],[87.4412,21.8398],[87.4455,21.8232],[87.4257,21.7971],[87.4382,21.7908],[87.4402,21.7686],[87.396,21.766],[87.3858,21.7759],[87.3736,21.7643],[87.3555,21.7911],[87.3377,21.7838],[87.3357,21.7934],[87.3106,21.7924],[87.2981,21.8106],[87.2826,21.8027],[87.2638,21.8189],[87.2707,21.8279],[87.2487,21.8537],[87.2516,21.8752],[87.2388,21.9017],[87.2553,21.9225],[87.2361,21.9434],[87.2434,21.9639],[87.2434,21.9642],[87.2193,21.9854],[87.1982,22.0331],[87.1725,22.0639],[87.1606,22.0771],[87.1346,22.0887],[87.1346,22.0897],[87.1369,22.1265],[87.1494,22.1437],[87.185,22.1467],[87.1652,22.1573],[87.1794,22.1784],[87.1712,22.1907],[87.1821,22.191],[87.1765,22.238],[87.22,22.2288],[87.2285,22.2476],[87.2163,22.2672],[87.1903,22.2814],[87.2045,22.3042],[87.1557,22.3291],[87.1553,22.3423],[87.1649,22.3387],[87.1877,22.3751],[87.2398,22.388],[87.2582,22.4022],[87.2434,22.4168],[87.1732,22.3973],[87.1765,22.4125],[87.1626,22.4251],[87.1042,22.4294],[87.1184,22.4463],[87.1161,22.4582],[87.0822,22.4717],[87.0934,22.5207],[87.1148,22.5436],[87.0927,22.5843],[87.1016,22.6098],[87.0884,22.6343],[87.096,22.6618],[87.124,22.6846],[87.0993,22.6942],[87.0897,22.7184],[87.0762,22.7257],[87.0772,22.7267],[87.0884,22.7389],[87.0805,22.7703],[87.0775,22.7829],[87.0535,22.8227],[87.0637,22.8505],[87.1283,22.8442],[87.1702,22.8895],[87.2114,22.8942],[87.2216,22.9077],[87.244,22.8975],[87.2707,22.9038],[87.3172,22.9448],[87.3575,22.9544],[87.4567,22.9124],[87.523,22.9279]]]}},{"type":"Feature","properties":{"district":"Purba Medinipur","district_hi":"पूर्व मेदिनीपुर"},"geometry":{"type":"Polygon","coordinates":[[[87.4382,21.7908],[87.4257,21.7971],[87.4455,21.8232],[87.4412,21.8398],[87.4554,21.8474],[87.4485,21.8924],[87.4762,21.8994],[87.4818,21.9391],[87.4969,21.9441],[87.5124,21.949],[87.5105,21.9523],[87.5101,21.953],[87.5075,21.9576],[87.4857,21.958],[87.4781,22.0023],[87.4603,22.0089],[87.4613,22.0123],[87.4742,22.0348],[87.4745,22.0354],[87.4844,22.0321],[87.4854,22.0315],[87.4854,22.0318],[87.4861,22.0334],[87.489,22.042],[87.4884,22.042],[87.4894,22.0447],[87.4804,22.0503],[87.4867,22.0626],[87.4745,22.0738],[87.493,22.0907],[87.5378,22.0818],[87.5827,22.095],[87.5866,22.0828],[87.5876,22.0831],[87.6206,22.0927],[87.6232,22.1033],[87.6737,22.1036],[87.7017,22.1258],[87.7096,22.1811],[87.7294,22.1904],[87.7287,22.2029],[87.6981,22.2178],[87.7063,22.2804],[87.7235,22.3188],[87.7235,22.3191],[87.7218,22.3195],[87.674,22.3274],[87.6463,22.3324],[87.6456,22.335],[87.6588,22.4088],[87.6473,22.4357],[87.6595,22.4625],[87.6737,22.4658],[87.6826,22.4876],[87.6885,22.4906],[87.6918,22.5055],[87.7096,22.49],[87.7386,22.4876],[87.7604,22.4734],[87.7841,22.485],[87.792,22.479],[87.8458,22.5125],[87.8834,22.5095],[87.8936,22.5194],[87.8847,22.4943],[87.8999,22.4708],[87.9015,22.4684],[87.8781,22.4489],[87.8787,22.4466],[87.8966,22.4277],[87.9368,22.4218],[87.9523,22.2771],[87.9981,22.2466],[87.9974,22.245],[87.9905,22.2254],[88.0146,22.2026],[88.0433,22.2049],[88.073,22.1847],[88.1363,22.1854],[88.1699,22.1503],[88.1663,22.139],[88.1867,22.1046],[88.1607,22.0722],[88.0977,22.0285],[88.0644,22.0182],[88.039,22.0344],[88.0195,22.0718],[87.9928,22.0758],[88.0136,22.0612],[88.0486,21.9974],[88.0199,21.957],[87.9866,21.8706],[87.9552,21.8305],[87.8972,21.7934],[87.8705,21.811],[87.8791,21.7726],[87.7894,21.6997],[87.7465,21.6941],[87.7416,21.6812],[87.6737,21.6504],[87.6512,21.6474],[87.6493,21.661],[87.6384,21.6627],[87.6282,21.6445],[87.5635,21.6279],[87.5616,21.6362],[87.5414,21.621],[87.4861,21.6097],[87.4768,21.6464],[87.4617,21.6511],[87.4719,21.6839],[87.4692,21.7322],[87.4442,21.7342],[87.4541,21.7398],[87.4452,21.7431],[87.4382,21.7908]]]}},{"type":"Feature","properties":{"district":"Jhargram","district_hi":"झारग्राम"},"geometry":{"type":"Polygon","coordinates":[[[87.0762,22.7257],[87.0897,22.7184],[87.0993,22.6942],[87.124,22.6846],[87.096,22.6618],[87.0884,22.6343],[87.1016,22.6098],[87.0927,22.5843],[87.1148,22.5436],[87.0934,22.5207],[87.0822,22.4717],[87.1161,22.4582],[87.1184,22.4463],[87.1042,22.4294],[87.1626,22.4251],[87.1765,22.4125],[87.1732,22.3973],[87.2434,22.4168],[87.2582,22.4022],[87.2398,22.388],[87.1877,22.3751],[87.1649,22.3387],[87.1553,22.3423],[87.1557,22.3291],[87.2045,22.3042],[87.1903,22.2814],[87.2163,22.2672],[87.2285,22.2476],[87.22,22.2288],[87.1765,22.238],[87.1821,22.191],[87.1712,22.1907],[87.1794,22.1784],[87.1652,22.1573],[87.185,22.1467],[87.1494,22.1437],[87.1369,22.1265],[87.1346,22.0897],[87.1346,22.0887],[87.1606,22.0771],[87.1725,22.0639],[87.1982,22.0331],[87.2193,21.9854],[87.2434,21.9642],[87.2434,21.9639],[87.2391,21.956],[87.2114,21.9662],[87.1969,21.9593],[87.1702,21.9795],[87.1616,21.9354],[87.1372,21.9235],[87.1085,21.9249],[87.0963,21.9139],[87.0986,21.8659],[87.0376,21.8682],[87.002,21.9129],[87.0307,21.9854],[87.0281,22.0377],[86.9925,22.055],[86.9651,22.0857],[86.8378,22.0977],[86.8283,22.1179],[86.8088,22.1192],[86.8141,22.1258],[86.8019,22.1304],[86.8045,22.1503],[86.7946,22.1573],[86.7218,22.1467],[86.727,22.2168],[86.7762,22.2182],[86.7814,22.237],[86.795,22.2281],[86.7847,22.2311],[86.7782,22.2182],[86.8022,22.2178],[86.8124,22.2413],[86.7943,22.2433],[86.7923,22.2662],[86.8012,22.2655],[86.8029,22.2443],[86.8134,22.2675],[86.8167,22.2539],[86.824,22.2668],[86.8866,22.2576],[86.8883,22.2973],[86.8332,22.3244],[86.8454,22.3999],[86.8131,22.4191],[86.7646,22.4267],[86.7633,22.4472],[86.7511,22.4559],[86.7508,22.4823],[86.793,22.4774],[86.8009,22.488],[86.7887,22.5489],[86.7686,22.5542],[86.7716,22.5648],[86.7574,22.5787],[86.6585,22.5757],[86.6562,22.5916],[86.6331,22.6111],[86.6407,22.6594],[86.5586,22.7111],[86.5592,22.7124],[86.5595,22.7124],[86.5932,22.7627],[86.5971,22.772],[86.6004,22.7799],[86.6041,22.7889],[86.5985,22.7972],[86.6107,22.7988],[86.611,22.7985],[86.6107,22.7982],[86.6568,22.7872],[86.672,22.7694],[86.6954,22.768],[86.7172,22.7449],[86.8035,22.7088],[86.8945,22.6512],[86.9163,22.627],[86.9526,22.6369],[86.948,22.6694],[86.9621,22.6757],[87.0152,22.6502],[87.0202,22.6982],[87.0518,22.7276],[87.0762,22.7257]]]}},{"type":"Feature","properties":{"district":"Darjeeling","district_hi":"दार्जिलिंग"},"geometry":{"type":"Polygon","coordinates":[[[88.4129,27.0256],[88.4221,27.0094],[88.3905,26.9882],[88.4182,26.9819],[88.4238,26.9564],[88.4389,26.9607],[88.4432,26.9382],[88.4752,26.9131],[88.4788,26.88],[88.4772,26.881],[88.4788,26.8786],[88.5105,26.8406],[88.5118,26.8389],[88.4844,26.8528],[88.4426,26.8353],[88.4307,26.8194],[88.4373,26.8101],[88.4294,26.8128],[88.4304,26.7979],[88.4429,26.784],[88.4323,26.778],[88.437,26.7588],[88.4234,26.7542],[88.4221,26.738],[88.4251,26.7221],[88.4347,26.726],[88.4498,26.7035],[88.4376,26.6926],[88.4106,26.6992],[88.3915,26.679],[88.3911,26.6787],[88.4017,26.6724],[88.4,26.6443],[88.4096,26.6314],[88.3872,26.6125],[88.3987,26.6039],[88.3766,26.5953],[88.3493,26.5125],[88.3334,26.4973],[88.3219,26.4976],[88.2916,26.4917],[88.285,26.4811],[88.2635,26.4864],[88.2404,26.4589],[88.2408,26.4579],[88.2401,26.4576],[88.2151,26.4771],[88.2276,26.492],[88.1982,26.4847],[88.1821,26.5056],[88.2355,26.5449],[88.2309,26.5724],[88.2157,26.5734],[88.2184,26.5536],[88.1893,26.5595],[88.1791,26.5449],[88.1686,26.5536],[88.1666,26.5357],[88.1458,26.5221],[88.1053,26.5512],[88.1128,26.5724],[88.1303,26.5734],[88.1419,26.6247],[88.1603,26.6366],[88.187,26.7714],[88.1663,26.8489],[88.1715,26.8667],[88.1386,26.8975],[88.1438,26.9214],[88.1211,26.9505],[88.133,26.9823],[88.0911,27.0061],[88.0799,27.0342],[88.04,27.0356],[88.0176,27.0746],[88.0218,27.0869],[87.9918,27.1084],[87.9935,27.1299],[88.009,27.1412],[88.0195,27.1703],[88.0149,27.2117],[88.04,27.2206],[88.0789,27.2014],[88.0743,27.1855],[88.096,27.1336],[88.1537,27.1097],[88.1818,27.1326],[88.2157,27.1316],[88.2322,27.1187],[88.3021,27.1289],[88.3166,27.1256],[88.3245,27.1054],[88.342,27.1097],[88.3565,27.0955],[88.432,27.0803],[88.4257,27.0713],[88.4185,27.0614],[88.4129,27.0256]]]}},{"type":"Feature","properties":{"district":"Jalpaiguri","district_hi":"जलपाईगुड़ी"},"geometry":{"type":"Polygon","coordinates":[[[88.4788,26.88],[88.5115,26.8631],[88.5731,26.8886],[88.6028,26.8796],[88.6203,26.9051],[88.6345,26.9058],[88.6358,26.9303],[88.6585,26.967],[88.6684,26.9455],[88.6635,26.926],[88.7594,26.9257],[88.7558,26.9637],[88.7894,26.9912],[88.8679,26.965],[88.8709,26.9641],[88.8732,26.9439],[88.9203,26.9942],[88.9484,26.967],[88.9411,26.931],[88.9754,26.9127],[89.0163,26.9376],[89.0219,26.9227],[89.042,26.9164],[89.044,26.9018],[89.0895,26.8892],[89.0852,26.8687],[89.098,26.8581],[89.0905,26.8406],[89.0901,26.8396],[89.0928,26.8138],[89.069,26.7611],[89.0753,26.7489],[89.067,26.7002],[89.0423,26.6314],[89.0453,26.6131],[89.0674,26.5966],[89.0743,26.6039],[89.0746,26.5949],[89.1053,26.5926],[89.1046,26.5916],[89.098,26.5781],[89.0931,26.5671],[89.102,26.5635],[89.1036,26.539],[89.1158,26.5416],[89.1191,26.5241],[89.1195,26.5241],[89.1195,26.5224],[89.073,26.5337],[89.0519,26.5344],[89.0446,26.5297],[89.0222,26.5155],[88.9622,26.5387],[88.9638,26.5244],[88.947,26.5016],[88.9329,26.5003],[88.9368,26.4708],[88.9216,26.4638],[88.8992,26.4708],[88.923,26.4556],[88.9256,26.4539],[88.9266,26.4532],[88.8821,26.44],[88.8738,26.4052],[88.8603,26.3917],[88.799,26.3774],[88.7756,26.397],[88.772,26.396],[88.7584,26.3738],[88.7492,26.3559],[88.7584,26.3344],[88.7604,26.3301],[88.7604,26.3298],[88.7436,26.2887],[88.7175,26.2884],[88.7189,26.2791],[88.6846,26.2751],[88.6889,26.2659],[88.678,26.2553],[88.6645,26.2579],[88.6684,26.2937],[88.6833,26.2781],[88.706,26.2851],[88.6829,26.291],[88.6727,26.3145],[88.6915,26.3248],[88.6945,26.3079],[88.7446,26.3205],[88.7469,26.3301],[88.7324,26.3268],[88.7436,26.3467],[88.7327,26.3529],[88.7004,26.3294],[88.6875,26.3612],[88.6932,26.3718],[88.681,26.3751],[88.7011,26.3864],[88.6694,26.3947],[88.6862,26.4],[88.6852,26.4102],[88.6678,26.4043],[88.6447,26.4155],[88.649,26.4264],[88.6219,26.4321],[88.6206,26.4691],[88.5969,26.4698],[88.5903,26.4473],[88.558,26.4572],[88.5563,26.4834],[88.5299,26.4784],[88.5204,26.5082],[88.4887,26.5089],[88.4831,26.5393],[88.4577,26.544],[88.4452,26.533],[88.4211,26.5632],[88.4149,26.629],[88.4,26.6443],[88.4017,26.6724],[88.3911,26.6787],[88.3915,26.679],[88.4106,26.6992],[88.4376,26.6926],[88.4498,26.7035],[88.4347,26.726],[88.4251,26.7221],[88.4221,26.738],[88.4234,26.7542],[88.437,26.7588],[88.4323,26.778],[88.4429,26.784],[88.4304,26.7979],[88.4294,26.8128],[88.4373,26.8101],[88.4307,26.8194],[88.4426,26.8353],[88.4844,26.8528],[88.5118,26.8389],[88.5105,26.8406],[88.4788,26.8786],[88.4772,26.881],[88.4788,26.88]]]}},{"type":"Feature","properties":{"district":"Dakshin Dinajpur","district_hi":"दक्षिण दिनाजपुर"},"geometry":{"type":"Polygon","coordinates":[[[88.4198,25.6044],[88.4135,25.5939],[88.4234,25.5872],[88.4462,25.5892],[88.4462,25.5952],[88.4561,25.5985],[88.4683,25.5829],[88.4993,25.5839],[88.494,25.5581],[88.5233,25.5346],[88.5329,25.5415],[88.5398,25.5084],[88.554,25.521],[88.588,25.5065],[88.6087,25.5164],[88.6223,25.4972],[88.6483,25.4969],[88.6463,25.4777],[88.6602,25.4816],[88.6628,25.474],[88.6997,25.4714],[88.71,25.4806],[88.7086,25.5002],[88.7426,25.5048],[88.7449,25.4876],[88.765,25.4945],[88.771,25.5031],[88.7598,25.525],[88.7795,25.5151],[88.8112,25.5233],[88.8122,25.4892],[88.8297,25.4899],[88.8392,25.4585],[88.826,25.4429],[88.8303,25.4167],[88.8122,25.4101],[88.8405,25.3972],[88.8402,25.3634],[88.8686,25.3519],[88.8663,25.3416],[88.8834,25.3247],[88.888,25.336],[88.9061,25.3366],[88.9157,25.3111],[88.9282,25.3148],[88.9391,25.2996],[88.9846,25.3048],[89.0001,25.2949],[89.0087,25.3019],[89.0077,25.2631],[88.9873,25.2737],[88.9523,25.2476],[88.9615,25.2078],[88.9388,25.2108],[88.9348,25.1992],[88.9477,25.1936],[88.9487,25.1754],[88.9348,25.18],[88.9207,25.1655],[88.9101,25.1794],[88.8761,25.1784],[88.8742,25.1959],[88.8649,25.1893],[88.8653,25.1996],[88.8432,25.2135],[88.8062,25.1698],[88.7746,25.1784],[88.7703,25.189],[88.7499,25.1764],[88.7347,25.184],[88.7334,25.1986],[88.6872,25.2088],[88.6714,25.1986],[88.613,25.2039],[88.5784,25.1771],[88.5599,25.1751],[88.558,25.1923],[88.5342,25.1873],[88.5369,25.1976],[88.4973,25.2112],[88.4745,25.2135],[88.4633,25.1956],[88.4356,25.2002],[88.4647,25.2711],[88.4564,25.2618],[88.4554,25.2621],[88.4396,25.2787],[88.4488,25.3082],[88.4432,25.3115],[88.4373,25.3148],[88.4333,25.3171],[88.4188,25.3151],[88.4168,25.3151],[88.4152,25.3148],[88.4182,25.3141],[88.4281,25.3082],[88.4267,25.3048],[88.4201,25.3015],[88.403,25.2956],[88.3934,25.3048],[88.3789,25.2899],[88.3351,25.3052],[88.3258,25.2962],[88.3028,25.2992],[88.2836,25.3168],[88.283,25.3171],[88.2827,25.3168],[88.2685,25.3029],[88.2675,25.3042],[88.2569,25.3174],[88.2279,25.3197],[88.2164,25.3323],[88.2131,25.332],[88.1969,25.3297],[88.1715,25.3264],[88.1781,25.3446],[88.1633,25.3691],[88.1864,25.376],[88.1729,25.3853],[88.1663,25.4267],[88.1956,25.4257],[88.2177,25.4412],[88.2622,25.434],[88.2642,25.4644],[88.2569,25.4786],[88.2566,25.4833],[88.278,25.4916],[88.2889,25.5144],[88.3229,25.5349],[88.3255,25.5594],[88.3351,25.5541],[88.3591,25.5667],[88.3684,25.5922],[88.3911,25.5955],[88.401,25.6068],[88.4198,25.6044]]]}},{"type":"Feature","properties":{"district":"Malda","district_hi":"मालदा"},"geometry":{"type":"Polygon","coordinates":[[[88.2685,25.3029],[88.2827,25.3168],[88.283,25.3171],[88.2836,25.3168],[88.3028,25.2992],[88.3258,25.2962],[88.3351,25.3052],[88.3789,25.2899],[88.3934,25.3048],[88.403,25.2956],[88.4201,25.3015],[88.4267,25.3048],[88.4281,25.3082],[88.4182,25.3141],[88.4152,25.3148],[88.4168,25.3151],[88.4188,25.3151],[88.4333,25.3171],[88.4373,25.3148],[88.4432,25.3115],[88.4488,25.3082],[88.4396,25.2787],[88.4554,25.2621],[88.4564,25.2618],[88.4647,25.2711],[88.4356,25.2002],[88.4416,25.1741],[88.4607,25.1499],[88.4419,25.1271],[88.4531,25.0791],[88.4353,25.0556],[88.4528,25.0367],[88.4366,25.0069],[88.4251,25.0162],[88.4122,24.998],[88.4162,24.9735],[88.4046,24.9794],[88.3944,24.9698],[88.3977,24.9457],[88.3806,24.9397],[88.3631,24.9536],[88.34,24.9407],[88.3361,24.9188],[88.3242,24.9139],[88.346,24.8943],[88.3278,24.8712],[88.3193,24.8847],[88.3024,24.8722],[88.3014,24.8864],[88.2777,24.8891],[88.2764,24.898],[88.2579,24.8785],[88.2632,24.9112],[88.2259,24.9599],[88.1699,24.9503],[88.157,24.9341],[88.1376,24.9361],[88.1399,24.9139],[88.1689,24.8924],[88.1518,24.8851],[88.1745,24.8609],[88.161,24.849],[88.1405,24.85],[88.1465,24.8434],[88.1313,24.8361],[88.1353,24.8053],[88.1221,24.8232],[88.1043,24.801],[88.1046,24.7798],[88.0881,24.7831],[88.068,24.7705],[88.0617,24.7219],[88.0275,24.6911],[87.9628,24.7527],[87.8972,24.8606],[87.9605,24.9208],[87.9539,24.9781],[87.7957,25.0873],[87.8006,25.1178],[87.7792,25.1436],[87.7785,25.2506],[87.7113,25.2578],[87.7627,25.2655],[87.8184,25.2419],[87.8468,25.2645],[87.8471,25.3045],[87.7841,25.3403],[87.7894,25.377],[87.765,25.384],[87.767,25.4161],[87.7785,25.4105],[87.7736,25.429],[87.7871,25.4492],[87.8214,25.4359],[87.8392,25.4681],[87.8642,25.4644],[87.8662,25.4969],[87.8853,25.5094],[87.884,25.5207],[87.9028,25.5048],[87.9157,25.5339],[87.9595,25.5386],[87.9849,25.5257],[88.0044,25.4962],[88.0021,25.5144],[88.0123,25.5144],[88.0307,25.4906],[88.0657,25.4892],[88.0792,25.4585],[88.0835,25.4482],[88.0842,25.4472],[88.0967,25.4436],[88.099,25.4316],[88.1128,25.4353],[88.0934,25.4217],[88.1096,25.4174],[88.1013,25.4048],[88.1155,25.4071],[88.0977,25.3833],[88.1227,25.3651],[88.1079,25.3267],[88.1264,25.2982],[88.1023,25.2896],[88.1092,25.2853],[88.0993,25.2751],[88.1214,25.2714],[88.1267,25.2439],[88.1504,25.2721],[88.1396,25.277],[88.1455,25.2972],[88.161,25.3042],[88.1616,25.3045],[88.191,25.281],[88.2147,25.3135],[88.2381,25.3058],[88.2365,25.2952],[88.2675,25.3022],[88.2685,25.3029]]]}},{"type":"Feature","properties":{"district":"Murshidabad","district_hi":"मुलशिदाबाद"},"geometry":{"type":"Polygon","coordinates":[[[87.9628,24.7527],[88.0275,24.6911],[88.0486,24.6709],[88.0509,24.6527],[88.0878,24.6166],[88.1089,24.5775],[88.1066,24.5544],[88.133,24.5097],[88.1831,24.4895],[88.1917,24.4756],[88.3351,24.4431],[88.3826,24.3955],[88.4792,24.3534],[88.496,24.3289],[88.5253,24.3153],[88.5593,24.3081],[88.5672,24.3263],[88.5863,24.3246],[88.5979,24.311],[88.6486,24.3107],[88.6519,24.2995],[88.6836,24.3243],[88.7261,24.2961],[88.7413,24.2541],[88.7317,24.1743],[88.7466,24.1472],[88.6971,24.119],[88.7007,24.0969],[88.7011,24.0945],[88.6711,24.0846],[88.6813,24.078],[88.6796,24.0777],[88.6806,24.0773],[88.6503,24.0684],[88.642,24.0528],[88.6308,24.03],[88.6496,24.0105],[88.6285,23.9846],[88.6272,23.9843],[88.6259,23.9843],[88.6147,23.983],[88.5959,23.9995],[88.5807,24.031],[88.5501,24.0389],[88.5435,23.9989],[88.5118,23.9916],[88.5237,23.9525],[88.5115,23.9572],[88.49,23.9386],[88.4581,23.9293],[88.5092,23.8966],[88.5102,23.8959],[88.5003,23.8876],[88.4854,23.8996],[88.463,23.8903],[88.4765,23.8386],[88.4785,23.8314],[88.4765,23.8297],[88.4732,23.8271],[88.4623,23.8181],[88.461,23.8208],[88.4478,23.8552],[88.4142,23.8042],[88.4086,23.8208],[88.3773,23.8141],[88.3526,23.83],[88.3344,23.8079],[88.2698,23.8115],[88.2385,23.8019],[88.2404,23.7724],[88.2411,23.7671],[88.2408,23.7668],[88.2395,23.7655],[88.2325,23.7592],[88.2286,23.7602],[88.1877,23.7704],[88.1768,23.7608],[88.1524,23.7403],[88.1455,23.734],[88.1448,23.7337],[88.1366,23.734],[88.1323,23.734],[88.132,23.734],[88.1241,23.7512],[88.1026,23.7539],[88.0815,23.7231],[88.0604,23.7228],[88.0601,23.7234],[88.0367,23.7605],[88.0413,23.7734],[88.0588,23.7721],[88.0598,23.7807],[88.0311,23.7949],[88.0301,23.8175],[88.0096,23.8446],[87.9681,23.8446],[87.9744,23.8327],[87.9668,23.8095],[87.9562,23.8088],[87.9299,23.8267],[87.9355,23.8333],[87.9256,23.8406],[87.8906,23.8396],[87.8867,23.8618],[87.8761,23.8539],[87.8685,23.8701],[87.856,23.8681],[87.8639,23.8784],[87.8487,23.888],[87.8484,23.8893],[87.8464,23.8969],[87.8431,23.9098],[87.8445,23.9105],[87.8665,23.9197],[87.8652,23.9479],[87.854,23.9661],[87.8484,23.9694],[87.8507,23.9711],[87.86,23.9773],[87.8576,23.9989],[87.8698,24.0131],[87.8609,24.0247],[87.8616,24.0253],[87.8629,24.0267],[87.8761,24.0402],[87.8975,24.0439],[87.8956,24.0786],[87.8959,24.0793],[87.8989,24.0826],[87.9114,24.0962],[87.9107,24.1002],[87.9038,24.1051],[87.8913,24.1144],[87.9097,24.1339],[87.8966,24.1449],[87.8992,24.1621],[87.9325,24.175],[87.9196,24.1869],[87.9305,24.1998],[87.9852,24.1902],[87.9892,24.214],[87.9955,24.2091],[88.0063,24.2193],[87.9974,24.2435],[88.0232,24.2478],[88.0235,24.2521],[88.0133,24.2836],[88.0172,24.3104],[87.9918,24.314],[87.9932,24.3299],[87.9569,24.3415],[87.9552,24.3633],[87.9595,24.3756],[87.9734,24.3769],[87.9787,24.4166],[87.9734,24.4749],[87.9628,24.4878],[87.9437,24.4882],[87.9486,24.517],[87.9378,24.5206],[87.9351,24.5319],[87.9219,24.5444],[87.8896,24.5434],[87.889,24.5434],[87.89,24.553],[87.8926,24.5815],[87.9088,24.5858],[87.9114,24.6103],[87.8751,24.6136],[87.9058,24.6149],[87.9144,24.6371],[87.917,24.6659],[87.8886,24.6792],[87.9078,24.7212],[87.8903,24.7249],[87.8827,24.7414],[87.8656,24.7325],[87.8181,24.755],[87.8349,24.7894],[87.8365,24.7659],[87.8543,24.7616],[87.8692,24.7748],[87.8685,24.7891],[87.8817,24.799],[87.8689,24.8242],[87.9002,24.8232],[87.8906,24.8553],[87.8975,24.8593],[87.9628,24.7527]]]}},{"type":"Feature","properties":{"district":"Birbhum","district_hi":"बीरभूम"},"geometry":{"type":"Polygon","coordinates":[[[87.89,24.553],[87.889,24.5434],[87.8896,24.5434],[87.9219,24.5444],[87.9351,24.5319],[87.9378,24.5206],[87.9486,24.517],[87.9437,24.4882],[87.9628,24.4878],[87.9734,24.4749],[87.9787,24.4166],[87.9734,24.3769],[87.9595,24.3756],[87.9552,24.3633],[87.9569,24.3415],[87.9932,24.3299],[87.9918,24.314],[88.0172,24.3104],[88.0133,24.2836],[88.0235,24.2521],[88.0232,24.2478],[87.9974,24.2435],[88.0063,24.2193],[87.9955,24.2091],[87.9892,24.214],[87.9852,24.1902],[87.9305,24.1998],[87.9196,24.1869],[87.9325,24.175],[87.8992,24.1621],[87.8966,24.1449],[87.9097,24.1339],[87.8913,24.1144],[87.9038,24.1051],[87.9107,24.1002],[87.9114,24.0962],[87.8989,24.0826],[87.8959,24.0793],[87.8956,24.0786],[87.8975,24.0439],[87.8761,24.0402],[87.8629,24.0267],[87.8616,24.0253],[87.8609,24.0247],[87.8698,24.0131],[87.8576,23.9989],[87.86,23.9773],[87.8507,23.9711],[87.8484,23.9694],[87.854,23.9661],[87.8652,23.9479],[87.8665,23.9197],[87.8445,23.9105],[87.8431,23.9098],[87.8464,23.8969],[87.8484,23.8893],[87.8487,23.888],[87.8639,23.8784],[87.856,23.8681],[87.8685,23.8701],[87.8761,23.8539],[87.8867,23.8618],[87.8906,23.8396],[87.9256,23.8406],[87.9355,23.8333],[87.9299,23.8267],[87.9562,23.8088],[87.9668,23.8095],[87.9496,23.7767],[87.9388,23.7744],[87.9539,23.7499],[87.9345,23.7291],[87.9173,23.7294],[87.92,23.7148],[87.9104,23.7181],[87.9107,23.7171],[87.9219,23.6807],[87.9111,23.6635],[87.9361,23.6629],[87.9351,23.6466],[87.9592,23.6311],[87.9463,23.5976],[87.9305,23.5897],[87.9292,23.5705],[87.9272,23.5685],[87.9035,23.5463],[87.8985,23.5443],[87.8877,23.5612],[87.887,23.5599],[87.8863,23.5612],[87.882,23.5506],[87.8761,23.5546],[87.8731,23.5572],[87.8725,23.5572],[87.8718,23.5569],[87.8471,23.551],[87.8461,23.551],[87.8365,23.5692],[87.8039,23.5599],[87.7805,23.5837],[87.7307,23.5894],[87.708,23.6192],[87.6869,23.6079],[87.6664,23.6198],[87.6466,23.6043],[87.6222,23.6142],[87.582,23.596],[87.5715,23.599],[87.5342,23.6099],[87.5339,23.6089],[87.5296,23.6152],[87.5243,23.6172],[87.4946,23.6019],[87.4894,23.6033],[87.4884,23.6026],[87.4867,23.6039],[87.4465,23.6145],[87.4109,23.6549],[87.4175,23.6741],[87.4089,23.687],[87.3693,23.7003],[87.3528,23.7228],[87.2869,23.7258],[87.2638,23.7493],[87.2239,23.738],[87.2088,23.7499],[87.1534,23.7493],[87.1115,23.7751],[87.0891,23.8141],[87.1161,23.8072],[87.1122,23.7989],[87.1402,23.8049],[87.1494,23.7966],[87.1672,23.8251],[87.13,23.8535],[87.1293,23.8691],[87.1649,23.8651],[87.1811,23.8529],[87.1966,23.8578],[87.1893,23.8423],[87.2058,23.8565],[87.2338,23.8565],[87.2173,23.83],[87.2407,23.8257],[87.2559,23.8439],[87.2411,23.8704],[87.2464,23.9088],[87.2579,23.9085],[87.2526,23.8999],[87.2694,23.8744],[87.2951,23.9012],[87.2846,23.9217],[87.2928,23.9591],[87.2625,23.9674],[87.2628,24.0035],[87.2477,23.9989],[87.2338,24.0244],[87.2454,24.0452],[87.2882,24.0287],[87.337,24.034],[87.336,24.021],[87.3192,24.0078],[87.3291,23.9989],[87.3515,23.9985],[87.3608,24.0128],[87.4396,23.9817],[87.46,23.9843],[87.4607,23.9962],[87.4379,24.0131],[87.4765,24.0121],[87.5121,24.0359],[87.5101,24.0475],[87.4933,24.0542],[87.4926,24.077],[87.5111,24.083],[87.4897,24.0902],[87.5002,24.1018],[87.4976,24.1177],[87.5319,24.1071],[87.5431,24.0859],[87.5589,24.0813],[87.581,24.0876],[87.5744,24.1118],[87.5853,24.124],[87.6104,24.1323],[87.5757,24.1611],[87.6308,24.1641],[87.642,24.1528],[87.6644,24.1574],[87.6753,24.1515],[87.6727,24.1419],[87.6951,24.1492],[87.6984,24.1872],[87.677,24.1945],[87.6743,24.2074],[87.6384,24.2147],[87.6463,24.2303],[87.6387,24.2541],[87.6582,24.2359],[87.6621,24.2455],[87.706,24.2604],[87.7132,24.2938],[87.73,24.2885],[87.7614,24.3084],[87.7706,24.3223],[87.7647,24.3398],[87.8009,24.3825],[87.7943,24.3998],[87.8121,24.414],[87.8062,24.4203],[87.7999,24.409],[87.7894,24.4203],[87.8036,24.4544],[87.8237,24.4584],[87.8108,24.4772],[87.8283,24.4978],[87.8115,24.4921],[87.8098,24.5143],[87.8023,24.4944],[87.7943,24.5014],[87.8032,24.5057],[87.7993,24.5438],[87.8088,24.5474],[87.7914,24.5722],[87.7706,24.5709],[87.7716,24.5838],[87.793,24.5835],[87.8263,24.5696],[87.8276,24.5577],[87.852,24.554],[87.8906,24.5653],[87.89,24.553]]]}},{"type":"Feature","properties":{"district":"Nadia","district_hi":"नदिया"},"geometry":{"type":"Polygon","coordinates":[[[88.1768,23.7608],[88.1877,23.7704],[88.2286,23.7602],[88.2325,23.7592],[88.2395,23.7655],[88.2408,23.7668],[88.2411,23.7671],[88.2404,23.7724],[88.2385,23.8019],[88.2698,23.8115],[88.3344,23.8079],[88.3526,23.83],[88.3773,23.8141],[88.4086,23.8208],[88.4142,23.8042],[88.4478,23.8552],[88.461,23.8208],[88.4623,23.8181],[88.4732,23.8271],[88.4765,23.8297],[88.4785,23.8314],[88.4765,23.8386],[88.463,23.8903],[88.4854,23.8996],[88.5003,23.8876],[88.5102,23.8959],[88.5092,23.8966],[88.4581,23.9293],[88.49,23.9386],[88.5115,23.9572],[88.5237,23.9525],[88.5118,23.9916],[88.5435,23.9989],[88.5501,24.0389],[88.5807,24.031],[88.5959,23.9995],[88.6147,23.983],[88.6259,23.9843],[88.6272,23.9843],[88.6285,23.9846],[88.6496,24.0105],[88.6308,24.03],[88.642,24.0528],[88.6503,24.0684],[88.6806,24.0773],[88.6796,24.0777],[88.6813,24.078],[88.6711,24.0846],[88.7011,24.0945],[88.7007,24.0969],[88.7241,24.1045],[88.7235,24.0687],[88.7377,24.0614],[88.7268,24.0528],[88.7426,24.0353],[88.7284,23.9965],[88.7604,24.0058],[88.769,23.9826],[88.7367,23.9803],[88.7324,23.9608],[88.7433,23.93],[88.7347,23.933],[88.733,23.9111],[88.7004,23.9118],[88.705,23.9005],[88.6882,23.9012],[88.6641,23.8823],[88.6674,23.8698],[88.6256,23.8648],[88.6163,23.876],[88.6074,23.8621],[88.5847,23.8698],[88.5768,23.8522],[88.5913,23.8529],[88.5867,23.831],[88.6021,23.8168],[88.5876,23.8135],[88.5959,23.8049],[88.5784,23.7857],[88.5563,23.7834],[88.5797,23.7734],[88.5698,23.7469],[88.5771,23.7347],[88.5649,23.7125],[88.5741,23.6678],[88.558,23.6486],[88.5623,23.6364],[88.5936,23.64],[88.5932,23.6165],[88.5801,23.6023],[88.645,23.6089],[88.6384,23.5913],[88.6513,23.5851],[88.6542,23.5566],[88.679,23.5453],[88.6971,23.5162],[88.7238,23.5126],[88.7406,23.4801],[88.7588,23.4771],[88.7607,23.4891],[88.7746,23.4795],[88.7687,23.491],[88.7865,23.5066],[88.7828,23.498],[88.795,23.501],[88.8013,23.4854],[88.7871,23.4685],[88.7947,23.4427],[88.7805,23.4361],[88.7627,23.446],[88.7541,23.4156],[88.7611,23.4083],[88.7489,23.3983],[88.7654,23.3679],[88.7476,23.3616],[88.7446,23.3484],[88.7321,23.3523],[88.739,23.3434],[88.7327,23.3275],[88.7492,23.3215],[88.7449,23.3076],[88.7321,23.3073],[88.7297,23.3196],[88.7255,23.299],[88.7063,23.304],[88.7106,23.3126],[88.6958,23.3023],[88.7235,23.2722],[88.7185,23.2547],[88.7538,23.2358],[88.7123,23.2378],[88.71,23.2325],[88.7077,23.2325],[88.7021,23.2156],[88.7021,23.2149],[88.7017,23.2146],[88.7172,23.212],[88.7192,23.1871],[88.7116,23.1663],[88.6994,23.1689],[88.6938,23.1577],[88.7047,23.1358],[88.6948,23.1103],[88.674,23.0941],[88.6836,23.069],[88.6964,23.0643],[88.6826,23.0524],[88.6885,23.0256],[88.6753,23.0157],[88.678,22.9991],[88.6622,22.9829],[88.6638,22.9491],[88.6786,22.9438],[88.6562,22.9389],[88.6542,22.92],[88.6688,22.8918],[88.6579,22.876],[88.6526,22.8865],[88.6272,22.8819],[88.6114,22.9074],[88.5659,22.914],[88.5632,22.923],[88.5135,22.9339],[88.5052,22.9468],[88.4713,22.9362],[88.464,22.9501],[88.4225,22.9574],[88.4063,22.9425],[88.4093,22.9812],[88.4099,22.9898],[88.4168,22.9961],[88.434,23.0302],[88.4037,22.9898],[88.405,22.9922],[88.4103,23.0027],[88.4495,23.0554],[88.4947,23.0474],[88.4594,23.0676],[88.5019,23.1054],[88.4337,23.1458],[88.4356,23.1468],[88.4581,23.16],[88.4699,23.205],[88.46,23.2216],[88.4149,23.2103],[88.4142,23.2103],[88.4152,23.212],[88.3549,23.2365],[88.3512,23.2388],[88.3572,23.2477],[88.3618,23.255],[88.3621,23.2557],[88.3493,23.2805],[88.3301,23.2812],[88.3338,23.2927],[88.3483,23.2904],[88.3258,23.3153],[88.3361,23.3295],[88.3308,23.3414],[88.3436,23.346],[88.3305,23.3606],[88.3308,23.3656],[88.3568,23.407],[88.3305,23.4185],[88.3512,23.4311],[88.3384,23.4573],[88.3664,23.4589],[88.3674,23.4589],[88.3562,23.4655],[88.3875,23.4973],[88.3859,23.5043],[88.3852,23.5079],[88.3849,23.5086],[88.3568,23.5467],[88.3189,23.5513],[88.2747,23.538],[88.2751,23.5612],[88.3212,23.5748],[88.315,23.5913],[88.2863,23.5788],[88.281,23.6062],[88.2757,23.5963],[88.2576,23.6198],[88.2184,23.6072],[88.1956,23.6225],[88.161,23.6297],[88.1346,23.6645],[88.1636,23.7109],[88.2141,23.7118],[88.2319,23.7122],[88.2329,23.7122],[88.2299,23.7168],[88.2256,23.7234],[88.2253,23.7241],[88.221,23.7254],[88.193,23.7377],[88.193,23.7446],[88.193,23.7671],[88.1768,23.7608]]]}},{"type":"Feature","properties":{"district":"Purba Bardhaman","district_hi":"पूर्व बर्धमान"},"geometry":{"type":"Polygon","coordinates":[[[87.9668,23.8095],[87.9744,23.8327],[87.9681,23.8446],[88.0096,23.8446],[88.0301,23.8175],[88.0311,23.7949],[88.0598,23.7807],[88.0588,23.7721],[88.0413,23.7734],[88.0367,23.7605],[88.0601,23.7234],[88.0604,23.7228],[88.0815,23.7231],[88.1026,23.7539],[88.1241,23.7512],[88.132,23.734],[88.1323,23.734],[88.1366,23.734],[88.1448,23.7337],[88.1455,23.734],[88.1524,23.7403],[88.1768,23.7608],[88.193,23.7671],[88.193,23.7446],[88.193,23.7377],[88.221,23.7254],[88.2253,23.7241],[88.2256,23.7234],[88.2299,23.7168],[88.2329,23.7122],[88.2319,23.7122],[88.2141,23.7118],[88.1636,23.7109],[88.1346,23.6645],[88.161,23.6297],[88.1956,23.6225],[88.2184,23.6072],[88.2576,23.6198],[88.2757,23.5963],[88.281,23.6062],[88.2863,23.5788],[88.315,23.5913],[88.3212,23.5748],[88.2751,23.5612],[88.2747,23.538],[88.3189,23.5513],[88.3568,23.5467],[88.3849,23.5086],[88.3852,23.5079],[88.3859,23.5043],[88.3875,23.4973],[88.3562,23.4655],[88.3674,23.4589],[88.3664,23.4589],[88.3384,23.4573],[88.3512,23.4311],[88.3305,23.4185],[88.3568,23.407],[88.3308,23.3656],[88.3305,23.3606],[88.3436,23.346],[88.3308,23.3414],[88.3361,23.3295],[88.3258,23.3153],[88.3483,23.2904],[88.3338,23.2927],[88.3301,23.2812],[88.3493,23.2805],[88.3621,23.2557],[88.3618,23.255],[88.3572,23.2477],[88.3512,23.2388],[88.3549,23.2365],[88.4152,23.212],[88.4142,23.2103],[88.4027,23.1888],[88.3829,23.1957],[88.3816,23.1808],[88.3671,23.1772],[88.3753,23.163],[88.3624,23.1524],[88.3611,23.1179],[88.3601,23.1183],[88.3216,23.1328],[88.3169,23.1256],[88.2695,23.1272],[88.2358,23.1583],[88.1692,23.1557],[88.1537,23.1325],[88.163,23.1246],[88.1465,23.0776],[88.0878,23.0431],[88.0512,23.0464],[88.0364,23.013],[88.0499,22.9898],[88.0327,22.9796],[88.0205,22.9875],[88.0205,22.9759],[88.007,22.9816],[88.0087,22.9637],[88.009,22.962],[88.0057,22.9624],[87.9872,22.9637],[87.9773,22.9643],[87.9592,22.9528],[87.949,22.9587],[87.9401,22.9428],[87.9124,22.9451],[87.8909,22.9339],[87.8909,22.9345],[87.8857,22.962],[87.8738,22.9557],[87.8725,22.9412],[87.8389,22.9359],[87.8197,22.9577],[87.8141,22.9455],[87.7966,22.9508],[87.7858,22.97],[87.7446,22.9657],[87.7422,22.9653],[87.7416,22.97],[87.7155,23.0067],[87.7119,23.0104],[87.7126,23.011],[87.7211,23.0282],[87.7416,23.0312],[87.7416,23.0554],[87.7643,23.0756],[87.7521,23.0832],[87.7541,23.0974],[87.7485,23.1001],[87.7459,23.1127],[87.7333,23.1279],[87.732,23.1312],[87.7317,23.1302],[87.7248,23.1163],[87.6931,23.1289],[87.6826,23.1232],[87.6898,23.1454],[87.6608,23.165],[87.6684,23.1699],[87.6456,23.1967],[87.647,23.2176],[87.6578,23.2249],[87.6529,23.2411],[87.5995,23.258],[87.5573,23.3126],[87.4983,23.3507],[87.4818,23.3682],[87.4491,23.403],[87.4343,23.4212],[87.4442,23.4311],[87.4455,23.4185],[87.463,23.4222],[87.464,23.4242],[87.4699,23.4437],[87.4666,23.4781],[87.4501,23.4811],[87.4725,23.5235],[87.4659,23.5314],[87.4762,23.5271],[87.4903,23.538],[87.4841,23.5526],[87.4989,23.5764],[87.5246,23.5887],[87.5339,23.6089],[87.5342,23.6099],[87.5715,23.599],[87.582,23.596],[87.6222,23.6142],[87.6466,23.6043],[87.6664,23.6198],[87.6869,23.6079],[87.708,23.6192],[87.7307,23.5894],[87.7805,23.5837],[87.8039,23.5599],[87.8365,23.5692],[87.8461,23.551],[87.8471,23.551],[87.8718,23.5569],[87.8725,23.5572],[87.8731,23.5572],[87.8761,23.5546],[87.882,23.5506],[87.8863,23.5612],[87.887,23.5599],[87.8877,23.5612],[87.8985,23.5443],[87.9035,23.5463],[87.9272,23.5685],[87.9292,23.5705],[87.9305,23.5897],[87.9463,23.5976],[87.9592,23.6311],[87.9351,23.6466],[87.9361,23.6629],[87.9111,23.6635],[87.9219,23.6807],[87.9107,23.7171],[87.9104,23.7181],[87.92,23.7148],[87.9173,23.7294],[87.9345,23.7291],[87.9539,23.7499],[87.9388,23.7744],[87.9496,23.7767],[87.9668,23.8095]]]}},{"type":"Feature","properties":{"district":"Purulia","district_hi":"पुरुलिया"},"geometry":{"type":"Polygon","coordinates":[[[86.8467,23.684],[86.9025,23.6393],[86.9021,23.639],[86.8873,23.6016],[86.8916,23.5764],[86.8632,23.5675],[86.88,23.5592],[86.8817,23.5397],[86.8955,23.5347],[86.8939,23.5116],[86.9051,23.4937],[86.8725,23.4907],[86.8659,23.4616],[86.8283,23.4662],[86.8279,23.4662],[86.8269,23.4364],[86.855,23.4424],[86.8668,23.4354],[86.8497,23.4199],[86.851,23.3868],[86.8302,23.3805],[86.8329,23.3596],[86.8167,23.3613],[86.8088,23.3421],[86.7871,23.3388],[86.7904,23.3],[86.7778,23.2941],[86.7834,23.2603],[86.7791,23.2428],[86.7686,23.2418],[86.7904,23.2113],[86.7587,23.1994],[86.7587,23.1756],[86.7383,23.1626],[86.7313,23.1345],[86.7172,23.1226],[86.7317,23.105],[86.7462,23.1031],[86.7518,23.0885],[86.7307,23.0488],[86.7399,23.0431],[86.7264,23.0355],[86.7353,23.0253],[86.7277,22.9984],[86.6891,22.9309],[86.7059,22.8803],[86.6624,22.8518],[86.6558,22.8372],[86.6169,22.824],[86.6107,22.7988],[86.5985,22.7972],[86.6041,22.7889],[86.6004,22.7799],[86.5971,22.772],[86.5932,22.7627],[86.5595,22.7124],[86.5592,22.7124],[86.5243,22.7214],[86.5131,22.718],[86.5104,22.7048],[86.46,22.7634],[86.4194,22.7909],[86.4385,22.8313],[86.4349,22.8607],[86.4511,22.8624],[86.4534,22.8862],[86.4672,22.9008],[86.4531,22.9034],[86.4359,22.9259],[86.4765,22.9518],[86.489,22.9375],[86.5028,22.9514],[86.5256,22.9475],[86.5315,22.9647],[86.5447,22.966],[86.547,22.9895],[86.519,22.9706],[86.5075,22.973],[86.5134,22.9776],[86.5015,22.9948],[86.4468,22.9882],[86.4191,23.0004],[86.394,22.9809],[86.3769,22.9984],[86.3261,22.9948],[86.3047,23.0166],[86.2371,22.9951],[86.2068,23.0004],[86.2074,23.008],[86.1856,23.0054],[86.1415,23.0574],[86.1461,23.0752],[86.0491,23.106],[86.0548,23.1239],[86.0435,23.1451],[85.9568,23.161],[85.9166,23.1461],[85.882,23.1683],[85.8833,23.1961],[85.8665,23.2206],[85.8365,23.2206],[85.8381,23.2471],[85.8197,23.2686],[85.8381,23.306],[85.8685,23.3305],[85.8658,23.3414],[85.8836,23.3503],[85.8698,23.3891],[85.9028,23.3987],[85.8863,23.405],[85.8846,23.4298],[85.8635,23.4318],[85.8632,23.4626],[85.8866,23.4847],[85.9502,23.4708],[86.0541,23.4871],[86.0587,23.4943],[86.0389,23.498],[86.028,23.5427],[86.0168,23.5476],[86.0419,23.586],[86.0778,23.5791],[86.0726,23.5688],[86.092,23.5629],[86.126,23.5698],[86.1312,23.5589],[86.1586,23.5596],[86.1481,23.5198],[86.1606,23.5083],[86.1484,23.4652],[86.1771,23.4699],[86.2288,23.4434],[86.2328,23.4622],[86.246,23.4596],[86.2305,23.4311],[86.2476,23.4116],[86.2595,23.4132],[86.2523,23.4271],[86.2641,23.4308],[86.2885,23.4295],[86.2902,23.4182],[86.3103,23.4119],[86.3175,23.4268],[86.3057,23.4351],[86.3337,23.4473],[86.3489,23.4404],[86.3637,23.4715],[86.3792,23.4738],[86.3785,23.4854],[86.3617,23.4854],[86.3752,23.5092],[86.365,23.5311],[86.3884,23.5602],[86.3878,23.5741],[86.4138,23.5761],[86.4207,23.5897],[86.4471,23.598],[86.4465,23.6175],[86.462,23.6297],[86.4906,23.6377],[86.5289,23.6297],[86.5744,23.6476],[86.5981,23.6738],[86.7129,23.6986],[86.7396,23.6946],[86.7478,23.6791],[86.8055,23.6963],[86.8467,23.684]]]}},{"type":"Feature","properties":{"district":"Bankura","district_hi":"बांकुड़ा"},"geometry":{"type":"Polygon","coordinates":[[[86.6107,22.7988],[86.6169,22.824],[86.6558,22.8372],[86.6624,22.8518],[86.7059,22.8803],[86.6891,22.9309],[86.7277,22.9984],[86.7353,23.0253],[86.7264,23.0355],[86.7399,23.0431],[86.7307,23.0488],[86.7518,23.0885],[86.7462,23.1031],[86.7317,23.105],[86.7172,23.1226],[86.7313,23.1345],[86.7383,23.1626],[86.7587,23.1756],[86.7587,23.1994],[86.7904,23.2113],[86.7686,23.2418],[86.7791,23.2428],[86.7834,23.2603],[86.7778,23.2941],[86.7904,23.3],[86.7871,23.3388],[86.8088,23.3421],[86.8167,23.3613],[86.8329,23.3596],[86.8302,23.3805],[86.851,23.3868],[86.8497,23.4199],[86.8668,23.4354],[86.855,23.4424],[86.8269,23.4364],[86.8279,23.4662],[86.8283,23.4662],[86.8659,23.4616],[86.8725,23.4907],[86.9051,23.4937],[86.8939,23.5116],[86.8955,23.5347],[86.8817,23.5397],[86.88,23.5592],[86.8632,23.5675],[86.8916,23.5764],[86.8873,23.6016],[86.9021,23.639],[86.9025,23.6393],[86.9203,23.6307],[87.0142,23.6324],[87.1197,23.5778],[87.2088,23.5576],[87.2777,23.4993],[87.4491,23.403],[87.4818,23.3682],[87.4983,23.3507],[87.5573,23.3126],[87.5995,23.258],[87.6529,23.2411],[87.6578,23.2249],[87.647,23.2176],[87.6456,23.1967],[87.6684,23.1699],[87.6608,23.165],[87.6898,23.1454],[87.6826,23.1232],[87.6931,23.1289],[87.7248,23.1163],[87.7317,23.1302],[87.732,23.1312],[87.7333,23.1279],[87.7459,23.1127],[87.7485,23.1001],[87.7541,23.0974],[87.7521,23.0832],[87.7643,23.0756],[87.7416,23.0554],[87.7416,23.0312],[87.7211,23.0282],[87.7126,23.011],[87.7119,23.0104],[87.702,23.0253],[87.6865,23.0253],[87.6981,23.0183],[87.6925,22.9941],[87.6918,22.9925],[87.6766,22.9905],[87.6417,22.9819],[87.6519,22.9491],[87.6404,22.9183],[87.6206,22.912],[87.6311,22.8988],[87.613,22.8879],[87.6008,22.8978],[87.586,22.8948],[87.5695,22.9144],[87.5484,22.9236],[87.5283,22.9293],[87.523,22.9279],[87.4567,22.9124],[87.3575,22.9544],[87.3172,22.9448],[87.2707,22.9038],[87.244,22.8975],[87.2216,22.9077],[87.2114,22.8942],[87.1702,22.8895],[87.1283,22.8442],[87.0637,22.8505],[87.0535,22.8227],[87.0775,22.7829],[87.0805,22.7703],[87.0884,22.7389],[87.0772,22.7267],[87.0762,22.7257],[87.0518,22.7276],[87.0202,22.6982],[87.0152,22.6502],[86.9621,22.6757],[86.948,22.6694],[86.9526,22.6369],[86.9163,22.627],[86.8945,22.6512],[86.8035,22.7088],[86.7172,22.7449],[86.6954,22.768],[86.672,22.7694],[86.6568,22.7872],[86.6107,22.7982],[86.611,22.7985],[86.6107,22.7988]]]}},{"type":"Feature","properties":{"district":"North 24 Parganas","district_hi":"उत्तर 24 परगना"},"geometry":{"type":"Polygon","coordinates":[[[89.0552,22.1281],[89.0558,22.1294],[89.0545,22.1308],[89.0189,22.1645],[89.0183,22.199],[88.9701,22.2006],[88.9533,22.246],[88.9526,22.248],[88.9493,22.2496],[88.9289,22.2625],[88.9121,22.2728],[88.9061,22.2516],[88.8956,22.2523],[88.8765,22.2758],[88.8643,22.2725],[88.8508,22.2874],[88.8155,22.2629],[88.8043,22.3291],[88.8221,22.3711],[88.772,22.3711],[88.7739,22.388],[88.766,22.38],[88.7667,22.3933],[88.7509,22.3916],[88.7548,22.3986],[88.7334,22.4112],[88.7334,22.4208],[88.703,22.434],[88.7034,22.4588],[88.7034,22.4598],[88.6655,22.4926],[88.6496,22.4952],[88.6569,22.5144],[88.6516,22.5207],[88.6295,22.5482],[88.6289,22.5485],[88.6272,22.5585],[88.6233,22.5807],[88.6229,22.581],[88.5906,22.5972],[88.5932,22.6128],[88.5606,22.6244],[88.553,22.6065],[88.5435,22.6065],[88.555,22.5929],[88.5214,22.5618],[88.5214,22.5502],[88.4726,22.5707],[88.4673,22.5727],[88.4663,22.573],[88.4653,22.5648],[88.4544,22.5231],[88.434,22.5373],[88.4135,22.5568],[88.4089,22.5615],[88.3911,22.5969],[88.3915,22.629],[88.3644,22.632],[88.3582,22.6326],[88.3572,22.6326],[88.3509,22.6505],[88.3509,22.6522],[88.3499,22.6551],[88.3638,22.7429],[88.3301,22.7813],[88.3529,22.7958],[88.3565,22.8256],[88.3776,22.8306],[88.371,22.8574],[88.3723,22.8587],[88.4037,22.8879],[88.3977,22.92],[88.4037,22.9362],[88.4063,22.9425],[88.4225,22.9574],[88.464,22.9501],[88.4713,22.9362],[88.5052,22.9468],[88.5135,22.9339],[88.5632,22.923],[88.5659,22.914],[88.6114,22.9074],[88.6272,22.8819],[88.6526,22.8865],[88.6579,22.876],[88.6688,22.8918],[88.6542,22.92],[88.6562,22.9389],[88.6786,22.9438],[88.6638,22.9491],[88.6622,22.9829],[88.678,22.9991],[88.6753,23.0157],[88.6885,23.0256],[88.6826,23.0524],[88.6964,23.0643],[88.6836,23.069],[88.674,23.0941],[88.6948,23.1103],[88.7047,23.1358],[88.6938,23.1577],[88.6994,23.1689],[88.7116,23.1663],[88.7192,23.1871],[88.7172,23.212],[88.7017,23.2146],[88.7021,23.2149],[88.7021,23.2156],[88.7077,23.2325],[88.71,23.2325],[88.7525,23.2345],[88.7673,23.2454],[88.7785,23.2206],[88.8072,23.2189],[88.8109,23.256],[88.828,23.2451],[88.8231,23.2328],[88.8366,23.2428],[88.8451,23.2302],[88.855,23.2358],[88.8857,23.2262],[88.9061,23.2358],[88.9141,23.213],[88.9266,23.2173],[88.9421,23.2057],[88.9698,23.2219],[88.9777,23.2136],[88.9751,23.2236],[88.9945,23.2143],[88.979,23.2126],[88.9866,23.2024],[88.9797,23.1818],[88.9642,23.1928],[88.9385,23.1762],[88.9272,23.162],[88.9299,23.1418],[88.921,23.1428],[88.8992,23.112],[88.8659,23.1004],[88.8738,23.0898],[88.8606,23.0776],[88.8834,23.0408],[88.8709,23.017],[88.8794,23.0061],[88.8461,23.0094],[88.8666,23.0001],[88.8715,22.9782],[88.8577,22.968],[88.86,22.9435],[88.8943,22.9531],[88.888,22.9332],[88.9098,22.9177],[88.8972,22.913],[88.8969,22.8971],[88.9276,22.872],[88.946,22.8803],[88.9695,22.8438],[88.9592,22.7968],[88.9388,22.7929],[88.9124,22.7578],[88.922,22.7531],[88.9164,22.7346],[88.9282,22.7177],[88.9625,22.6932],[88.9263,22.6498],[88.9362,22.6267],[88.9592,22.6141],[88.9388,22.5873],[88.9441,22.5605],[88.9622,22.5472],[88.9744,22.4976],[88.9968,22.4688],[88.9899,22.4436],[89.0004,22.4294],[88.9728,22.4112],[88.9919,22.391],[88.9846,22.3264],[88.9998,22.3248],[89.0252,22.2986],[88.9995,22.2966],[88.9952,22.2874],[89.0212,22.2685],[89.013,22.2556],[89.0331,22.2592],[89.0413,22.2304],[89.0651,22.2072],[89.0713,22.1566],[89.0957,22.1602],[89.0931,22.1463],[89.0572,22.1195],[89.0552,22.1281]]]}},{"type":"Feature","properties":{"district":"Hooghly","district_hi":"हुगली"},"geometry":{"type":"Polygon","coordinates":[[[87.8534,22.5949],[87.8534,22.5956],[87.8128,22.6148],[87.8125,22.6336],[87.8026,22.634],[87.7637,22.6882],[87.7604,22.7227],[87.7406,22.7372],[87.7409,22.7776],[87.7261,22.7743],[87.7267,22.7872],[87.7185,22.7882],[87.6859,22.775],[87.677,22.7819],[87.6829,22.8021],[87.6509,22.8015],[87.6305,22.8117],[87.6229,22.8442],[87.613,22.8505],[87.5889,22.8415],[87.5566,22.8667],[87.5157,22.866],[87.5325,22.8819],[87.5273,22.8978],[87.5111,22.8971],[87.5048,22.918],[87.5227,22.917],[87.523,22.9279],[87.5283,22.9293],[87.5484,22.9236],[87.5695,22.9144],[87.586,22.8948],[87.6008,22.8978],[87.613,22.8879],[87.6311,22.8988],[87.6206,22.912],[87.6404,22.9183],[87.6519,22.9491],[87.6417,22.9819],[87.6766,22.9905],[87.6918,22.9925],[87.6925,22.9941],[87.6981,23.0183],[87.6865,23.0253],[87.702,23.0253],[87.7119,23.0104],[87.7126,23.011],[87.7119,23.0104],[87.7155,23.0067],[87.7416,22.97],[87.7422,22.9653],[87.7446,22.9657],[87.7858,22.97],[87.7966,22.9508],[87.8141,22.9455],[87.8197,22.9577],[87.8389,22.9359],[87.8725,22.9412],[87.8738,22.9557],[87.8857,22.962],[87.8909,22.9345],[87.8909,22.9339],[87.9124,22.9451],[87.9401,22.9428],[87.949,22.9587],[87.9592,22.9528],[87.9773,22.9643],[87.9872,22.9637],[88.0057,22.9624],[88.009,22.962],[88.0087,22.9637],[88.007,22.9816],[88.0205,22.9759],[88.0205,22.9875],[88.0327,22.9796],[88.0499,22.9898],[88.0364,23.013],[88.0512,23.0464],[88.0878,23.0431],[88.1465,23.0776],[88.163,23.1246],[88.1537,23.1325],[88.1692,23.1557],[88.2358,23.1583],[88.2695,23.1272],[88.3169,23.1256],[88.3216,23.1328],[88.3601,23.1183],[88.3611,23.1179],[88.3624,23.1524],[88.3753,23.163],[88.3671,23.1772],[88.3816,23.1808],[88.3829,23.1957],[88.4027,23.1888],[88.4142,23.2103],[88.4149,23.2103],[88.46,23.2216],[88.4699,23.205],[88.4581,23.16],[88.4356,23.1468],[88.4337,23.1458],[88.5019,23.1054],[88.4594,23.0676],[88.4947,23.0474],[88.4495,23.0554],[88.4103,23.0027],[88.405,22.9922],[88.4037,22.9898],[88.434,23.0302],[88.4168,22.9961],[88.4099,22.9898],[88.4093,22.9812],[88.4063,22.9425],[88.4037,22.9362],[88.3977,22.92],[88.4037,22.8879],[88.3723,22.8587],[88.371,22.8574],[88.3776,22.8306],[88.3565,22.8256],[88.3529,22.7958],[88.3301,22.7813],[88.3638,22.7429],[88.3499,22.6551],[88.3179,22.6707],[88.2945,22.6628],[88.2807,22.6581],[88.28,22.6578],[88.2797,22.6578],[88.2421,22.6773],[88.1969,22.6624],[88.1827,22.6704],[88.1795,22.6518],[88.1732,22.6896],[88.1692,22.6813],[88.1564,22.6896],[88.1488,22.6753],[88.1353,22.678],[88.1112,22.7075],[88.1,22.7048],[88.101,22.6935],[88.0667,22.6866],[88.073,22.6979],[88.0634,22.7134],[88.0486,22.6806],[88.0251,22.6909],[88.01,22.6866],[87.9925,22.7045],[87.9879,22.7323],[87.9981,22.7445],[87.9813,22.7809],[87.9806,22.7813],[87.9496,22.7717],[87.944,22.7157],[87.9226,22.6866],[87.9384,22.6306],[87.9018,22.6293],[87.8893,22.6078],[87.8623,22.6055],[87.8576,22.6002],[87.8534,22.5949]]]}},{"type":"Feature","properties":{"district":"Howrah","district_hi":"हावड़ा"},"geometry":{"type":"Polygon","coordinates":[[[88.2388,22.5446],[88.2335,22.5452],[88.2398,22.5224],[88.2085,22.5161],[88.1692,22.482],[88.1204,22.4648],[88.1181,22.4641],[88.1198,22.4602],[88.1297,22.438],[88.1412,22.4125],[88.1412,22.4102],[88.0904,22.3635],[88.096,22.3062],[88.0898,22.2864],[88.0812,22.2662],[88.0815,22.2612],[88.0805,22.2572],[88.0677,22.2556],[88.0581,22.2341],[88.0344,22.2192],[87.9974,22.245],[87.9981,22.2466],[87.9523,22.2771],[87.9368,22.4218],[87.8966,22.4277],[87.8787,22.4466],[87.8781,22.4489],[87.9015,22.4684],[87.8999,22.4708],[87.8847,22.4943],[87.8936,22.5194],[87.8642,22.5337],[87.8454,22.5572],[87.8474,22.5661],[87.8534,22.5949],[87.8576,22.6002],[87.8623,22.6055],[87.8893,22.6078],[87.9018,22.6293],[87.9384,22.6306],[87.9226,22.6866],[87.944,22.7157],[87.9496,22.7717],[87.9806,22.7813],[87.9813,22.7809],[87.9981,22.7445],[87.9879,22.7323],[87.9925,22.7045],[88.01,22.6866],[88.0251,22.6909],[88.0486,22.6806],[88.0634,22.7134],[88.073,22.6979],[88.0667,22.6866],[88.101,22.6935],[88.1,22.7048],[88.1112,22.7075],[88.1353,22.678],[88.1488,22.6753],[88.1564,22.6896],[88.1692,22.6813],[88.1732,22.6896],[88.1795,22.6518],[88.1827,22.6704],[88.1969,22.6624],[88.2421,22.6773],[88.2797,22.6578],[88.28,22.6578],[88.2807,22.6581],[88.2945,22.6628],[88.3179,22.6707],[88.3499,22.6551],[88.3509,22.6522],[88.3509,22.6505],[88.3572,22.6326],[88.3582,22.6326],[88.3595,22.629],[88.3618,22.623],[88.3516,22.6055],[88.3209,22.5522],[88.2451,22.5605],[88.2388,22.5522],[88.2388,22.5446]]]}},{"type":"Feature","properties":{"district":"Kolkata","district_hi":"कोलकाता"},"geometry":{"type":"Polygon","coordinates":[[[88.4135,22.5568],[88.403,22.5588],[88.402,22.5595],[88.4014,22.5591],[88.3924,22.5512],[88.373,22.5343],[88.3677,22.5125],[88.3605,22.5095],[88.342,22.5039],[88.2916,22.5168],[88.2883,22.5383],[88.2879,22.5383],[88.2599,22.534],[88.2579,22.5419],[88.2388,22.5446],[88.2388,22.5522],[88.2451,22.5605],[88.3209,22.5522],[88.3516,22.6055],[88.3618,22.623],[88.3595,22.629],[88.3582,22.6326],[88.3644,22.632],[88.3915,22.629],[88.3911,22.5969],[88.4089,22.5615],[88.4135,22.5568]]]}},{"type":"Feature","properties":{"district":"Alipurduar","district_hi":"अलीपुरद्वार"},"geometry":{"type":"Polygon","coordinates":[[[89.1195,26.5241],[89.1191,26.5241],[89.1158,26.5416],[89.1036,26.539],[89.102,26.5635],[89.0931,26.5671],[89.098,26.5781],[89.1046,26.5916],[89.1053,26.5926],[89.0746,26.5949],[89.0743,26.6039],[89.0674,26.5966],[89.0453,26.6131],[89.0423,26.6314],[89.067,26.7002],[89.0753,26.7489],[89.069,26.7611],[89.0928,26.8138],[89.0901,26.8396],[89.0905,26.8406],[89.129,26.8065],[89.1689,26.8148],[89.256,26.8078],[89.3157,26.8436],[89.3249,26.8373],[89.3747,26.8541],[89.3823,26.8363],[89.4287,26.8353],[89.4545,26.7979],[89.5478,26.8131],[89.558,26.7975],[89.6401,26.7773],[89.6365,26.7505],[89.6088,26.7274],[89.62,26.7158],[89.6279,26.7224],[89.6497,26.7154],[89.6658,26.737],[89.7149,26.7201],[89.7436,26.7327],[89.7637,26.6989],[89.7994,26.7082],[89.8511,26.6986],[89.8633,26.6813],[89.8663,26.6456],[89.8498,26.6231],[89.8696,26.6141],[89.8656,26.592],[89.8742,26.584],[89.8577,26.5761],[89.8623,26.5539],[89.8511,26.5208],[89.8505,26.489],[89.8696,26.4638],[89.8478,26.4228],[89.8564,26.4129],[89.8366,26.4125],[89.8346,26.4145],[89.8257,26.4221],[89.835,26.4317],[89.8205,26.434],[89.8277,26.4486],[89.8531,26.4456],[89.8478,26.4519],[89.8597,26.4662],[89.8455,26.4701],[89.8218,26.4708],[89.8238,26.4599],[89.7492,26.4648],[89.7473,26.4403],[89.7281,26.4453],[89.6971,26.4274],[89.6586,26.4403],[89.648,26.4231],[89.6226,26.4231],[89.6167,26.399],[89.5817,26.4301],[89.5616,26.4284],[89.5699,26.4188],[89.5613,26.4105],[89.5461,26.4162],[89.5567,26.4301],[89.5369,26.4423],[89.5395,26.4582],[89.524,26.4738],[89.5016,26.4648],[89.4924,26.4777],[89.4512,26.4877],[89.4347,26.4675],[89.3915,26.4625],[89.3546,26.4946],[89.3028,26.4814],[89.189,26.5102],[89.1762,26.5016],[89.1478,26.5181],[89.1198,26.5241],[89.1195,26.5241]]]}},{"type":"Feature","properties":{"district":"Paschim Bardhaman","district_hi":"पश्चिम बर्धमान"},"geometry":{"type":"Polygon","coordinates":[[[87.1115,23.7751],[87.1534,23.7493],[87.2088,23.7499],[87.2239,23.738],[87.2638,23.7493],[87.2869,23.7258],[87.3528,23.7228],[87.3693,23.7003],[87.4089,23.687],[87.4175,23.6741],[87.4109,23.6549],[87.4465,23.6145],[87.4867,23.6039],[87.4884,23.6026],[87.4894,23.6033],[87.4946,23.6019],[87.5243,23.6172],[87.5296,23.6152],[87.5339,23.6089],[87.5246,23.5887],[87.4989,23.5764],[87.4841,23.5526],[87.4903,23.538],[87.4762,23.5271],[87.4659,23.5314],[87.4725,23.5235],[87.4501,23.4811],[87.4666,23.4781],[87.4699,23.4437],[87.464,23.4242],[87.463,23.4222],[87.4455,23.4185],[87.4442,23.4311],[87.4343,23.4212],[87.4491,23.403],[87.2777,23.4993],[87.2088,23.5576],[87.1197,23.5778],[87.0142,23.6324],[86.9203,23.6307],[86.9025,23.6393],[86.8467,23.684],[86.7989,23.6999],[86.8118,23.7453],[86.8286,23.7598],[86.8256,23.7774],[86.8042,23.8016],[86.8101,23.8218],[86.8002,23.834],[86.8098,23.8353],[86.8141,23.8184],[86.8266,23.8141],[86.8748,23.8476],[86.8899,23.8198],[86.8945,23.835],[86.8814,23.8631],[86.9163,23.8827],[86.947,23.8459],[86.9628,23.8496],[86.973,23.8691],[87.038,23.8393],[87.0874,23.8102],[87.1115,23.7751]]]}},{"type":"Feature","properties":{"district":"Kalimpong","district_hi":"कालिम्पोंग"},"geometry":{"type":"Polygon","coordinates":[[[88.4788,26.88],[88.4752,26.9131],[88.4432,26.9382],[88.4389,26.9607],[88.4238,26.9564],[88.4182,26.9819],[88.3905,26.9882],[88.4221,27.0094],[88.4129,27.0256],[88.4185,27.0614],[88.4257,27.0713],[88.4587,27.0895],[88.4752,27.121],[88.4963,27.1223],[88.5299,27.1481],[88.5319,27.1763],[88.5972,27.1882],[88.6529,27.16],[88.6882,27.1753],[88.7067,27.1663],[88.7245,27.1355],[88.798,27.1392],[88.8461,27.1084],[88.8659,27.1091],[88.8768,27.0372],[88.8679,26.965],[88.7894,26.9912],[88.7558,26.9637],[88.7594,26.9257],[88.6635,26.926],[88.6684,26.9455],[88.6585,26.967],[88.6358,26.9303],[88.6345,26.9058],[88.6203,26.9051],[88.6028,26.8796],[88.5731,26.8886],[88.5115,26.8631],[88.4788,26.88]]]}},{"type":"Feature","properties":{"district":"Cooch Behar","district_hi":"कोच बिहार"},"geometry":{"type":"MultiPolygon","coordinates":[[[[89.4954,25.9348],[89.4894,25.9289],[89.4874,25.9309],[89.4954,25.9348]]],[[[89.5085,25.9474],[89.4947,25.9547],[89.5023,25.9597],[89.5085,25.9474]]],[[[89.5986,25.9514],[89.6045,25.9424],[89.5883,25.9355],[89.5867,25.9464],[89.5765,25.9325],[89.5745,25.9477],[89.5646,25.9481],[89.586,25.9623],[89.5986,25.9514]]],[[[89.6173,26.1245],[89.615,26.1275],[89.6187,26.1265],[89.6173,26.1245]]],[[[89.6114,26.1282],[89.6055,26.1305],[89.6094,26.1311],[89.6114,26.1282]]],[[[89.6233,26.1513],[89.6253,26.1484],[89.6206,26.1543],[89.6233,26.1513]]],[[[88.9757,26.1937],[88.9724,26.1957],[88.9728,26.1983],[88.9757,26.1937]]],[[[88.9503,26.202],[88.9487,26.2033],[88.951,26.203],[88.9503,26.202]]],[[[89.6652,26.1685],[89.6642,26.1659],[89.6605,26.1682],[89.6652,26.1685]]],[[[88.9615,26.2013],[88.9576,26.205],[88.9622,26.205],[88.9615,26.2013]]],[[[88.9652,26.2146],[88.9599,26.2126],[88.9543,26.2132],[88.9652,26.2146]]],[[[89.0552,26.2427],[89.0542,26.2427],[89.0542,26.244],[89.0552,26.2427]]],[[[89.0572,26.243],[89.0565,26.2437],[89.0575,26.2437],[89.0572,26.243]]],[[[89.0858,26.2493],[89.0743,26.2483],[89.0743,26.2503],[89.0858,26.2493]]],[[[89.0733,26.2788],[89.071,26.2781],[89.0697,26.2828],[89.0733,26.2788]]],[[[89.0802,26.2927],[89.0766,26.2924],[89.0756,26.296],[89.0802,26.2927]]],[[[89.0136,26.301],[89.0126,26.3013],[89.013,26.303],[89.0136,26.301]]],[[[89.0598,26.3043],[89.0687,26.298],[89.0591,26.295],[89.0598,26.3043]]],[[[89.0694,26.3053],[89.0687,26.3083],[89.07,26.3083],[89.0694,26.3053]]],[[[89.0539,26.3099],[89.0529,26.3063],[89.0479,26.3063],[89.0539,26.3099]]],[[[89.0684,26.3089],[89.0647,26.3092],[89.0647,26.3129],[89.0684,26.3089]]],[[[89.0212,26.3165],[89.0173,26.3109],[89.0163,26.3165],[89.0212,26.3165]]],[[[89.0011,26.3172],[88.9975,26.3185],[88.9978,26.3225],[89.0011,26.3172]]],[[[89.0341,26.3179],[89.0275,26.3188],[89.0354,26.3208],[89.0341,26.3179]]],[[[89.075,26.3235],[89.0697,26.3132],[89.0549,26.3222],[89.075,26.3235]]],[[[89.008,26.3245],[89.0057,26.3298],[89.009,26.3278],[89.008,26.3245]]],[[[89.0084,26.34],[89.0179,26.3331],[89.0103,26.3311],[89.0084,26.34]]],[[[88.9965,26.3447],[88.9975,26.3417],[88.9902,26.343],[88.9965,26.3447]]],[[[88.9859,26.3569],[88.9863,26.3549],[88.9807,26.3549],[88.9859,26.3569]]],[[[89.076,26.3659],[89.0746,26.3668],[89.076,26.3678],[89.076,26.3659]]],[[[88.9322,26.3761],[88.9319,26.3665],[88.9213,26.3738],[88.9322,26.3761]]],[[[89.0525,26.3721],[89.0529,26.3682],[89.0519,26.3682],[89.0525,26.3721]]],[[[89.0502,26.3728],[89.0476,26.3728],[89.0479,26.3761],[89.0502,26.3728]]],[[[89.0542,26.3728],[89.0532,26.3781],[89.0545,26.3761],[89.0542,26.3728]]],[[[89.0799,26.389],[89.0789,26.3887],[89.0783,26.3897],[89.0799,26.389]]],[[[88.9846,26.391],[88.982,26.392],[88.9833,26.3956],[88.9846,26.391]]],[[[89.0166,26.4056],[89.012,26.4052],[89.0146,26.4092],[89.0166,26.4056]]],[[[88.9675,26.4089],[88.9655,26.4145],[88.9685,26.4125],[88.9675,26.4089]]],[[[88.9906,26.4059],[88.9863,26.4135],[88.9922,26.4125],[88.9906,26.4059]]],[[[88.985,26.4139],[88.9826,26.4029],[88.9714,26.4122],[88.985,26.4139]]],[[[88.9695,26.4208],[88.9734,26.4182],[88.9662,26.4178],[88.9695,26.4208]]],[[[88.9507,26.4119],[88.9493,26.4013],[88.95,26.4268],[88.9507,26.4119]]],[[[88.9678,26.4291],[88.9652,26.4317],[88.9685,26.4337],[88.9678,26.4291]]],[[[88.9774,26.444],[88.978,26.441],[88.976,26.4423],[88.9774,26.444]]],[[[88.7604,26.3298],[88.7604,26.3301],[88.7584,26.3344],[88.7492,26.3559],[88.7584,26.3738],[88.772,26.396],[88.7756,26.397],[88.799,26.3774],[88.8603,26.3917],[88.8738,26.4052],[88.8821,26.44],[88.9266,26.4532],[88.9256,26.4539],[88.923,26.4556],[88.8992,26.4708],[88.9216,26.4638],[88.9368,26.4708],[88.9329,26.5003],[88.947,26.5016],[88.9638,26.5244],[88.9622,26.5387],[89.0222,26.5155],[89.0446,26.5297],[89.0519,26.5344],[89.073,26.5337],[89.1195,26.5224],[89.1195,26.5241],[89.1198,26.5241],[89.1478,26.5181],[89.1762,26.5016],[89.189,26.5102],[89.3028,26.4814],[89.3546,26.4946],[89.3915,26.4625],[89.4347,26.4675],[89.4512,26.4877],[89.4924,26.4777],[89.5016,26.4648],[89.524,26.4738],[89.5395,26.4582],[89.5369,26.4423],[89.5567,26.4301],[89.5461,26.4162],[89.5613,26.4105],[89.5699,26.4188],[89.5616,26.4284],[89.5817,26.4301],[89.6167,26.399],[89.6226,26.4231],[89.648,26.4231],[89.6586,26.4403],[89.6971,26.4274],[89.7281,26.4453],[89.7473,26.4403],[89.7492,26.4648],[89.8238,26.4599],[89.8218,26.4708],[89.8455,26.4701],[89.8597,26.4662],[89.8478,26.4519],[89.8531,26.4456],[89.8277,26.4486],[89.8205,26.434],[89.835,26.4317],[89.8257,26.4221],[89.8346,26.4145],[89.828,26.3947],[89.8379,26.3913],[89.8462,26.4049],[89.8564,26.3844],[89.8247,26.3817],[89.8205,26.3526],[89.8112,26.3606],[89.8205,26.3731],[89.7809,26.3529],[89.7825,26.3327],[89.7631,26.3165],[89.7506,26.3215],[89.7571,26.2887],[89.7268,26.2943],[89.7199,26.3069],[89.7176,26.2957],[89.7384,26.2698],[89.7196,26.2573],[89.707,26.2705],[89.7024,26.2593],[89.7169,26.2569],[89.7321,26.2367],[89.7004,26.2179],[89.7341,26.2099],[89.7116,26.2023],[89.7205,26.1954],[89.7133,26.1871],[89.6985,26.1907],[89.7097,26.1719],[89.7367,26.1722],[89.7136,26.1682],[89.7014,26.1513],[89.6807,26.1656],[89.7021,26.1735],[89.6869,26.1811],[89.6863,26.1977],[89.6727,26.2007],[89.6912,26.2113],[89.6793,26.2149],[89.679,26.2238],[89.6892,26.2209],[89.6856,26.2308],[89.6787,26.2384],[89.6718,26.2195],[89.6609,26.2189],[89.6342,26.2295],[89.6322,26.2093],[89.65,26.1901],[89.6421,26.1851],[89.6302,26.196],[89.6276,26.1838],[89.6586,26.1762],[89.646,26.1642],[89.6325,26.1808],[89.6246,26.1712],[89.6236,26.1791],[89.6075,26.1791],[89.6193,26.1676],[89.6088,26.1533],[89.591,26.1576],[89.5962,26.1348],[89.6042,26.1169],[89.6253,26.1282],[89.6302,26.1176],[89.6157,26.1063],[89.5976,26.1123],[89.5936,26.1017],[89.6084,26.0881],[89.6137,26.1027],[89.6295,26.1066],[89.6394,26.0904],[89.6338,26.0802],[89.65,26.0636],[89.6206,26.0533],[89.6051,26.0639],[89.6131,26.053],[89.5784,26.0262],[89.586,25.9752],[89.5699,25.9669],[89.5662,25.9795],[89.5554,25.9646],[89.5389,25.9729],[89.5362,25.9891],[89.5491,25.9974],[89.5409,26.0057],[89.4627,25.9981],[89.4271,26.0136],[89.434,26.0308],[89.4238,26.0467],[89.3895,26.0219],[89.3935,26.008],[89.3493,26.0103],[89.3239,26.0381],[89.3005,26.0507],[89.2794,26.049],[89.28,26.0666],[89.2543,26.0646],[89.2655,26.0927],[89.252,26.0917],[89.2296,26.1239],[89.1923,26.1239],[89.1551,26.1388],[89.1485,26.1583],[89.1574,26.1633],[89.1346,26.1805],[89.1495,26.2093],[89.1409,26.2361],[89.1198,26.2526],[89.1251,26.2636],[89.1,26.2798],[89.1046,26.3159],[89.1208,26.2871],[89.1323,26.3003],[89.1168,26.3145],[89.1307,26.3096],[89.1363,26.3202],[89.1126,26.3185],[89.0967,26.3294],[89.0835,26.3225],[89.1013,26.3367],[89.0984,26.3592],[89.0799,26.3629],[89.0964,26.3907],[89.0628,26.4009],[89.0341,26.3953],[89.0061,26.4215],[88.9939,26.4231],[88.9942,26.4132],[88.9807,26.4258],[88.9833,26.447],[88.9648,26.4582],[88.946,26.4483],[88.9451,26.4261],[88.9263,26.4324],[88.9329,26.4278],[88.923,26.4238],[88.9263,26.4069],[88.9048,26.4089],[88.9183,26.4003],[88.9091,26.3804],[88.9213,26.3774],[88.9108,26.3682],[88.9368,26.3569],[88.9586,26.3619],[88.9464,26.3467],[88.9589,26.344],[88.9559,26.3304],[88.9612,26.3526],[88.9863,26.349],[88.9853,26.3331],[89.0008,26.3304],[88.9915,26.3225],[88.9968,26.3139],[88.985,26.3185],[88.9826,26.3102],[88.9975,26.3],[88.9958,26.2904],[89.0074,26.3046],[89.0186,26.29],[89.0215,26.3092],[89.0196,26.29],[89.041,26.2861],[89.045,26.2755],[89.0506,26.2887],[89.0413,26.29],[89.0591,26.2937],[89.0624,26.2788],[89.0542,26.2775],[89.0628,26.2559],[89.0512,26.2553],[89.0509,26.2414],[88.9823,26.2447],[88.9536,26.2649],[88.9787,26.2444],[88.9569,26.2404],[88.9263,26.2841],[88.8982,26.2887],[88.8758,26.2867],[88.8613,26.2728],[88.8613,26.252],[88.8785,26.2334],[88.8428,26.2308],[88.8128,26.2556],[88.8191,26.2947],[88.7934,26.3102],[88.7601,26.3006],[88.7604,26.3298]]]]}},{"type":"Feature","properties":{"district":"Uttar Dinajpur","district_hi":"उत्तर दिनाजपुर"},"geometry":{"type":"Polygon","coordinates":[[[88.3334,26.4973],[88.3506,26.4486],[88.3608,26.4552],[88.3608,26.4847],[88.3727,26.4893],[88.3875,26.4797],[88.403,26.487],[88.4185,26.4665],[88.4267,26.4741],[88.4844,26.4612],[88.4788,26.4526],[88.4956,26.4374],[88.4887,26.4311],[88.5016,26.4185],[88.4953,26.4102],[88.5177,26.3907],[88.5118,26.3774],[88.524,26.3751],[88.5144,26.3652],[88.522,26.3606],[88.5039,26.349],[88.5072,26.3629],[88.4884,26.3606],[88.4838,26.3496],[88.4623,26.3576],[88.4564,26.3771],[88.435,26.3357],[88.4027,26.3301],[88.4149,26.3165],[88.3842,26.3139],[88.3486,26.2821],[88.3473,26.2536],[88.3591,26.2424],[88.3509,26.2215],[88.3199,26.2033],[88.2906,26.2026],[88.2751,26.1881],[88.2421,26.1897],[88.2269,26.1695],[88.1966,26.1642],[88.1949,26.1523],[88.1788,26.1497],[88.1785,26.1242],[88.1583,26.0984],[88.1649,26.0874],[88.1577,26.0795],[88.1821,26.0735],[88.1785,26.0464],[88.1682,26.0444],[88.1821,26.0265],[88.1396,26.0139],[88.1438,26.003],[88.1293,25.9971],[88.1138,25.9587],[88.1211,25.9481],[88.1105,25.9325],[88.0931,25.9302],[88.0865,25.9136],[88.0944,25.909],[88.0894,25.8968],[88.1023,25.8898],[88.0937,25.8739],[88.102,25.8617],[88.1102,25.8676],[88.1016,25.8296],[88.1201,25.8127],[88.1152,25.7988],[88.1445,25.7941],[88.1511,25.7759],[88.1844,25.8024],[88.2098,25.7878],[88.216,25.8008],[88.2306,25.7968],[88.2401,25.8107],[88.2616,25.8137],[88.2751,25.7928],[88.2675,25.7822],[88.3163,25.7528],[88.3212,25.7372],[88.3743,25.716],[88.3723,25.6961],[88.4043,25.6846],[88.4023,25.672],[88.4548,25.664],[88.4564,25.6283],[88.4462,25.615],[88.4462,25.5952],[88.4462,25.5892],[88.4234,25.5872],[88.4135,25.5939],[88.4198,25.6044],[88.401,25.6068],[88.3911,25.5955],[88.3684,25.5922],[88.3591,25.5667],[88.3351,25.5541],[88.3255,25.5594],[88.3229,25.5349],[88.2889,25.5144],[88.278,25.4916],[88.2566,25.4833],[88.2569,25.4786],[88.2642,25.4644],[88.2622,25.434],[88.2177,25.4412],[88.1956,25.4257],[88.1663,25.4267],[88.1729,25.3853],[88.1864,25.376],[88.1633,25.3691],[88.1781,25.3446],[88.1715,25.3264],[88.1969,25.3297],[88.2131,25.332],[88.2164,25.3323],[88.2279,25.3197],[88.2569,25.3174],[88.2675,25.3042],[88.2685,25.3029],[88.2675,25.3022],[88.2365,25.2952],[88.2381,25.3058],[88.2147,25.3135],[88.191,25.281],[88.1616,25.3045],[88.161,25.3042],[88.1455,25.2972],[88.1396,25.277],[88.1504,25.2721],[88.1267,25.2439],[88.1214,25.2714],[88.0993,25.2751],[88.1092,25.2853],[88.1023,25.2896],[88.1264,25.2982],[88.1079,25.3267],[88.1227,25.3651],[88.0977,25.3833],[88.1155,25.4071],[88.1013,25.4048],[88.1096,25.4174],[88.0934,25.4217],[88.1128,25.4353],[88.099,25.4316],[88.0967,25.4436],[88.0842,25.4472],[88.0835,25.4482],[88.0792,25.4585],[88.0693,25.526],[88.0598,25.5263],[88.065,25.5319],[88.0522,25.5492],[88.0314,25.5541],[88.0403,25.5737],[88.0209,25.5707],[88.0354,25.5809],[88.0245,25.5826],[88.0215,25.5962],[88.0436,25.6104],[88.0344,25.6306],[88.0551,25.6448],[88.036,25.6488],[88.0505,25.6534],[88.0551,25.6915],[88.0489,25.7028],[88.0212,25.6965],[88.0215,25.7104],[87.9925,25.7263],[87.9678,25.7259],[87.9421,25.7743],[87.9045,25.7726],[87.9104,25.8037],[87.9002,25.807],[87.9177,25.8163],[87.9002,25.8233],[87.9058,25.8305],[87.8893,25.8299],[87.9035,25.8332],[87.8985,25.8382],[87.9157,25.8534],[87.8923,25.8656],[87.883,25.8594],[87.8748,25.8683],[87.8296,25.8716],[87.8253,25.911],[87.8098,25.912],[87.8108,25.9279],[87.8395,25.9338],[87.8346,25.9464],[87.8481,25.9696],[87.8553,26.0351],[87.8863,26.0434],[87.8936,26.0639],[87.9266,26.0838],[87.9351,26.0643],[87.949,26.06],[87.9536,26.0752],[87.9823,26.0729],[87.981,26.0848],[87.9641,26.0951],[87.9889,26.1053],[87.9856,26.1176],[87.9688,26.1192],[87.9819,26.1275],[87.975,26.1431],[87.9925,26.151],[87.9984,26.1397],[88.0103,26.1454],[88.0093,26.1603],[88.0347,26.1791],[88.0733,26.1752],[88.1165,26.2238],[88.1419,26.2265],[88.1458,26.2503],[88.1765,26.254],[88.1857,26.2708],[88.2276,26.2847],[88.2312,26.3013],[88.2503,26.3116],[88.2533,26.3344],[88.2744,26.3311],[88.2757,26.3327],[88.2754,26.3314],[88.2751,26.3311],[88.2853,26.3298],[88.2856,26.3473],[88.3005,26.3506],[88.2876,26.3579],[88.2833,26.3781],[88.2447,26.3758],[88.2342,26.3917],[88.2612,26.4198],[88.2734,26.4188],[88.251,26.4331],[88.2408,26.4579],[88.2404,26.4589],[88.2635,26.4864],[88.285,26.4811],[88.2916,26.4917],[88.3219,26.4976],[88.3334,26.4973]]]}}]}